{
"type": "FeatureCollection",
"name": "Bridge",
"crs": { "type": "name", "properties": { "name": "urn:ogc:def:crs:OGC:1.3:CRS84" } },
"xy_coordinate_resolution": 1e-15,
"features": [
{ "type": "Feature", "properties": { "Id": "9570823518027778" }, "geometry": { "type": "MultiLineString", "coordinates": [ [ [ 71.441012470751815, 51.12148121394668 ], [ 71.446986177559694, 51.12056923934928 ], [ 71.450489068178584, 51.120002446015974 ] ] ] } },
{ "type": "Feature", "properties": { "Id": "9570823518027779" }, "geometry": { "type": "MultiLineString", "coordinates": [ [ [ 71.450367346457583, 51.119694800403849 ], [ 71.446867060953011, 51.120272423652033 ], [ 71.440900450835898, 51.121191734161954 ] ] ] } },
{ "type": "Feature", "properties": { "Id": "9570823518027818" }, "geometry": { "type": "MultiLineString", "coordinates": [ [ [ 71.453682309519053, 51.130362692945333 ], [ 71.452793067219304, 51.130505149382884 ], [ 71.44843992118399, 51.131203444527046 ], [ 71.443894356014809, 51.131905393288825 ], [ 71.443790331104907, 51.131921459289615 ], [ 71.443171032548037, 51.132018757125856 ], [ 71.443069612752453, 51.132041362213734 ], [ 71.442827067625743, 51.132117689535946 ], [ 71.442660340309004, 51.132186970282689 ], [ 71.442534666000768, 51.132259520473191 ], [ 71.442507832250215, 51.132276612097222 ] ] ] } },
{ "type": "Feature", "properties": { "Id": "9570823518027819" }, "geometry": { "type": "MultiLineString", "coordinates": [ [ [ 71.453572804885908, 51.130082119563056 ], [ 71.45268077780878, 51.13022463324009 ], [ 71.448351167633916, 51.130925469417164 ], [ 71.443949782067847, 51.131595233820128 ], [ 71.44315252725319, 51.131717730711252 ], [ 71.442913665219123, 51.131725059092965 ], [ 71.442714239226063, 51.131719140015505 ], [ 71.442566466361825, 51.131709782234381 ], [ 71.442402523822466, 51.131692475971512 ], [ 71.442220525145913, 51.131655044814003 ], [ 71.442058918226294, 51.131617669998434 ], [ 71.441915277612367, 51.131569922641049 ] ] ] } },
{ "type": "Feature", "properties": { "Id": "9570823518027879" }, "geometry": { "type": "MultiLineString", "coordinates": [ [ [ 71.440385115427659, 51.132453285741661 ], [ 71.440513007453845, 51.132387370881148 ], [ 71.442950675808845, 51.132008441084572 ], [ 71.442777031464416, 51.13206323445781 ], [ 71.442600332848031, 51.132136179444331 ], [ 71.44246603471305, 51.132213634041165 ], [ 71.442353835134057, 51.132285000388741 ], [ 71.44233157996959, 51.132302665544202 ] ] ] } },
{ "type": "Feature", "properties": { "Id": "9570823518027880" }, "geometry": { "type": "MultiLineString", "coordinates": [ [ [ 71.440387692471717, 51.131510055164497 ], [ 71.440479140967639, 51.131509153205698 ], [ 71.44056870300146, 51.13151760906883 ], [ 71.440633202038853, 51.131528094336979 ], [ 71.440717913170161, 51.131552672698149 ], [ 71.440923627370225, 51.131675846168839 ], [ 71.441067447647214, 51.131816607394178 ], [ 71.441167789464444, 51.131877601912862 ], [ 71.441245942894156, 51.131916216700496 ], [ 71.441353650896716, 51.13194631930088 ], [ 71.441466928454062, 51.131959566693709 ], [ 71.441590356974089, 51.131967402383829 ], [ 71.441713336336491, 51.131973265057603 ], [ 71.442144437841336, 51.13191717502329 ], [ 71.442973762511642, 51.131786448337174 ], [ 71.44291114993635, 51.131787970383499 ], [ 71.442709567986583, 51.131781994942031 ], [ 71.442554878094654, 51.131772298941009 ], [ 71.442375035374781, 51.131753019677113 ], [ 71.442186928154271, 51.131714292008652 ], [ 71.442015888924189, 51.131674436863243 ], [ 71.44187844668572, 51.131629113572643 ] ] ] } },
{ "type": "Feature", "properties": { "Id": "9570823518027881" }, "geometry": { "type": "MultiLineString", "coordinates": [ [ [ 71.440397753602909, 51.131572741258552 ], [ 71.44049306485455, 51.131573755960829 ], [ 71.4405978982482, 51.131587116205182 ], [ 71.440656109078603, 51.131602562221282 ], [ 71.440834244999451, 51.131707076369608 ], [ 71.440993695962376, 51.131859393760905 ], [ 71.441098259861462, 51.131922924959589 ], [ 71.441193750776165, 51.131967627871305 ], [ 71.441255195541586, 51.131987470764031 ], [ 71.441318077611484, 51.132005227890907 ], [ 71.441476091269948, 51.132023379613564 ], [ 71.440528817802857, 51.132169269597306 ], [ 71.440648293735634, 51.132120846350098 ], [ 71.44071485889819, 51.132090912978633 ], [ 71.440784837658825, 51.132046041070936 ], [ 71.44084215017395, 51.131984370312608 ], [ 71.440868380980248, 51.131926081787057 ], [ 71.440868830137902, 51.131854151164752 ], [ 71.440857601196839, 51.131806291307733 ], [ 71.440833346684173, 51.131756740237442 ], [ 71.440799570029483, 51.131717336106043 ], [ 71.44073210655165, 51.13166722121796 ], [ 71.440667338019651, 51.131631875814264 ], [ 71.440605533928121, 51.131610172482787 ], [ 71.440550736695783, 51.131596361266539 ], [ 71.440477703663191, 51.131585988758566 ], [ 71.440395417983154, 51.131582380929146 ] ] ] } },
{ "type": "Feature", "properties": { "Id": "9570823518027882" }, "geometry": { "type": "MultiLineString", "coordinates": [ [ [ 71.440403412989184, 51.131648392888266 ], [ 71.440468001858122, 51.131649069355333 ], [ 71.440518038019448, 51.131655834025473 ], [ 71.440559809680153, 51.131666093773283 ], [ 71.440613798428714, 51.131685091212411 ], [ 71.440667517682726, 51.131715983173898 ], [ 71.440710636816362, 51.131747607952484 ], [ 71.440739472736993, 51.131778725360505 ], [ 71.440761391629906, 51.131812154001963 ], [ 71.440775405348347, 51.131847161035601 ], [ 71.440780346082406, 51.131883069994238 ], [ 71.440776034169033, 51.13191892255302 ], [ 71.440762649271321, 51.13195398587763 ], [ 71.440740371052257, 51.131987132532977 ], [ 71.440708480859669, 51.132005227890907 ], [ 71.440653054806631, 51.132041418585509 ], [ 71.44059044223134, 51.132069491721609 ], [ 71.440531243254114, 51.132095591830819 ], [ 71.44044302869321, 51.132125074225861 ], [ 71.440278040442067, 51.132174664564396 ] ] ] } },
{ "type": "Feature", "properties": { "Id": "9570823518027929" }, "geometry": { "type": "MultiLineString", "coordinates": [ [ [ 71.459461081910248, 51.124845282577553 ], [ 71.459349690815017, 51.124827466317022 ] ] ] } },
{ "type": "Feature", "properties": { "Id": "9570823518027930" }, "geometry": { "type": "MultiLineString", "coordinates": [ [ [ 71.459366848636961, 51.124783827725835 ], [ 71.459478329563709, 51.124801474861336 ] ] ] } },
{ "type": "Feature", "properties": { "Id": "9570823518027931" }, "geometry": { "type": "MultiLineString", "coordinates": [ [ [ 71.459705693162121, 51.123873553397885 ], [ 71.459867300081726, 51.123841866845495 ] ] ] } },
{ "type": "Feature", "properties": { "Id": "9570823518027932" }, "geometry": { "type": "MultiLineString", "coordinates": [ [ [ 71.459725635761444, 51.123822584270933 ], [ 71.459887152849504, 51.123790954065427 ] ] ] } },
{ "type": "Feature", "properties": { "Id": "9570823518027933" }, "geometry": { "type": "MultiLineString", "coordinates": [ [ [ 71.459961982512681, 51.123599086240567 ], [ 71.459806034979351, 51.123616846592824 ] ] ] } },
{ "type": "Feature", "properties": { "Id": "9570823518027934" }, "geometry": { "type": "MultiLineString", "coordinates": [ [ [ 71.45998075730212, 51.123551105064287 ], [ 71.459824719937259, 51.123568978199238 ] ] ] } },
{ "type": "Feature", "properties": { "Id": "9570823518027935" }, "geometry": { "type": "MultiLineString", "coordinates": [ [ [ 71.460370356640851, 51.122169721978395 ], [ 71.460523519396787, 51.122154723878218 ] ] ] } },
{ "type": "Feature", "properties": { "Id": "9570823518027936" }, "geometry": { "type": "MultiLineString", "coordinates": [ [ [ 71.460541934860117, 51.122107417808515 ], [ 71.460388861935698, 51.122122359540164 ] ] ] } },
{ "type": "Feature", "properties": { "Id": "9570823518027937" }, "geometry": { "type": "MultiLineString", "coordinates": [ [ [ 71.460894343946066, 51.121257366278385 ], [ 71.460732557363414, 51.121295087787658 ] ] ] } },
{ "type": "Feature", "properties": { "Id": "9570823518027938" }, "geometry": { "type": "MultiLineString", "coordinates": [ [ [ 71.460915005197592, 51.121204533559677 ], [ 71.46075321861494, 51.121242311497035 ] ] ] } },
{ "type": "Feature", "properties": { "Id": "9570823518027976" }, "geometry": { "type": "MultiLineString", "coordinates": [ [ [ 71.455996279859406, 51.12705743365229 ], [ 71.456179985335012, 51.127147243496289 ] ] ] } },
{ "type": "Feature", "properties": { "Id": "9570823518027977" }, "geometry": { "type": "MultiLineString", "coordinates": [ [ [ 71.456065899293932, 51.126999759065292 ], [ 71.456248347128124, 51.127086975641589 ] ] ] } },
{ "type": "Feature", "properties": { "Id": "9570823518027978" }, "geometry": { "type": "MultiLineString", "coordinates": [ [ [ 71.456128062711585, 51.127817682840238 ], [ 71.456040566802912, 51.127746535096975 ] ] ] } },
{ "type": "Feature", "properties": { "Id": "9570823518027979" }, "geometry": { "type": "MultiLineString", "coordinates": [ [ [ 71.456184476911432, 51.127790114512159 ], [ 71.456097070834289, 51.127719079480535 ] ] ] } },
{ "type": "Feature", "properties": { "Id": "9570823518027980" }, "geometry": { "type": "MultiLineString", "coordinates": [ [ [ 71.455027806151591, 51.121993522185704 ], [ 71.454981453082937, 51.121889719049236 ] ] ] } },
{ "type": "Feature", "properties": { "Id": "9570823518027981" }, "geometry": { "type": "MultiLineString", "coordinates": [ [ [ 71.455096617102356, 51.121981399615251 ], [ 71.455050174202157, 51.121877540067359 ] ] ] } },
{ "type": "Feature", "properties": { "Id": "9570823518027982" }, "geometry": { "type": "MultiLineString", "coordinates": [ [ [ 71.462499633358789, 51.121340026526049 ], [ 71.462926153455683, 51.121314315032393 ] ] ] } },
{ "type": "Feature", "properties": { "Id": "9570823518027983" }, "geometry": { "type": "MultiLineString", "coordinates": [ [ [ 71.46249289599416, 51.121295200557434 ], [ 71.462919416091054, 51.121269601808685 ] ] ] } },
{ "type": "Feature", "properties": { "Id": "9570823518028000" }, "geometry": { "type": "MultiLineString", "coordinates": [ [ [ 71.454094726065989, 51.122070373569933 ], [ 71.45418716270872, 51.121979595325435 ] ] ] } },
{ "type": "Feature", "properties": { "Id": "9570823518028001" }, "geometry": { "type": "MultiLineString", "coordinates": [ [ [ 71.453998426667525, 51.122031525013838 ], [ 71.454091132804862, 51.121940746692999 ] ] ] } },
{ "type": "Feature", "properties": { "Id": "9570823518028004" }, "geometry": { "type": "MultiLineString", "coordinates": [ [ [ 71.436441346478247, 51.12219115456697 ], [ 71.437155015090269, 51.122080579063272 ] ] ] } },
{ "type": "Feature", "properties": { "Id": "9570823518028005" }, "geometry": { "type": "MultiLineString", "coordinates": [ [ [ 71.436527764662912, 51.121889150631795 ], [ 71.43706168013226, 51.12180694701663 ] ] ] } },
{ "type": "Feature", "properties": { "Id": "9570823518028006" }, "geometry": { "type": "MultiLineString", "coordinates": [ [ [ 71.438496757720785, 51.127539566215695 ], [ 71.439147658053514, 51.127435051016306 ], [ 71.439350048487029, 51.127402972264989 ], [ 71.439822113168844, 51.127328328476189 ], [ 71.439886702037768, 51.127317955009588 ] ] ] } },
{ "type": "Feature", "properties": { "Id": "9570823518028007" }, "geometry": { "type": "MultiLineString", "coordinates": [ [ [ 71.438469898545719, 51.127469675615771 ], [ 71.439119450953598, 51.127365312120745 ], [ 71.439321841387098, 51.127333346076036 ], [ 71.439793816237383, 51.127258589419483 ], [ 71.439858494937837, 51.127248272314844 ] ] ] } },
{ "type": "Feature", "properties": { "Id": "9570823518028008" }, "geometry": { "type": "MultiLineString", "coordinates": [ [ [ 71.438177955446093, 51.126710006775575 ], [ 71.439557020328493, 51.12649477918027 ] ] ] } },
{ "type": "Feature", "properties": { "Id": "9570823518028009" }, "geometry": { "type": "MultiLineString", "coordinates": [ [ [ 71.438151091198833, 51.12664010297722 ], [ 71.439529621712325, 51.126424982486341 ] ] ] } },
{ "type": "Feature", "properties": { "Id": "70030076166256412" }, "geometry": { "type": "MultiLineString", "coordinates": [ [ [ 71.458387684977268, 51.127093402713108 ], [ 71.457716194302392, 51.126440542986209 ] ] ] } },
{ "type": "Feature", "properties": { "Id": "70030076166256417" }, "geometry": { "type": "MultiLineString", "coordinates": [ [ [ 71.45833576235384, 51.12710924487677 ], [ 71.45767280567415, 51.126464560269191 ] ] ] } },
{ "type": "Feature", "properties": { "Id": "70030076242134963" }, "geometry": { "type": "MultiLineString", "coordinates": [ [ [ 71.459121788227449, 51.123224764084846 ], [ 71.459272884858237, 51.12320779293767 ] ] ] } },
{ "type": "Feature", "properties": { "Id": "70030076242134985" }, "geometry": { "type": "MultiLineString", "coordinates": [ [ [ 71.459120081428395, 51.123197644075915 ], [ 71.459269740754735, 51.12318084206656 ] ] ] } },
{ "type": "Feature", "properties": { "Id": "70030076242135317" }, "geometry": { "type": "MultiLineString", "coordinates": [ [ [ 71.459461531067916, 51.123186649473162 ], [ 71.459611998877989, 51.12316979107721 ] ] ] } },
{ "type": "Feature", "properties": { "Id": "70030076242135345" }, "geometry": { "type": "MultiLineString", "coordinates": [ [ [ 71.45945955477427, 51.123159529441878 ], [ 71.459603644545851, 51.123143347627675 ] ] ] } },
{ "type": "Feature", "properties": { "Id": "70030077077449752" }, "geometry": { "type": "MultiLineString", "coordinates": [ [ [ 71.460338825774372, 51.121213667929446 ], [ 71.460395599300341, 51.121233289902861 ] ] ] } },
{ "type": "Feature", "properties": { "Id": "70030077077449817" }, "geometry": { "type": "MultiLineString", "coordinates": [ [ [ 71.460301725353148, 51.121251727784077 ], [ 71.460353917471139, 51.121271857205627 ] ] ] } },
{ "type": "Feature", "properties": { "Id": "70030077077457407" }, "geometry": { "type": "MultiLineString", "coordinates": [ [ [ 71.456517841713364, 51.122226613223944 ], [ 71.456490712591773, 51.122251816756297 ] ] ] } },
{ "type": "Feature", "properties": { "Id": "70030077077457451" }, "geometry": { "type": "MultiLineString", "coordinates": [ [ [ 71.456481729438934, 51.12221161514222 ], [ 71.456454690148888, 51.122236875066527 ] ] ] } },
{ "type": "Feature", "properties": { "Id": "70030077077631981" }, "geometry": { "type": "MultiLineString", "coordinates": [ [ [ 71.456673609583632, 51.126853683616062 ], [ 71.456683940209402, 51.126889089054906 ] ] ] } },
{ "type": "Feature", "properties": { "Id": "70030077077631987" }, "geometry": { "type": "MultiLineString", "coordinates": [ [ [ 71.456716099896568, 51.126848722342224 ], [ 71.456726430522338, 51.12688378951642 ] ] ] } },
{ "type": "Feature", "properties": { "Id": "70030077077635497" }, "geometry": { "type": "MultiLineString", "coordinates": [ [ [ 71.45768771770787, 51.125560802727698 ], [ 71.457752576071385, 51.125586850135761 ] ] ] } },
{ "type": "Feature", "properties": { "Id": "70030077077635596" }, "geometry": { "type": "MultiLineString", "coordinates": [ [ [ 71.457626003447857, 51.125621298092277 ], [ 71.457691939789711, 51.125647740123284 ] ] ] } },
{ "type": "Feature", "properties": { "Id": "70030077077635646" }, "geometry": { "type": "MultiLineString", "coordinates": [ [ [ 71.458445985639216, 51.125796976632891 ], [ 71.458500333713886, 51.125806166473978 ] ] ] } },
{ "type": "Feature", "properties": { "Id": "70030077077635656" }, "geometry": { "type": "MultiLineString", "coordinates": [ [ [ 71.458417868370816, 51.125866548758566 ], [ 71.45847050964646, 51.125875625827213 ] ] ] } },
{ "type": "Feature", "properties": { "Id": "70030077077645797" }, "geometry": { "type": "MultiLineString", "coordinates": [ [ [ 71.458919038467826, 51.123977972274368 ], [ 71.458963774568971, 51.12396934588584 ] ] ] } },
{ "type": "Feature", "properties": { "Id": "70030077077645817" }, "geometry": { "type": "MultiLineString", "coordinates": [ [ [ 71.458940867529222, 51.124022739258187 ], [ 71.458985603630381, 51.124014056496449 ] ] ] } },
{ "type": "Feature", "properties": { "Id": "70030077077645838" }, "geometry": { "type": "MultiLineString", "coordinates": [ [ [ 71.459178202427282, 51.123927905369534 ], [ 71.459228867409308, 51.123918151337833 ] ] ] } },
{ "type": "Feature", "properties": { "Id": "70030077077645855" }, "geometry": { "type": "MultiLineString", "coordinates": [ [ [ 71.459200031488692, 51.123972672401877 ], [ 71.459250696470718, 51.123962918379625 ] ] ] } },
{ "type": "Feature", "properties": { "Id": "70030077077646501" }, "geometry": { "type": "MultiLineString", "coordinates": [ [ [ 71.459212787565718, 51.124674449163614 ], [ 71.459244857421382, 51.124690235776214 ] ] ] } },
{ "type": "Feature", "properties": { "Id": "70030077077646507" }, "geometry": { "type": "MultiLineString", "coordinates": [ [ [ 71.459186377096358, 51.124695704708614 ], [ 71.459218446952022, 51.124711491313946 ] ] ] } },
{ "type": "Feature", "properties": { "Id": "70030077077726931" }, "geometry": { "type": "MultiLineString", "coordinates": [ [ [ 71.457236943098309, 51.122037219796958 ], [ 71.457276738465382, 51.122048947664943 ] ] ] } },
{ "type": "Feature", "properties": { "Id": "70030077077726955" }, "geometry": { "type": "MultiLineString", "coordinates": [ [ [ 71.457204783411129, 51.122057405260207 ], [ 71.457241344843197, 51.122068343747777 ] ] ] } },
{ "type": "Feature", "properties": { "Id": "70030077078055159" }, "geometry": { "type": "MultiLineString", "coordinates": [ [ [ 71.460167427218153, 51.1221554568682 ], [ 71.460237316147257, 51.122147112058592 ] ] ] } },
{ "type": "Feature", "properties": { "Id": "70030077078055162" }, "geometry": { "type": "MultiLineString", "coordinates": [ [ [ 71.460175422224182, 51.122181900883255 ], [ 71.460245311153287, 51.122173556078423 ] ] ] } },
{ "type": "Feature", "properties": { "Id": "70030077078290380" }, "geometry": { "type": "MultiLineString", "coordinates": [ [ [ 71.452162270226779, 51.12189530108153 ], [ 71.452181404342326, 51.121870773964943 ] ] ] } },
{ "type": "Feature", "properties": { "Id": "70030077078290383" }, "geometry": { "type": "MultiLineString", "coordinates": [ [ [ 71.452123642669562, 51.121883347637834 ], [ 71.452142776785124, 51.121858876899111 ] ] ] } },
{ "type": "Feature", "properties": { "Id": "70030077078303378" }, "geometry": { "type": "MultiLineString", "coordinates": [ [ [ 71.45771296036736, 51.1218169834154 ], [ 71.457723650319238, 51.121829162413242 ] ] ] } },
{ "type": "Feature", "properties": { "Id": "70030077078303391" }, "geometry": { "type": "MultiLineString", "coordinates": [ [ [ 71.457686999055653, 51.121824595289418 ], [ 71.45769867715434, 51.12183790196989 ] ] ] } },
{ "type": "Feature", "properties": { "Id": "9570823518027927" }, "geometry": { "type": "MultiLineString", "coordinates": [ [ [ 71.402953277614941, 51.195376158378025 ], [ 71.402987952584908, 51.195365180963307 ], [ 71.403218460286823, 51.195289464877774 ] ] ] } },
{ "type": "Feature", "properties": { "Id": "9570823518027928" }, "geometry": { "type": "MultiLineString", "coordinates": [ [ [ 71.402884646327252, 51.195297233522759 ], [ 71.40292210607457, 51.195285355376626 ], [ 71.403154769733192, 51.195209019918948 ] ] ] } },
{ "type": "Feature", "properties": { "Id": "9570823518028037" }, "geometry": { "type": "MultiLineString", "coordinates": [ [ [ 71.403634380263355, 51.197701791374385 ], [ 71.403906037771222, 51.198020029719046 ] ] ] } },
{ "type": "Feature", "properties": { "Id": "9570823518028038" }, "geometry": { "type": "MultiLineString", "coordinates": [ [ [ 71.403700945425925, 51.197681470107298 ], [ 71.40397061479058, 51.197998594871557 ] ] ] } },
{ "type": "Feature", "properties": { "Id": "9570823548869079" }, "geometry": { "type": "MultiLineString", "coordinates": [ [ [ 71.409318200729047, 51.195779281011419 ], [ 71.409494989176949, 51.196000909701183 ] ] ] } },
{ "type": "Feature", "properties": { "Id": "9570823548869088" }, "geometry": { "type": "MultiLineString", "coordinates": [ [ [ 71.409412523833893, 51.196027986945801 ], [ 71.409239598141696, 51.195811143367713 ] ] ] } }
]
}
