{
"type": "FeatureCollection",
"name": "City",
"crs": { "type": "name", "properties": { "name": "urn:ogc:def:crs:OGC:1.3:CRS84" } },
"xy_coordinate_resolution": 1e-15,
"features": [
{ "type": "Feature", "properties": { "City": "Астана", "Okato": "710000000", "Oktmo": null, "CityId": "9570771978420226" }, "geometry": { "type": "MultiPolygon", "coordinates": [ [ [ [ 71.458297985584807, 51.129942526426603 ], [ 71.460837476901716, 51.135194656195679 ], [ 71.466897626635273, 51.137272421818608 ], [ 71.471803462133849, 51.130346536408844 ], [ 71.46616175131048, 51.117086351634718 ], [ 71.436337157264674, 51.121920042493628 ], [ 71.440434972798784, 51.132583020239075 ], [ 71.458297985584807, 51.129942526426603 ] ] ], [ [ [ 71.408662473481442, 51.193150850076037 ], [ 71.40209250162745, 51.195353666407755 ], [ 71.403679683700531, 51.198095162715788 ], [ 71.410518995542674, 51.195825011387029 ], [ 71.408662473481442, 51.193150850076037 ] ] ] ] } }
]
}
