{
"type": "FeatureCollection",
"name": "CrossRoadControl",
"crs": { "type": "name", "properties": { "name": "urn:ogc:def:crs:OGC:1.3:CRS84" } },
"xy_coordinate_resolution": 1e-15,
"features": [
{ "type": "Feature", "properties": { "Control": "постоянно регулируемый", "SysCode": "9570776273388149" }, "geometry": { "type": "Point", "coordinates": [ 71.466581667841353, 51.136788861908862 ] } },
{ "type": "Feature", "properties": { "Control": "постоянно регулируемый", "SysCode": "9570776273388150" }, "geometry": { "type": "Point", "coordinates": [ 71.466634848106182, 51.136695857946805 ] } },
{ "type": "Feature", "properties": { "Control": "постоянно регулируемый", "SysCode": "9570776273388151" }, "geometry": { "type": "Point", "coordinates": [ 71.466807324640726, 51.136845171489391 ] } },
{ "type": "Feature", "properties": { "Control": "постоянно регулируемый", "SysCode": "9570776273388152" }, "geometry": { "type": "Point", "coordinates": [ 71.466874518623982, 51.136755493236137 ] } },
{ "type": "Feature", "properties": { "Control": "постоянно регулируемый", "SysCode": "9570776273388173" }, "geometry": { "type": "Point", "coordinates": [ 71.458054499838383, 51.129440295199515 ] } },
{ "type": "Feature", "properties": { "Control": "постоянно регулируемый", "SysCode": "9570776273388174" }, "geometry": { "type": "Point", "coordinates": [ 71.458207033773618, 51.12941594121402 ] } },
{ "type": "Feature", "properties": { "Control": "постоянно регулируемый", "SysCode": "9570776273388175" }, "geometry": { "type": "Point", "coordinates": [ 71.458262729321248, 51.129555525456738 ] } },
{ "type": "Feature", "properties": { "Control": "постоянно регулируемый", "SysCode": "9570776273388176" }, "geometry": { "type": "Point", "coordinates": [ 71.458111992016555, 51.129583712853588 ] } },
{ "type": "Feature", "properties": { "Control": "регулируемый только днём", "SysCode": "9570776273388192" }, "geometry": { "type": "Point", "coordinates": [ 71.460680994066095, 51.126978391824629 ] } },
{ "type": "Feature", "properties": { "Control": "постоянно регулируемый", "SysCode": "9570776273388193" }, "geometry": { "type": "Point", "coordinates": [ 71.460620537447468, 51.126887003066415 ] } },
{ "type": "Feature", "properties": { "Control": "постоянно регулируемый", "SysCode": "9570776273388197" }, "geometry": { "type": "Point", "coordinates": [ 71.469039817784818, 51.124791439110972 ] } },
{ "type": "Feature", "properties": { "Control": "постоянно регулируемый", "SysCode": "9570776273388198" }, "geometry": { "type": "Point", "coordinates": [ 71.46899984275467, 51.124700327929311 ] } },
{ "type": "Feature", "properties": { "Control": "постоянно регулируемый", "SysCode": "9570776273388199" }, "geometry": { "type": "Point", "coordinates": [ 71.469291076569789, 51.124626187200214 ] } },
{ "type": "Feature", "properties": { "Control": "постоянно регулируемый", "SysCode": "9570776273388201" }, "geometry": { "type": "Point", "coordinates": [ 71.469327907496435, 51.124718313381003 ] } },
{ "type": "Feature", "properties": { "Control": "постоянно регулируемый", "SysCode": "9570776273388209" }, "geometry": { "type": "Point", "coordinates": [ 71.470272486017691, 51.127543013609746 ] } },
{ "type": "Feature", "properties": { "Control": "постоянно регулируемый", "SysCode": "9570776273388212" }, "geometry": { "type": "Point", "coordinates": [ 71.470606030482671, 51.127638911242194 ] } },
{ "type": "Feature", "properties": { "Control": "постоянно регулируемый", "SysCode": "9570776273388213" }, "geometry": { "type": "Point", "coordinates": [ 71.470549706114369, 51.127499546716059 ] } },
{ "type": "Feature", "properties": { "Control": "постоянно регулируемый", "SysCode": "9570776273388214" }, "geometry": { "type": "Point", "coordinates": [ 71.470328630722932, 51.127682378004721 ] } },
{ "type": "Feature", "properties": { "Control": "постоянно регулируемый", "SysCode": "9570776273388217" }, "geometry": { "type": "Point", "coordinates": [ 71.47071275033845, 51.131594444607629 ] } },
{ "type": "Feature", "properties": { "Control": "постоянно регулируемый", "SysCode": "9570776273388218" }, "geometry": { "type": "Point", "coordinates": [ 71.470512426030083, 51.131435530758523 ] } },
{ "type": "Feature", "properties": { "Control": "постоянно регулируемый", "SysCode": "9570776273388219" }, "geometry": { "type": "Point", "coordinates": [ 71.470298986318568, 51.131726355652688 ] } },
{ "type": "Feature", "properties": { "Control": "постоянно регулируемый", "SysCode": "9570776273389038" }, "geometry": { "type": "Point", "coordinates": [ 71.467154613329569, 51.120043608121726 ] } },
{ "type": "Feature", "properties": { "Control": "постоянно регулируемый", "SysCode": "9570776273389039" }, "geometry": { "type": "Point", "coordinates": [ 71.467189827288706, 51.120134559329486 ] } },
{ "type": "Feature", "properties": { "Control": "постоянно регулируемый", "SysCode": "9570776273389068" }, "geometry": { "type": "Point", "coordinates": [ 71.457956942798518, 51.120684886438461 ] } },
{ "type": "Feature", "properties": { "Control": "постоянно регулируемый", "SysCode": "9570776273389082" }, "geometry": { "type": "Point", "coordinates": [ 71.466076814651686, 51.117318992299914 ] } },
{ "type": "Feature", "properties": { "Control": "постоянно регулируемый", "SysCode": "9570776273389083" }, "geometry": { "type": "Point", "coordinates": [ 71.466138798406277, 51.117476714151692 ] } },
{ "type": "Feature", "properties": { "Control": "постоянно регулируемый", "SysCode": "9570776273391847" }, "geometry": { "type": "Point", "coordinates": [ 71.460689348398233, 51.134649385172331 ] } },
{ "type": "Feature", "properties": { "Control": "постоянно регулируемый", "SysCode": "9570776273391848" }, "geometry": { "type": "Point", "coordinates": [ 71.460760764463316, 51.134547583381718 ] } },
{ "type": "Feature", "properties": { "Control": "постоянно регулируемый", "SysCode": "70030076127095064" }, "geometry": { "type": "Point", "coordinates": [ 71.463899208571448, 51.128688416350343 ] } },
{ "type": "Feature", "properties": { "Control": "постоянно регулируемый", "SysCode": "70030076127095099" }, "geometry": { "type": "Point", "coordinates": [ 71.463844501170641, 51.12854877311085 ] } },
{ "type": "Feature", "properties": { "Control": "постоянно регулируемый", "SysCode": "70030076139184833" }, "geometry": { "type": "Point", "coordinates": [ 71.464653434083999, 51.12028995973882 ] } },
{ "type": "Feature", "properties": { "Control": "постоянно регулируемый", "SysCode": "70030076151014187" }, "geometry": { "type": "Point", "coordinates": [ 71.464303630112354, 51.120311330073534 ] } },
{ "type": "Feature", "properties": { "Control": "постоянно регулируемый", "SysCode": "70030076151021769" }, "geometry": { "type": "Point", "coordinates": [ 71.464289975720035, 51.120219815351739 ] } },
{ "type": "Feature", "properties": { "Control": "постоянно регулируемый", "SysCode": "70030076155945586" }, "geometry": { "type": "Point", "coordinates": [ 71.454172340506517, 51.1193494860632 ] } },
{ "type": "Feature", "properties": { "Control": "постоянно регулируемый", "SysCode": "70030076155945601" }, "geometry": { "type": "Point", "coordinates": [ 71.45404486956771, 51.119369447151861 ] } },
{ "type": "Feature", "properties": { "Control": "постоянно регулируемый", "SysCode": "70030076155945696" }, "geometry": { "type": "Point", "coordinates": [ 71.454108919447464, 51.119169497552136 ] } },
{ "type": "Feature", "properties": { "Control": "постоянно регулируемый", "SysCode": "70030076299506417" }, "geometry": { "type": "Point", "coordinates": [ 71.45759599971737, 51.120614066022291 ] } },
{ "type": "Feature", "properties": { "Control": "постоянно регулируемый", "SysCode": "70030076299506881" }, "geometry": { "type": "Point", "coordinates": [ 71.458114956456996, 51.120675357264588 ] } },
{ "type": "Feature", "properties": { "Control": "постоянно регулируемый", "SysCode": "70030076299506900" }, "geometry": { "type": "Point", "coordinates": [ 71.458093935879347, 51.120586267851579 ] } },
{ "type": "Feature", "properties": { "Control": "постоянно регулируемый", "SysCode": "70030076479890169" }, "geometry": { "type": "Point", "coordinates": [ 71.437902862564314, 51.121725076985598 ] } },
{ "type": "Feature", "properties": { "Control": "постоянно регулируемый", "SysCode": "70030076479890469" }, "geometry": { "type": "Point", "coordinates": [ 71.438672449268225, 51.121775259046615 ] } },
{ "type": "Feature", "properties": { "Control": "постоянно регулируемый", "SysCode": "70030076493113441" }, "geometry": { "type": "Point", "coordinates": [ 71.468337604727225, 51.134365399329063 ] } },
{ "type": "Feature", "properties": { "Control": "постоянно регулируемый", "SysCode": "70030076493113450" }, "geometry": { "type": "Point", "coordinates": [ 71.468595690708355, 51.134441610072201 ] } },
{ "type": "Feature", "properties": { "Control": "постоянно регулируемый", "SysCode": "70030076571135059" }, "geometry": { "type": "Point", "coordinates": [ 71.459765520960048, 51.118291084913622 ] } },
{ "type": "Feature", "properties": { "Control": "постоянно регулируемый", "SysCode": "70030076571135079" }, "geometry": { "type": "Point", "coordinates": [ 71.459832535280242, 51.118462787760052 ] } },
{ "type": "Feature", "properties": { "Control": "постоянно регулируемый", "SysCode": "70030076650244229" }, "geometry": { "type": "Point", "coordinates": [ 71.464062971447746, 51.120233178880639 ] } },
{ "type": "Feature", "properties": { "Control": "постоянно регулируемый", "SysCode": "70030076650244317" }, "geometry": { "type": "Point", "coordinates": [ 71.464571777224677, 51.120203012259275 ] } },
{ "type": "Feature", "properties": { "Control": "постоянно регулируемый", "SysCode": "70030077028037508" }, "geometry": { "type": "Point", "coordinates": [ 71.456833330041164, 51.120739467704219 ] } },
{ "type": "Feature", "properties": { "Control": "постоянно регулируемый", "SysCode": "70030077057351325" }, "geometry": { "type": "Point", "coordinates": [ 71.466709767600875, 51.125399218262004 ] } },
{ "type": "Feature", "properties": { "Control": "постоянно регулируемый", "SysCode": "70030077058733161" }, "geometry": { "type": "Point", "coordinates": [ 71.439274230677043, 51.129420394837339 ] } },
{ "type": "Feature", "properties": { "Control": "постоянно регулируемый", "SysCode": "70030077058733233" }, "geometry": { "type": "Point", "coordinates": [ 71.439245754082549, 51.129348742187453 ] } },
{ "type": "Feature", "properties": { "Control": "постоянно регулируемый", "SysCode": "70030077058733260" }, "geometry": { "type": "Point", "coordinates": [ 71.439438712205572, 51.129315255387709 ] } },
{ "type": "Feature", "properties": { "Control": "постоянно регулируемый", "SysCode": "70030077100671808" }, "geometry": { "type": "Point", "coordinates": [ 71.463586954178709, 51.126110163131216 ] } },
{ "type": "Feature", "properties": { "Control": "постоянно регулируемый", "SysCode": "70030077100671812" }, "geometry": { "type": "Point", "coordinates": [ 71.463902083180358, 51.126134744375868 ] } },
{ "type": "Feature", "properties": { "Control": "постоянно регулируемый", "SysCode": "9570776273388604" }, "geometry": { "type": "Point", "coordinates": [ 71.408044299824624, 51.193488342365342 ] } },
{ "type": "Feature", "properties": { "Control": "постоянно регулируемый", "SysCode": "9570776273388605" }, "geometry": { "type": "Point", "coordinates": [ 71.408171680931929, 51.193447527214929 ] } },
{ "type": "Feature", "properties": { "Control": "постоянно регулируемый", "SysCode": "70030076152888675" }, "geometry": { "type": "Point", "coordinates": [ 71.407466772928473, 51.193673501952247 ] } },
{ "type": "Feature", "properties": { "Control": "постоянно регулируемый", "SysCode": "70030076466861400" }, "geometry": { "type": "Point", "coordinates": [ 71.408770857226429, 51.194383226562913 ] } }
]
}
