{
"type": "FeatureCollection",
"name": "DeadEnds",
"crs": { "type": "name", "properties": { "name": "urn:ogc:def:crs:OGC:1.3:CRS84" } },
"xy_coordinate_resolution": 1e-15,
"features": [
{ "type": "Feature", "properties": { "ZLevel": 0, "GatewayId": null, "CrossesId": "70030076398929648", "DeadEnd": 1 }, "geometry": { "type": "Point", "coordinates": [ 71.46316941723461, 51.122496747012434 ] } },
{ "type": "Feature", "properties": { "ZLevel": 0, "GatewayId": null, "CrossesId": "70030076398929649", "DeadEnd": 1 }, "geometry": { "type": "Point", "coordinates": [ 71.46371595225348, 51.123800820887659 ] } },
{ "type": "Feature", "properties": { "ZLevel": 0, "GatewayId": null, "CrossesId": "70030076398929732", "DeadEnd": 1 }, "geometry": { "type": "Point", "coordinates": [ 71.439162031098064, 51.12239097158232 ] } },
{ "type": "Feature", "properties": { "ZLevel": 0, "GatewayId": null, "CrossesId": "70030076398929745", "DeadEnd": 1 }, "geometry": { "type": "Point", "coordinates": [ 71.444412863596796, 51.120961739093616 ] } },
{ "type": "Feature", "properties": { "ZLevel": 0, "GatewayId": null, "CrossesId": "70030076398929747", "DeadEnd": 1 }, "geometry": { "type": "Point", "coordinates": [ 71.44478494578749, 51.121535512348615 ] } },
{ "type": "Feature", "properties": { "ZLevel": 0, "GatewayId": null, "CrossesId": "70030076398929751", "DeadEnd": 1 }, "geometry": { "type": "Point", "coordinates": [ 71.446436139111228, 51.130592866701633 ] } },
{ "type": "Feature", "properties": { "ZLevel": 0, "GatewayId": null, "CrossesId": "70030076398929752", "DeadEnd": 1 }, "geometry": { "type": "Point", "coordinates": [ 71.446529024911598, 51.130616543584296 ] } },
{ "type": "Feature", "properties": { "ZLevel": 0, "GatewayId": null, "CrossesId": "70030076398929757", "DeadEnd": 1 }, "geometry": { "type": "Point", "coordinates": [ 71.4532227314197, 51.130137986329849 ] } },
{ "type": "Feature", "properties": { "ZLevel": 0, "GatewayId": null, "CrossesId": "70030076398929765", "DeadEnd": 1 }, "geometry": { "type": "Point", "coordinates": [ 71.455397912048653, 51.12303204816665 ] } },
{ "type": "Feature", "properties": { "ZLevel": 0, "GatewayId": null, "CrossesId": "70030076398929766", "DeadEnd": 1 }, "geometry": { "type": "Point", "coordinates": [ 71.455938967344295, 51.122090897322217 ] } },
{ "type": "Feature", "properties": { "ZLevel": 0, "GatewayId": null, "CrossesId": "70030076398929777", "DeadEnd": 1 }, "geometry": { "type": "Point", "coordinates": [ 71.468613836677093, 51.128225737273027 ] } },
{ "type": "Feature", "properties": { "ZLevel": 0, "GatewayId": null, "CrossesId": "70030076398929825", "DeadEnd": 1 }, "geometry": { "type": "Point", "coordinates": [ 71.438205415152012, 51.123348636355608 ] } },
{ "type": "Feature", "properties": { "ZLevel": 0, "GatewayId": null, "CrossesId": "70030076398929869", "DeadEnd": 1 }, "geometry": { "type": "Point", "coordinates": [ 71.44300457472589, 51.130092999776217 ] } },
{ "type": "Feature", "properties": { "ZLevel": 0, "GatewayId": null, "CrossesId": "70030076398929874", "DeadEnd": 1 }, "geometry": { "type": "Point", "coordinates": [ 71.44468298700275, 51.121550567034419 ] } },
{ "type": "Feature", "properties": { "ZLevel": 0, "GatewayId": null, "CrossesId": "70030076398929876", "DeadEnd": 1 }, "geometry": { "type": "Point", "coordinates": [ 71.446291959508116, 51.130555998388729 ] } },
{ "type": "Feature", "properties": { "ZLevel": 0, "GatewayId": null, "CrossesId": "70030076398930387", "DeadEnd": 1 }, "geometry": { "type": "Point", "coordinates": [ 71.44023381106355, 51.122951533495758 ] } },
{ "type": "Feature", "properties": { "ZLevel": 0, "GatewayId": null, "CrossesId": "70030076398930392", "DeadEnd": 1 }, "geometry": { "type": "Point", "coordinates": [ 71.443132315159275, 51.131165336499016 ] } },
{ "type": "Feature", "properties": { "ZLevel": 0, "GatewayId": null, "CrossesId": "70030076398930396", "DeadEnd": 1 }, "geometry": { "type": "Point", "coordinates": [ 71.444270929781908, 51.12139460701777 ] } },
{ "type": "Feature", "properties": { "ZLevel": 0, "GatewayId": null, "CrossesId": "70030076398930400", "DeadEnd": 1 }, "geometry": { "type": "Point", "coordinates": [ 71.446936321061415, 51.128601653805909 ] } },
{ "type": "Feature", "properties": { "ZLevel": 0, "GatewayId": null, "CrossesId": "70030076398930404", "DeadEnd": 1 }, "geometry": { "type": "Point", "coordinates": [ 71.448184440317178, 51.130649860320069 ] } },
{ "type": "Feature", "properties": { "ZLevel": 0, "GatewayId": null, "CrossesId": "70030076398930613", "DeadEnd": 1 }, "geometry": { "type": "Point", "coordinates": [ 71.464348815371153, 51.12301767055714 ] } },
{ "type": "Feature", "properties": { "ZLevel": 0, "GatewayId": null, "CrossesId": "70030076398930615", "DeadEnd": 1 }, "geometry": { "type": "Point", "coordinates": [ 71.468696481683224, 51.128434949746222 ] } },
{ "type": "Feature", "properties": { "ZLevel": 0, "GatewayId": null, "CrossesId": "70030076399147307", "DeadEnd": 1 }, "geometry": { "type": "Point", "coordinates": [ 71.439198053540949, 51.127575261395506 ] } },
{ "type": "Feature", "properties": { "ZLevel": 0, "GatewayId": null, "CrossesId": "70030076399175963", "DeadEnd": 1 }, "geometry": { "type": "Point", "coordinates": [ 71.444111927976607, 51.130336422735127 ] } },
{ "type": "Feature", "properties": { "ZLevel": 0, "GatewayId": null, "CrossesId": "70030076399178999", "DeadEnd": 1 }, "geometry": { "type": "Point", "coordinates": [ 71.468582844799784, 51.128787750525312 ] } },
{ "type": "Feature", "properties": { "ZLevel": 0, "GatewayId": null, "CrossesId": "70030076399179000", "DeadEnd": 1 }, "geometry": { "type": "Point", "coordinates": [ 71.469518440168216, 51.130329376002393 ] } },
{ "type": "Feature", "properties": { "ZLevel": 0, "GatewayId": null, "CrossesId": "70030076399179003", "DeadEnd": 1 }, "geometry": { "type": "Point", "coordinates": [ 71.468285502440764, 51.130046040081389 ] } },
{ "type": "Feature", "properties": { "ZLevel": 0, "GatewayId": null, "CrossesId": "70030076399179071", "DeadEnd": 1 }, "geometry": { "type": "Point", "coordinates": [ 71.466389518202078, 51.126066525751838 ] } },
{ "type": "Feature", "properties": { "ZLevel": 0, "GatewayId": null, "CrossesId": "70030076399179072", "DeadEnd": 1 }, "geometry": { "type": "Point", "coordinates": [ 71.468383598469771, 51.125546820563194 ] } },
{ "type": "Feature", "properties": { "ZLevel": 0, "GatewayId": null, "CrossesId": "70030076399179087", "DeadEnd": 1 }, "geometry": { "type": "Point", "coordinates": [ 71.467568287517906, 51.127453486422205 ] } },
{ "type": "Feature", "properties": { "ZLevel": 0, "GatewayId": null, "CrossesId": "70030076399179088", "DeadEnd": 1 }, "geometry": { "type": "Point", "coordinates": [ 71.466518067119239, 51.127628876108318 ] } },
{ "type": "Feature", "properties": { "ZLevel": 0, "GatewayId": null, "CrossesId": "70030076399179097", "DeadEnd": 1 }, "geometry": { "type": "Point", "coordinates": [ 71.46803837590609, 51.127189865056081 ] } },
{ "type": "Feature", "properties": { "ZLevel": 0, "GatewayId": null, "CrossesId": "70030076399179350", "DeadEnd": 1 }, "geometry": { "type": "Point", "coordinates": [ 71.466619127588714, 51.135251679657117 ] } },
{ "type": "Feature", "properties": { "ZLevel": 0, "GatewayId": null, "CrossesId": "70030076399179361", "DeadEnd": 1 }, "geometry": { "type": "Point", "coordinates": [ 71.463028291903498, 51.128355628394601 ] } },
{ "type": "Feature", "properties": { "ZLevel": 0, "GatewayId": null, "CrossesId": "70030076399179363", "DeadEnd": 1 }, "geometry": { "type": "Point", "coordinates": [ 71.461575356762964, 51.128581414826357 ] } },
{ "type": "Feature", "properties": { "ZLevel": 0, "GatewayId": null, "CrossesId": "70030076399179367", "DeadEnd": 1 }, "geometry": { "type": "Point", "coordinates": [ 71.461717470240913, 51.126884691565564 ] } },
{ "type": "Feature", "properties": { "ZLevel": 0, "GatewayId": null, "CrossesId": "70030076399179368", "DeadEnd": 1 }, "geometry": { "type": "Point", "coordinates": [ 71.462555328906404, 51.12664367468291 ] } },
{ "type": "Feature", "properties": { "ZLevel": 0, "GatewayId": null, "CrossesId": "70030076399257004", "DeadEnd": 1 }, "geometry": { "type": "Point", "coordinates": [ 71.462088294790192, 51.120074789802089 ] } },
{ "type": "Feature", "properties": { "ZLevel": 0, "GatewayId": null, "CrossesId": "70030076399257774", "DeadEnd": 1 }, "geometry": { "type": "Point", "coordinates": [ 71.463444930532276, 51.12589857219772 ] } },
{ "type": "Feature", "properties": { "ZLevel": 0, "GatewayId": null, "CrossesId": "70030076399829658", "DeadEnd": 1 }, "geometry": { "type": "Point", "coordinates": [ 71.464643283121291, 51.119099182301099 ] } },
{ "type": "Feature", "properties": { "ZLevel": 0, "GatewayId": null, "CrossesId": "70030076399886304", "DeadEnd": 1 }, "geometry": { "type": "Point", "coordinates": [ 71.463924630893985, 51.13542512322865 ] } },
{ "type": "Feature", "properties": { "ZLevel": 0, "GatewayId": null, "CrossesId": "70030076400093217", "DeadEnd": 1 }, "geometry": { "type": "Point", "coordinates": [ 71.459726084919069, 51.128431792680097 ] } },
{ "type": "Feature", "properties": { "ZLevel": 0, "GatewayId": null, "CrossesId": "70030076400296482", "DeadEnd": 1 }, "geometry": { "type": "Point", "coordinates": [ 71.464527130955048, 51.132099537850358 ] } },
{ "type": "Feature", "properties": { "ZLevel": 0, "GatewayId": null, "CrossesId": "70030076400296486", "DeadEnd": 1 }, "geometry": { "type": "Point", "coordinates": [ 71.463520748342248, 51.132771089093872 ] } },
{ "type": "Feature", "properties": { "ZLevel": 0, "GatewayId": null, "CrossesId": "70030076400296487", "DeadEnd": 1 }, "geometry": { "type": "Point", "coordinates": [ 71.463559555562526, 51.132587601496624 ] } },
{ "type": "Feature", "properties": { "ZLevel": 0, "GatewayId": null, "CrossesId": "70030076400296492", "DeadEnd": 1 }, "geometry": { "type": "Point", "coordinates": [ 71.467437672475597, 51.132613081231135 ] } },
{ "type": "Feature", "properties": { "ZLevel": 0, "GatewayId": null, "CrossesId": "70030076400297800", "DeadEnd": 1 }, "geometry": { "type": "Point", "coordinates": [ 71.470227121095846, 51.128685146549806 ] } },
{ "type": "Feature", "properties": { "ZLevel": 0, "GatewayId": null, "CrossesId": "70030076400301116", "DeadEnd": 1 }, "geometry": { "type": "Point", "coordinates": [ 71.469180224463727, 51.131299052695674 ] } },
{ "type": "Feature", "properties": { "ZLevel": 0, "GatewayId": null, "CrossesId": "70030076400471143", "DeadEnd": 1 }, "geometry": { "type": "Point", "coordinates": [ 71.461527476558317, 51.120201715376027 ] } },
{ "type": "Feature", "properties": { "ZLevel": 0, "GatewayId": null, "CrossesId": "70030076400505021", "DeadEnd": 1 }, "geometry": { "type": "Point", "coordinates": [ 71.462876027462841, 51.135381551017971 ] } },
{ "type": "Feature", "properties": { "ZLevel": 0, "GatewayId": null, "CrossesId": "70030076400863376", "DeadEnd": 1 }, "geometry": { "type": "Point", "coordinates": [ 71.462945018076653, 51.128265482641993 ] } },
{ "type": "Feature", "properties": { "ZLevel": 0, "GatewayId": null, "CrossesId": "70030076401233389", "DeadEnd": 1 }, "geometry": { "type": "Point", "coordinates": [ 71.467234024400682, 51.129565785671183 ] } },
{ "type": "Feature", "properties": { "ZLevel": 0, "GatewayId": null, "CrossesId": "70030076401402314", "DeadEnd": 1 }, "geometry": { "type": "Point", "coordinates": [ 71.441930728635256, 51.130707586722444 ] } },
{ "type": "Feature", "properties": { "ZLevel": 0, "GatewayId": null, "CrossesId": "70030076401402318", "DeadEnd": 1 }, "geometry": { "type": "Point", "coordinates": [ 71.440797773398927, 51.129978165480125 ] } },
{ "type": "Feature", "properties": { "ZLevel": 0, "GatewayId": null, "CrossesId": "70030076401402939", "DeadEnd": 1 }, "geometry": { "type": "Point", "coordinates": [ 71.442219357336029, 51.121720679004625 ] } },
{ "type": "Feature", "properties": { "ZLevel": 0, "GatewayId": null, "CrossesId": "70030076401402940", "DeadEnd": 1 }, "geometry": { "type": "Point", "coordinates": [ 71.44198786148732, 51.121726655747914 ] } },
{ "type": "Feature", "properties": { "ZLevel": 0, "GatewayId": null, "CrossesId": "70030076401404396", "DeadEnd": 1 }, "geometry": { "type": "Point", "coordinates": [ 71.438966108534601, 51.122167184706157 ] } },
{ "type": "Feature", "properties": { "ZLevel": 0, "GatewayId": null, "CrossesId": "70030076401572581", "DeadEnd": 1 }, "geometry": { "type": "Point", "coordinates": [ 71.468361589745314, 51.13227885589712 ] } },
{ "type": "Feature", "properties": { "ZLevel": 0, "GatewayId": null, "CrossesId": "70030076487658573", "DeadEnd": 1 }, "geometry": { "type": "Point", "coordinates": [ 71.456101023421539, 51.122006716049469 ] } },
{ "type": "Feature", "properties": { "ZLevel": 0, "GatewayId": null, "CrossesId": "70030076537973908", "DeadEnd": 1 }, "geometry": { "type": "Point", "coordinates": [ 71.466356280536573, 51.132485005963147 ] } },
{ "type": "Feature", "properties": { "ZLevel": 0, "GatewayId": null, "CrossesId": "70030076538001596", "DeadEnd": 1 }, "geometry": { "type": "Point", "coordinates": [ 71.46489544022154, 51.131325378730928 ] } },
{ "type": "Feature", "properties": { "ZLevel": 0, "GatewayId": null, "CrossesId": "70030076607671565", "DeadEnd": 1 }, "geometry": { "type": "Point", "coordinates": [ 71.458135707540066, 51.125973725709819 ] } },
{ "type": "Feature", "properties": { "ZLevel": 0, "GatewayId": null, "CrossesId": "70030076607671955", "DeadEnd": 1 }, "geometry": { "type": "Point", "coordinates": [ 71.458204877816939, 51.126336918978879 ] } },
{ "type": "Feature", "properties": { "ZLevel": 0, "GatewayId": null, "CrossesId": "70030076607675585", "DeadEnd": 1 }, "geometry": { "type": "Point", "coordinates": [ 71.457576775770292, 51.126775769003835 ] } },
{ "type": "Feature", "properties": { "ZLevel": 0, "GatewayId": null, "CrossesId": "70030076658572177", "DeadEnd": 1 }, "geometry": { "type": "Point", "coordinates": [ 71.455895938042175, 51.120076932484587 ] } },
{ "type": "Feature", "properties": { "ZLevel": 0, "GatewayId": null, "CrossesId": "70030076658575574", "DeadEnd": 1 }, "geometry": { "type": "Point", "coordinates": [ 71.455558979979102, 51.120014963810917 ] } },
{ "type": "Feature", "properties": { "ZLevel": 0, "GatewayId": null, "CrossesId": "70030076658575882", "DeadEnd": 1 }, "geometry": { "type": "Point", "coordinates": [ 71.455642972458165, 51.120011975328644 ] } },
{ "type": "Feature", "properties": { "ZLevel": 0, "GatewayId": null, "CrossesId": "70030076658586614", "DeadEnd": 1 }, "geometry": { "type": "Point", "coordinates": [ 71.457555485698052, 51.120022575981864 ] } },
{ "type": "Feature", "properties": { "ZLevel": 0, "GatewayId": null, "CrossesId": "70030076658591998", "DeadEnd": 1 }, "geometry": { "type": "Point", "coordinates": [ 71.457177384794974, 51.119439649217249 ] } },
{ "type": "Feature", "properties": { "ZLevel": 0, "GatewayId": null, "CrossesId": "70030076658592008", "DeadEnd": 1 }, "geometry": { "type": "Point", "coordinates": [ 71.457156274385781, 51.119397302441975 ] } },
{ "type": "Feature", "properties": { "ZLevel": 0, "GatewayId": null, "CrossesId": "70030076688599412", "DeadEnd": 1 }, "geometry": { "type": "Point", "coordinates": [ 71.460025044245626, 51.120197091705101 ] } },
{ "type": "Feature", "properties": { "ZLevel": 0, "GatewayId": null, "CrossesId": "70030076688600003", "DeadEnd": 1 }, "geometry": { "type": "Point", "coordinates": [ 71.459936919516267, 51.120203406962844 ] } },
{ "type": "Feature", "properties": { "ZLevel": 0, "GatewayId": null, "CrossesId": "70030076701390947", "DeadEnd": 1 }, "geometry": { "type": "Point", "coordinates": [ 71.446907035983159, 51.126564068362569 ] } },
{ "type": "Feature", "properties": { "ZLevel": 0, "GatewayId": null, "CrossesId": "70030076702871454", "DeadEnd": 1 }, "geometry": { "type": "Point", "coordinates": [ 71.446300942660955, 51.125036750563858 ] } },
{ "type": "Feature", "properties": { "ZLevel": 0, "GatewayId": null, "CrossesId": "70030076821392331", "DeadEnd": 1 }, "geometry": { "type": "Point", "coordinates": [ 71.466713720188125, 51.135168706096415 ] } },
{ "type": "Feature", "properties": { "ZLevel": 0, "GatewayId": null, "CrossesId": "70030076892888946", "DeadEnd": 1 }, "geometry": { "type": "Point", "coordinates": [ 71.466027676805652, 51.128678888827444 ] } },
{ "type": "Feature", "properties": { "ZLevel": 0, "GatewayId": null, "CrossesId": "70030076918550430", "DeadEnd": 1 }, "geometry": { "type": "Point", "coordinates": [ 71.461732921263788, 51.132822724796235 ] } },
{ "type": "Feature", "properties": { "ZLevel": 0, "GatewayId": null, "CrossesId": "70030076961345091", "DeadEnd": 1 }, "geometry": { "type": "Point", "coordinates": [ 71.465284949728726, 51.128771176052396 ] } },
{ "type": "Feature", "properties": { "ZLevel": 0, "GatewayId": null, "CrossesId": "70030076988242812", "DeadEnd": 1 }, "geometry": { "type": "Point", "coordinates": [ 71.444438645245455, 51.125348476338303 ] } },
{ "type": "Feature", "properties": { "ZLevel": 0, "GatewayId": null, "CrossesId": "70030076988242818", "DeadEnd": 1 }, "geometry": { "type": "Point", "coordinates": [ 71.444035391514433, 51.125409648539417 ] } },
{ "type": "Feature", "properties": { "ZLevel": 0, "GatewayId": null, "CrossesId": "70030076988386011", "DeadEnd": 1 }, "geometry": { "type": "Point", "coordinates": [ 71.4436066256293, 51.124265235730121 ] } },
{ "type": "Feature", "properties": { "ZLevel": 0, "GatewayId": null, "CrossesId": "70030076988386015", "DeadEnd": 1 }, "geometry": { "type": "Point", "coordinates": [ 71.44399415884287, 51.124205133258926 ] } },
{ "type": "Feature", "properties": { "ZLevel": 0, "GatewayId": null, "CrossesId": "70030076988421315", "DeadEnd": 1 }, "geometry": { "type": "Point", "coordinates": [ 71.445058033633856, 51.128040258432328 ] } },
{ "type": "Feature", "properties": { "ZLevel": 0, "GatewayId": null, "CrossesId": "70030076988421334", "DeadEnd": 1 }, "geometry": { "type": "Point", "coordinates": [ 71.445461287364893, 51.127979089715154 ] } },
{ "type": "Feature", "properties": { "ZLevel": 0, "GatewayId": null, "CrossesId": "70030076988421662", "DeadEnd": 1 }, "geometry": { "type": "Point", "coordinates": [ 71.444629267748738, 51.126895910800343 ] } },
{ "type": "Feature", "properties": { "ZLevel": 0, "GatewayId": null, "CrossesId": "70030076988421695", "DeadEnd": 1 }, "geometry": { "type": "Point", "coordinates": [ 71.445016800962307, 51.126835868130222 ] } },
{ "type": "Feature", "properties": { "ZLevel": 0, "GatewayId": null, "CrossesId": "70030076996326098", "DeadEnd": 1 }, "geometry": { "type": "Point", "coordinates": [ 71.465791779212026, 51.127445029814915 ] } },
{ "type": "Feature", "properties": { "ZLevel": 0, "GatewayId": null, "CrossesId": "70030076996328674", "DeadEnd": 1 }, "geometry": { "type": "Point", "coordinates": [ 71.467664137758717, 51.127174530319515 ] } },
{ "type": "Feature", "properties": { "ZLevel": 0, "GatewayId": null, "CrossesId": "70030077019735802", "DeadEnd": 1 }, "geometry": { "type": "Point", "coordinates": [ 71.456261193036696, 51.11955101372061 ] } },
{ "type": "Feature", "properties": { "ZLevel": 0, "GatewayId": null, "CrossesId": "70030077046427624", "DeadEnd": 1 }, "geometry": { "type": "Point", "coordinates": [ 71.46063221554617, 51.130866446703315 ] } },
{ "type": "Feature", "properties": { "ZLevel": 0, "GatewayId": null, "CrossesId": "70030077076554498", "DeadEnd": 1 }, "geometry": { "type": "Point", "coordinates": [ 71.44748564085765, 51.126186556635382 ] } },
{ "type": "Feature", "properties": { "ZLevel": 0, "GatewayId": null, "CrossesId": "70030077077064363", "DeadEnd": 1 }, "geometry": { "type": "Point", "coordinates": [ 71.455015499232204, 51.123829801141888 ] } },
{ "type": "Feature", "properties": { "ZLevel": 0, "GatewayId": null, "CrossesId": "70030077077064588", "DeadEnd": 1 }, "geometry": { "type": "Point", "coordinates": [ 71.455134615838872, 51.124171360822849 ] } },
{ "type": "Feature", "properties": { "ZLevel": 0, "GatewayId": null, "CrossesId": "70030077077064589", "DeadEnd": 1 }, "geometry": { "type": "Point", "coordinates": [ 71.455091945862875, 51.124129413054845 ] } },
{ "type": "Feature", "properties": { "ZLevel": 0, "GatewayId": null, "CrossesId": "70030077077066601", "DeadEnd": 1 }, "geometry": { "type": "Point", "coordinates": [ 71.456252659041496, 51.125070578747483 ] } },
{ "type": "Feature", "properties": { "ZLevel": 0, "GatewayId": null, "CrossesId": "70030077077070894", "DeadEnd": 1 }, "geometry": { "type": "Point", "coordinates": [ 71.456168576730889, 51.126263175528507 ] } },
{ "type": "Feature", "properties": { "ZLevel": 0, "GatewayId": null, "CrossesId": "70030077077072868", "DeadEnd": 1 }, "geometry": { "type": "Point", "coordinates": [ 71.456656631424764, 51.127631582212061 ] } },
{ "type": "Feature", "properties": { "ZLevel": 0, "GatewayId": null, "CrossesId": "70030077077075347", "DeadEnd": 1 }, "geometry": { "type": "Point", "coordinates": [ 71.455004899111856, 51.128320449585253 ] } },
{ "type": "Feature", "properties": { "ZLevel": 0, "GatewayId": null, "CrossesId": "70030077077102825", "DeadEnd": 1 }, "geometry": { "type": "Point", "coordinates": [ 71.463499548101538, 51.125445167844838 ] } },
{ "type": "Feature", "properties": { "ZLevel": 0, "GatewayId": null, "CrossesId": "70030077077702936", "DeadEnd": 1 }, "geometry": { "type": "Point", "coordinates": [ 71.455337006272387, 51.123769472576612 ] } },
{ "type": "Feature", "properties": { "ZLevel": 0, "GatewayId": null, "CrossesId": "70030077078055171", "DeadEnd": 1 }, "geometry": { "type": "Point", "coordinates": [ 71.459502763739437, 51.122209303407381 ] } },
{ "type": "Feature", "properties": { "ZLevel": 0, "GatewayId": null, "CrossesId": "70030077078055722", "DeadEnd": 1 }, "geometry": { "type": "Point", "coordinates": [ 71.461587843345413, 51.124523743122424 ] } },
{ "type": "Feature", "properties": { "ZLevel": 0, "GatewayId": null, "CrossesId": "70030077078055731", "DeadEnd": 1 }, "geometry": { "type": "Point", "coordinates": [ 71.461177672586672, 51.124838122245812 ] } },
{ "type": "Feature", "properties": { "ZLevel": 0, "GatewayId": null, "CrossesId": "70030077078055733", "DeadEnd": 1 }, "geometry": { "type": "Point", "coordinates": [ 71.461032594668282, 51.124851089774907 ] } },
{ "type": "Feature", "properties": { "ZLevel": 0, "GatewayId": null, "CrossesId": "70030077078055736", "DeadEnd": 1 }, "geometry": { "type": "Point", "coordinates": [ 71.460843589132509, 51.124877814149436 ] } },
{ "type": "Feature", "properties": { "ZLevel": 0, "GatewayId": null, "CrossesId": "70030077078055738", "DeadEnd": 1 }, "geometry": { "type": "Point", "coordinates": [ 71.460659793825386, 51.12487651739746 ] } },
{ "type": "Feature", "properties": { "ZLevel": 0, "GatewayId": null, "CrossesId": "70030077078055762", "DeadEnd": 1 }, "geometry": { "type": "Point", "coordinates": [ 71.461351316931101, 51.123923958651758 ] } },
{ "type": "Feature", "properties": { "ZLevel": 0, "GatewayId": null, "CrossesId": "70030077078067457", "DeadEnd": 1 }, "geometry": { "type": "Point", "coordinates": [ 71.463172291843534, 51.121524122657966 ] } },
{ "type": "Feature", "properties": { "ZLevel": 0, "GatewayId": null, "CrossesId": "70030077078068462", "DeadEnd": 1 }, "geometry": { "type": "Point", "coordinates": [ 71.465899307551538, 51.121539290116665 ] } },
{ "type": "Feature", "properties": { "ZLevel": 0, "GatewayId": null, "CrossesId": "70030077078073995", "DeadEnd": 1 }, "geometry": { "type": "Point", "coordinates": [ 71.447771125454949, 51.120901237626533 ] } },
{ "type": "Feature", "properties": { "ZLevel": 0, "GatewayId": null, "CrossesId": "70030077078075556", "DeadEnd": 1 }, "geometry": { "type": "Point", "coordinates": [ 71.451783001513832, 51.121912103558472 ] } },
{ "type": "Feature", "properties": { "ZLevel": 0, "GatewayId": null, "CrossesId": "70030077078075747", "DeadEnd": 1 }, "geometry": { "type": "Point", "coordinates": [ 71.45170314128508, 51.120921649127546 ] } },
{ "type": "Feature", "properties": { "ZLevel": 0, "GatewayId": null, "CrossesId": "70030077078096093", "DeadEnd": 1 }, "geometry": { "type": "Point", "coordinates": [ 71.452576213909708, 51.121082910945546 ] } },
{ "type": "Feature", "properties": { "ZLevel": 0, "GatewayId": null, "CrossesId": "70030077078109897", "DeadEnd": 1 }, "geometry": { "type": "Point", "coordinates": [ 71.455535803444775, 51.121001885410152 ] } },
{ "type": "Feature", "properties": { "ZLevel": 0, "GatewayId": null, "CrossesId": "70030077078112649", "DeadEnd": 1 }, "geometry": { "type": "Point", "coordinates": [ 71.44741170950978, 51.121009892115175 ] } },
{ "type": "Feature", "properties": { "ZLevel": 0, "GatewayId": null, "CrossesId": "70030077078121856", "DeadEnd": 1 }, "geometry": { "type": "Point", "coordinates": [ 71.452345257050169, 51.121621667937404 ] } },
{ "type": "Feature", "properties": { "ZLevel": 0, "GatewayId": null, "CrossesId": "70030077078125691", "DeadEnd": 1 }, "geometry": { "type": "Point", "coordinates": [ 71.452269798566292, 51.121727163207204 ] } },
{ "type": "Feature", "properties": { "ZLevel": 0, "GatewayId": null, "CrossesId": "70030077078289543", "DeadEnd": 1 }, "geometry": { "type": "Point", "coordinates": [ 71.462139049603749, 51.125851269961984 ] } },
{ "type": "Feature", "properties": { "ZLevel": 0, "GatewayId": null, "CrossesId": "70030077078291273", "DeadEnd": 1 }, "geometry": { "type": "Point", "coordinates": [ 71.455959269269698, 51.12583661133322 ] } },
{ "type": "Feature", "properties": { "ZLevel": 0, "GatewayId": null, "CrossesId": "70030077078293334", "DeadEnd": 1 }, "geometry": { "type": "Point", "coordinates": [ 71.44904017545683, 51.120750180961622 ] } },
{ "type": "Feature", "properties": { "ZLevel": 0, "GatewayId": null, "CrossesId": "70030077078302172", "DeadEnd": 1 }, "geometry": { "type": "Point", "coordinates": [ 71.462068172527836, 51.121044117944251 ] } },
{ "type": "Feature", "properties": { "ZLevel": 0, "GatewayId": null, "CrossesId": "70030077078302798", "DeadEnd": 1 }, "geometry": { "type": "Point", "coordinates": [ 71.457009040510727, 51.121451555602597 ] } },
{ "type": "Feature", "properties": { "ZLevel": 0, "GatewayId": null, "CrossesId": "70030077078305108", "DeadEnd": 1 }, "geometry": { "type": "Point", "coordinates": [ 71.466430391547519, 51.124313272545841 ] } },
{ "type": "Feature", "properties": { "ZLevel": 0, "GatewayId": null, "CrossesId": "70030077078305444", "DeadEnd": 1 }, "geometry": { "type": "Point", "coordinates": [ 71.466834723256895, 51.123705253578031 ] } },
{ "type": "Feature", "properties": { "ZLevel": 0, "GatewayId": null, "CrossesId": "70030077078305686", "DeadEnd": 1 }, "geometry": { "type": "Point", "coordinates": [ 71.467349278251632, 51.12365366406322 ] } },
{ "type": "Feature", "properties": { "ZLevel": 0, "GatewayId": null, "CrossesId": "70030077078306614", "DeadEnd": 1 }, "geometry": { "type": "Point", "coordinates": [ 71.457666697130222, 51.12715970297748 ] } },
{ "type": "Feature", "properties": { "ZLevel": 0, "GatewayId": null, "CrossesId": "70030077080979329", "DeadEnd": 1 }, "geometry": { "type": "Point", "coordinates": [ 71.455140275225162, 51.123779452167149 ] } },
{ "type": "Feature", "properties": { "ZLevel": 0, "GatewayId": null, "CrossesId": "70030077119377211", "DeadEnd": 1 }, "geometry": { "type": "Point", "coordinates": [ 71.452844989842717, 51.119573117428089 ] } },
{ "type": "Feature", "properties": { "ZLevel": 0, "GatewayId": null, "CrossesId": "70030077122193312", "DeadEnd": 1 }, "geometry": { "type": "Point", "coordinates": [ 71.462096110133174, 51.128467422413756 ] } },
{ "type": "Feature", "properties": { "ZLevel": 0, "GatewayId": null, "CrossesId": "70030077148973242", "DeadEnd": 1 }, "geometry": { "type": "Point", "coordinates": [ 71.462509784321497, 51.130357393805419 ] } },
{ "type": "Feature", "properties": { "ZLevel": 0, "GatewayId": null, "CrossesId": "70030077148973258", "DeadEnd": 1 }, "geometry": { "type": "Point", "coordinates": [ 71.464126392506813, 51.1299885947235 ] } },
{ "type": "Feature", "properties": { "ZLevel": 0, "GatewayId": null, "CrossesId": "70030077155506902", "DeadEnd": 1 }, "geometry": { "type": "Point", "coordinates": [ 71.467157487938465, 51.123569147345584 ] } },
{ "type": "Feature", "properties": { "ZLevel": 0, "GatewayId": null, "CrossesId": "70030077159067353", "DeadEnd": 1 }, "geometry": { "type": "Point", "coordinates": [ 71.463554974154562, 51.1351197223143 ] } },
{ "type": "Feature", "properties": { "ZLevel": 0, "GatewayId": null, "CrossesId": "70030076399150825", "DeadEnd": 1 }, "geometry": { "type": "Point", "coordinates": [ 71.404095844824809, 51.196593115244603 ] } },
{ "type": "Feature", "properties": { "ZLevel": 0, "GatewayId": null, "CrossesId": "70030076400006598", "DeadEnd": 1 }, "geometry": { "type": "Point", "coordinates": [ 71.404634654332227, 51.196495728354073 ] } },
{ "type": "Feature", "properties": { "ZLevel": 0, "GatewayId": null, "CrossesId": "70030076400235405", "DeadEnd": 1 }, "geometry": { "type": "Point", "coordinates": [ 71.405242544284988, 51.194648209382635 ] } },
{ "type": "Feature", "properties": { "ZLevel": 0, "GatewayId": null, "CrossesId": "70030076400243457", "DeadEnd": 1 }, "geometry": { "type": "Point", "coordinates": [ 71.404530809085387, 51.195170401785262 ] } },
{ "type": "Feature", "properties": { "ZLevel": 0, "GatewayId": null, "CrossesId": "70030076400271420", "DeadEnd": 1 }, "geometry": { "type": "Point", "coordinates": [ 71.404302996329335, 51.195501019249519 ] } },
{ "type": "Feature", "properties": { "ZLevel": 0, "GatewayId": null, "CrossesId": "70030076400271423", "DeadEnd": 1 }, "geometry": { "type": "Point", "coordinates": [ 71.405858878401432, 51.196518583330686 ] } },
{ "type": "Feature", "properties": { "ZLevel": 0, "GatewayId": null, "CrossesId": "70030076400271424", "DeadEnd": 1 }, "geometry": { "type": "Point", "coordinates": [ 71.406293124009778, 51.196603191679912 ] } },
{ "type": "Feature", "properties": { "ZLevel": 0, "GatewayId": null, "CrossesId": "70030076400301915", "DeadEnd": 1 }, "geometry": { "type": "Point", "coordinates": [ 71.402817362512465, 51.195614733545028 ] } },
{ "type": "Feature", "properties": { "ZLevel": 0, "GatewayId": null, "CrossesId": "70030076400313753", "DeadEnd": 1 }, "geometry": { "type": "Point", "coordinates": [ 71.403706964138323, 51.195296220221302 ] } },
{ "type": "Feature", "properties": { "ZLevel": 0, "GatewayId": null, "CrossesId": "70030076404073442", "DeadEnd": 1 }, "geometry": { "type": "Point", "coordinates": [ 71.405924994406334, 51.19717602495929 ] } },
{ "type": "Feature", "properties": { "ZLevel": 0, "GatewayId": null, "CrossesId": "70030076404073962", "DeadEnd": 1 }, "geometry": { "type": "Point", "coordinates": [ 71.405882324430337, 51.196990035060573 ] } },
{ "type": "Feature", "properties": { "ZLevel": 0, "GatewayId": null, "CrossesId": "70030076446127268", "DeadEnd": 1 }, "geometry": { "type": "Point", "coordinates": [ 71.404658369855724, 51.195384827719074 ] } },
{ "type": "Feature", "properties": { "ZLevel": 0, "GatewayId": null, "CrossesId": "70030076446127291", "DeadEnd": 1 }, "geometry": { "type": "Point", "coordinates": [ 71.404640493381564, 51.195647834485243 ] } },
{ "type": "Feature", "properties": { "ZLevel": 0, "GatewayId": null, "CrossesId": "70030077125102006", "DeadEnd": 1 }, "geometry": { "type": "Point", "coordinates": [ 71.405508445609087, 51.195372161473479 ] } }
]
}
