{
"type": "FeatureCollection",
"name": "District",
"crs": { "type": "name", "properties": { "name": "urn:ogc:def:crs:OGC:1.3:CRS84" } },
"xy_coordinate_resolution": 1e-15,
"features": [
{ "type": "Feature", "properties": { "CityId": "9570771978420226", "District": "Есиль", "Okato": null, "Oktmo": null, "DistrictId": "9570759093518340" }, "geometry": { "type": "MultiPolygon", "coordinates": [ [ [ [ 71.447290764405238, 51.131569603547653 ], [ 71.44729142509324, 51.131566934906289 ], [ 71.447267979064307, 51.131262974164741 ], [ 71.447233753251979, 51.130819375048432 ], [ 71.447354666489232, 51.13055774596998 ], [ 71.448678783218028, 51.129245632081556 ], [ 71.449356741762955, 51.128786735761835 ], [ 71.450365729490073, 51.128363182814901 ], [ 71.451201971188055, 51.127810410215417 ], [ 71.451824593511489, 51.127155418269396 ], [ 71.452202963909158, 51.126430451213345 ], [ 71.452318666917748, 51.125670630227475 ], [ 71.452166043150982, 51.124913446624781 ], [ 71.451752548625691, 51.124196055862001 ], [ 71.451098395435807, 51.123553473114121 ], [ 71.450235473773873, 51.123017163112017 ], [ 71.446356189050945, 51.121484878949872 ], [ 71.446018781830219, 51.121206563419783 ], [ 71.445724037198502, 51.12039870491364 ], [ 71.436337157264674, 51.121920042493628 ], [ 71.440434972798784, 51.132583020239075 ], [ 71.447290764405238, 51.131569603547653 ] ] ] ] } },
{ "type": "Feature", "properties": { "CityId": "9570771978420226", "District": "Алматы", "Okato": null, "Oktmo": null, "DistrictId": "9570759093518343" }, "geometry": { "type": "MultiPolygon", "coordinates": [ [ [ [ 71.458297985584807, 51.129942526426603 ], [ 71.460837476901716, 51.135194656195679 ], [ 71.466897626635273, 51.137272421818608 ], [ 71.471803462133849, 51.130346536408844 ], [ 71.470612338835465, 51.12754693970497 ], [ 71.458234881547426, 51.129485733388123 ], [ 71.447267979064307, 51.131262974164741 ], [ 71.44729142509324, 51.131566934906289 ], [ 71.447290764405238, 51.131569603547653 ], [ 71.458297985584807, 51.129942526426603 ] ] ] ] } },
{ "type": "Feature", "properties": { "CityId": "9570771978420226", "District": "Сарайшык", "Okato": null, "Oktmo": null, "DistrictId": "70030076987083136" }, "geometry": { "type": "MultiPolygon", "coordinates": [ [ [ [ 71.46616175131048, 51.117086351634718 ], [ 71.445724037198502, 51.12039870491364 ], [ 71.446018781830219, 51.121206563419783 ], [ 71.446356189050945, 51.121484878949872 ], [ 71.450235473773873, 51.123017163112017 ], [ 71.451098395435807, 51.123553473114121 ], [ 71.451752548625691, 51.124196055862001 ], [ 71.452166043150982, 51.124913446624781 ], [ 71.452318666917748, 51.125670630227475 ], [ 71.452202963909158, 51.126430451213345 ], [ 71.451824593511489, 51.127155418269396 ], [ 71.451201971188055, 51.127810410215417 ], [ 71.450365729490073, 51.128363182814901 ], [ 71.449356741762955, 51.128786735761835 ], [ 71.448678783218028, 51.129245632081556 ], [ 71.447354666489232, 51.13055774596998 ], [ 71.447233753251979, 51.130819375048432 ], [ 71.447267979064307, 51.131262974164741 ], [ 71.458234881547426, 51.129485733388123 ], [ 71.470612338835465, 51.12754693970497 ], [ 71.46616175131048, 51.117086351634718 ] ] ] ] } },
{ "type": "Feature", "properties": { "CityId": "9570771978420226", "District": "Байконыр", "Okato": null, "Oktmo": null, "DistrictId": "70030076172372592" }, "geometry": { "type": "MultiPolygon", "coordinates": [ [ [ [ 71.410391992247568, 51.195642073998222 ], [ 71.409783438214703, 51.195834674210339 ], [ 71.407454286346024, 51.196571667629165 ], [ 71.40355365609804, 51.197877478675125 ], [ 71.403679683700531, 51.198095162715788 ], [ 71.410518995542674, 51.195825011387029 ], [ 71.410391992247568, 51.195642073998222 ] ] ] ] } },
{ "type": "Feature", "properties": { "CityId": "9570771978420226", "District": "Сарыарка", "Okato": null, "Oktmo": null, "DistrictId": "70030076297673516" }, "geometry": { "type": "MultiPolygon", "coordinates": [ [ [ [ 71.408662473481442, 51.193150850076037 ], [ 71.40209250162745, 51.195353666407755 ], [ 71.403552150441143, 51.197874877995027 ], [ 71.40748536805485, 51.196558157315103 ], [ 71.409814519923515, 51.195821219974043 ], [ 71.410389933344064, 51.195639108323753 ], [ 71.408662473481442, 51.193150850076037 ] ] ] ] } }
]
}
