{
"type": "FeatureCollection",
"name": "Fence (все)",
"crs": { "type": "name", "properties": { "name": "urn:ogc:def:crs:OGC:1.3:CRS84" } },
"xy_coordinate_resolution": 1e-15,
"features": [
{ "type": "Feature", "properties": { "Type": "Заборы", "Id": "9571042593681943" }, "geometry": { "type": "MultiLineString", "coordinates": [ [ [ 71.462745412420531, 51.134074421947204 ], [ 71.462808923311115, 51.133983159969084 ] ], [ [ 71.462842969460382, 51.133934174929301 ], [ 71.463533324756227, 51.132941723449413 ], [ 71.464801206948238, 51.133289021886405 ] ], [ [ 71.464852680414012, 51.133303509039244 ], [ 71.466264832040636, 51.133702890431913 ], [ 71.466314419044338, 51.133770252231812 ], [ 71.465508899729059, 51.134874520782702 ], [ 71.462745412420531, 51.134074421947204 ] ] ] } },
{ "type": "Feature", "properties": { "Type": "Заборы", "Id": "9571042596963133" }, "geometry": { "type": "MultiLineString", "coordinates": [ [ [ 71.468243281622406, 51.128586150410122 ], [ 71.466177964952664, 51.12891724543713 ] ] ] } },
{ "type": "Feature", "properties": { "Type": "Заборы", "Id": "9571042596963166" }, "geometry": { "type": "MultiLineString", "coordinates": [ [ [ 71.468576107435155, 51.128534058962117 ], [ 71.468897704306883, 51.128482531216569 ], [ 71.468764484150228, 51.128153462627942 ], [ 71.470011255933059, 51.127953551047035 ], [ 71.470294494742149, 51.128646810940026 ] ], [ [ 71.470315515319797, 51.128698676757423 ], [ 71.470554557016897, 51.129295129471132 ], [ 71.470627051060347, 51.129598934040722 ], [ 71.470644208882248, 51.129846756811546 ], [ 71.470633608761915, 51.130137084344234 ], [ 71.470592106595774, 51.13039894130096 ], [ 71.470522576992792, 51.130655272173357 ], [ 71.470426906415042, 51.130883020424278 ], [ 71.470261796065813, 51.131193973895805 ], [ 71.468426358277299, 51.130679907372503 ], [ 71.46850388288631, 51.130571726617546 ] ] ] } },
{ "type": "Feature", "properties": { "Type": "Заборы", "Id": "9571042596963175" }, "geometry": { "type": "MultiLineString", "coordinates": [ [ [ 71.467800052861207, 51.130373178475701 ], [ 71.467751364172813, 51.13044150348626 ], [ 71.46745303366697, 51.130357393805419 ], [ 71.467378114172263, 51.130462530882546 ], [ 71.465463175481105, 51.129919874422306 ] ] ] } },
{ "type": "Feature", "properties": { "Type": "Заборы", "Id": "70030076131194510" }, "geometry": { "type": "MultiLineString", "coordinates": [ [ [ 71.464294826622577, 51.132008271969113 ], [ 71.464363008752642, 51.131918527949537 ], [ 71.46457204671924, 51.131981213489127 ] ], [ [ 71.464642294974468, 51.13200252204345 ], [ 71.464814142688311, 51.132054271348736 ], [ 71.464745691063669, 51.132144296962778 ] ] ] } },
{ "type": "Feature", "properties": { "Type": "Заборы", "Id": "70030076131194793" }, "geometry": { "type": "MultiLineString", "coordinates": [ [ [ 71.463769132518308, 51.132586530445515 ], [ 71.46322511278224, 51.1324366957896 ], [ 71.463203643046953, 51.132467530877037 ] ] ] } },
{ "type": "Feature", "properties": { "Type": "Заборы", "Id": "70030076131194956" }, "geometry": { "type": "MultiLineString", "coordinates": [ [ [ 71.467653268143778, 51.132449153843851 ], [ 71.467736002981454, 51.132472998888559 ], [ 71.467586074160522, 51.132679035345895 ], [ 71.467450698047202, 51.132640026598793 ] ], [ [ 71.467399404244475, 51.132625257382493 ], [ 71.466990760621755, 51.132507498080379 ], [ 71.467146348828948, 51.132302926515585 ], [ 71.467653268143778, 51.132449153843851 ] ] ] } },
{ "type": "Feature", "properties": { "Type": "Заборы", "Id": "70030076137944757" }, "geometry": { "type": "MultiLineString", "coordinates": [ [ [ 71.444561355113265, 51.130095254742358 ], [ 71.444781442357879, 51.130060979245194 ], [ 71.444917357460369, 51.130406890003449 ], [ 71.443864352284308, 51.130570768266843 ] ] ] } },
{ "type": "Feature", "properties": { "Type": "Заборы", "Id": "70030076137944763" }, "geometry": { "type": "MultiLineString", "coordinates": [ [ [ 71.443781617446646, 51.130431412587598 ], [ 71.443701487723303, 51.130229030411421 ] ] ] } },
{ "type": "Feature", "properties": { "Type": "Заборы", "Id": "70030076137946338" }, "geometry": { "type": "MultiLineString", "coordinates": [ [ [ 71.444886455414576, 51.128343845751516 ], [ 71.444784586461367, 51.128359856615084 ], [ 71.444124684053662, 51.126697628746967 ], [ 71.44461067262236, 51.126486096883205 ], [ 71.44449425096154, 51.126150643247307 ] ], [ [ 71.44447412869917, 51.12609877456849 ], [ 71.444341717026305, 51.125758413108045 ], [ 71.443738318649949, 51.125705867434647 ], [ 71.44310195210268, 51.12406654771295 ], [ 71.443179925869359, 51.124056286276819 ] ] ] } },
{ "type": "Feature", "properties": { "Type": "Заборы", "Id": "70030076137946581" }, "geometry": { "type": "MultiLineString", "coordinates": [ [ [ 71.443152886579298, 51.123689974066529 ], [ 71.444385105654518, 51.123497880293399 ] ], [ [ 71.44449532893988, 51.12347983798427 ], [ 71.444980688687892, 51.12339644859518 ], [ 71.44500395505375, 51.123392670979001 ], [ 71.445130168351156, 51.123374741393484 ], [ 71.44525575282789, 51.123359743684532 ], [ 71.44538358309282, 51.12334598638332 ], [ 71.445510784537035, 51.123335442875124 ], [ 71.445637357160578, 51.123327436573156 ], [ 71.445766894224562, 51.123320839830356 ], [ 71.445893556679621, 51.123317513267374 ], [ 71.446022734417468, 51.123316498383723 ], [ 71.446151912155329, 51.123317513267374 ], [ 71.446278574610389, 51.123320839830356 ], [ 71.446408111674359, 51.123327436573156 ], [ 71.446534684297887, 51.123335442875124 ], [ 71.446661885742131, 51.12334598638332 ], [ 71.446789716007046, 51.123359743684532 ], [ 71.446915300483781, 51.123374741393484 ], [ 71.447041513781201, 51.123392670979001 ], [ 71.447165032132759, 51.123412855849978 ], [ 71.447288730147378, 51.123435183238854 ], [ 71.447410811194516, 51.123460329729582 ], [ 71.447532083757849, 51.123486885762105 ], [ 71.447651739353702, 51.123516542799486 ], [ 71.44777004747661, 51.123547722135747 ], [ 71.447887277621192, 51.123581946084613 ], [ 71.447921683096567, 51.123592602300732 ], [ 71.447981690557555, 51.123745341128448 ], [ 71.448210760955007, 51.123828504360475 ], [ 71.448479896214138, 51.123786950954099 ], [ 71.44887389729773, 51.124007177943788 ], [ 71.448910907887424, 51.124030463531867 ], [ 71.448997505480833, 51.124088762022907 ], [ 71.449082845432827, 51.124148751882743 ], [ 71.44916468195521, 51.12421077139274 ], [ 71.449243194711045, 51.124273129107053 ], [ 71.449319371847139, 51.124337741984398 ], [ 71.449390877743753, 51.124403369631196 ], [ 71.449461485325074, 51.124470857758361 ], [ 71.449527780993051, 51.124538853215334 ], [ 71.449590842725982, 51.1246091038062 ], [ 71.449650221366269, 51.124679579813304 ], [ 71.449706635566116, 51.12475129608773 ], [ 71.449760534483161, 51.124824478146074 ], [ 71.449809672329209, 51.124898336654411 ], [ 71.449874261198147, 51.124993675974174 ], [ 71.449861235626514, 51.125006136036312 ], [ 71.449846682918903, 51.125021697014176 ], [ 71.449833387852721, 51.125037765409715 ], [ 71.449821350427911, 51.125054172081519 ], [ 71.449810660476018, 51.125070973409485 ], [ 71.449801407828588, 51.125088113012922 ], [ 71.449793502654089, 51.125105478130969 ], [ 71.449786944952521, 51.125123125143595 ], [ 71.449781914386932, 51.125140941290077 ], [ 71.449778321125805, 51.125158870190056 ], [ 71.449776075337581, 51.125176911843369 ], [ 71.44977535668535, 51.125195009869778 ], [ 71.449776075337581, 51.125213051508979 ], [ 71.449778321125805, 51.125231093141146 ], [ 71.449781914386932, 51.125249022006123 ], [ 71.449786944952521, 51.125266838104039 ], [ 71.449793502654089, 51.125284485055026 ], [ 71.449801407828588, 51.125301906479244 ], [ 71.449810660476018, 51.125318989617021 ], [ 71.449821350427911, 51.125335790848666 ], [ 71.449833387852721, 51.1253521974146 ], [ 71.449846682918903, 51.125368265695165 ], [ 71.449861235626514, 51.125383826551044 ], [ 71.449877045975512, 51.1253989363626 ], [ 71.449894113965911, 51.125413538750394 ], [ 71.449912259934649, 51.125427520955242 ], [ 71.449931483881727, 51.125440939357524 ], [ 71.449951875638675, 51.125453793957739 ], [ 71.449973165710915, 51.125465859237138 ], [ 71.449995443929964, 51.125477304335725 ], [ 71.450018620464306, 51.12548801649438 ], [ 71.450042605482381, 51.125497995713623 ], [ 71.450067398984231, 51.12550712923445 ], [ 71.450079975398197, 51.125511244956208 ], [ 71.450094977263433, 51.12559530708328 ], [ 71.450107643508943, 51.125674351277809 ], [ 71.450118153797774, 51.125755255858962 ], [ 71.450123364026425, 51.125834356159146 ], [ 71.45012498099392, 51.12591497856377 ], [ 71.450123364026425, 51.125995657206822 ], [ 71.450118153797774, 51.126074757095303 ], [ 71.450107643508943, 51.126155660975108 ], [ 71.450094977263433, 51.126234647831851 ], [ 71.450078268599157, 51.126313860068592 ], [ 71.450056798863869, 51.126393635956198 ], [ 71.450033083340372, 51.12647205862023 ], [ 71.450004966071972, 51.126550819422 ], [ 71.449972986047868, 51.126627945116326 ], [ 71.449937951751792, 51.126705070681879 ], [ 71.449898066553175, 51.126781294067499 ], [ 71.449856294892456, 51.126857009924372 ], [ 71.449809672329209, 51.12693165447488 ], [ 71.449760534483161, 51.127005509613852 ] ] ] } },
{ "type": "Feature", "properties": { "Type": "Заборы", "Id": "70030076137947395" }, "geometry": { "type": "MultiLineString", "coordinates": [ [ [ 71.449760534483161, 51.127005509613852 ], [ 71.449481248261321, 51.127039787378664 ], [ 71.449314431113052, 51.127217490120096 ], [ 71.449399950728122, 51.127368243749864 ] ] ] } },
{ "type": "Feature", "properties": { "Type": "Заборы", "Id": "70030076137947532" }, "geometry": { "type": "MultiLineString", "coordinates": [ [ [ 71.449399950728122, 51.127368243749864 ], [ 71.449360604518674, 51.127413740354477 ], [ 71.449288739295952, 51.127474458801593 ], [ 71.449214628285006, 51.127533373096 ], [ 71.449137552833619, 51.127592061806411 ], [ 71.449057243447214, 51.127648495356773 ], [ 71.448975406924845, 51.127703632165549 ], [ 71.448890605962035, 51.127757021221328 ], [ 71.448802930390286, 51.127808493399371 ], [ 71.448713278524934, 51.127859063489943 ], [ 71.448620033398441, 51.127907547582772 ], [ 71.448526339114309, 51.127954171191462 ], [ 71.448429860052798, 51.127999385335357 ], [ 71.448331853855294, 51.128041836978781 ], [ 71.448230434059724, 51.128083837570358 ], [ 71.448128924432623, 51.128123019295835 ], [ 71.448023462218259, 51.128160509692691 ], [ 71.447917820340848, 51.128195801376819 ], [ 71.447810651327472, 51.128229176235394 ], [ 71.447700697536675, 51.12826125441287 ], [ 71.447590025093675, 51.128290288244997 ], [ 71.446491654995782, 51.128463927093001 ] ] ] } },
{ "type": "Feature", "properties": { "Type": "Заборы", "Id": "70030076137952685" }, "geometry": { "type": "MultiLineString", "coordinates": [ [ [ 71.446282617029169, 51.128493355430464 ], [ 71.445144182069598, 51.128657635115424 ] ] ] } },
{ "type": "Feature", "properties": { "Type": "Заборы", "Id": "70030076156419391" }, "geometry": { "type": "MultiLineString", "coordinates": [ [ [ 71.4690470043071, 51.131662824183579 ], [ 71.469313175125777, 51.131294937489663 ], [ 71.46915875472844, 51.131251248636097 ] ], [ [ 71.469081499613992, 51.13122937600744 ], [ 71.469049429758371, 51.131220356363741 ] ] ] } },
{ "type": "Feature", "properties": { "Type": "Заборы", "Id": "70030076156419393" }, "geometry": { "type": "MultiLineString", "coordinates": [ [ [ 71.46879637434283, 51.131600081839487 ], [ 71.469051136557397, 51.131220863718738 ] ] ] } },
{ "type": "Feature", "properties": { "Type": "Заборы", "Id": "70030076156419752" }, "geometry": { "type": "MultiLineString", "coordinates": [ [ [ 71.4690470043071, 51.131662824183579 ], [ 71.46879637434283, 51.131600081839487 ] ] ] } },
{ "type": "Feature", "properties": { "Type": "Заборы", "Id": "70030076156420151" }, "geometry": { "type": "MultiLineString", "coordinates": [ [ [ 71.468773018145427, 51.132489515661703 ], [ 71.468756758638804, 51.13251522093514 ], [ 71.468237352741511, 51.13238522876965 ], [ 71.468249659660913, 51.132365724276141 ] ], [ [ 71.468281100695862, 51.132316004691802 ], [ 71.468301941610449, 51.132283083758409 ] ], [ [ 71.468322872356566, 51.132249993687005 ], [ 71.468348384510634, 51.132209631659798 ], [ 71.468429951538425, 51.132229643563171 ] ] ] } },
{ "type": "Feature", "properties": { "Type": "Заборы", "Id": "70030076164088689" }, "geometry": { "type": "MultiLineString", "coordinates": [ [ [ 71.465891582040101, 51.135722010664018 ], [ 71.464159091183149, 51.135226934161061 ] ] ] } },
{ "type": "Feature", "properties": { "Type": "Заборы", "Id": "70030076172825300" }, "geometry": { "type": "MultiLineString", "coordinates": [ [ [ 71.464159091183149, 51.135226934161061 ], [ 71.463453554358992, 51.135026038572491 ] ] ] } },
{ "type": "Feature", "properties": { "Type": "Заборы", "Id": "70030076179323991" }, "geometry": { "type": "MultiLineString", "coordinates": [ [ [ 71.467597662427693, 51.134961609751649 ], [ 71.466909013930888, 51.134758965586506 ], [ 71.466573403340746, 51.135210418367024 ] ] ] } },
{ "type": "Feature", "properties": { "Type": "Заборы", "Id": "70030076195673202" }, "geometry": { "type": "MultiLineString", "coordinates": [ [ [ 71.467124879093674, 51.135451108706 ], [ 71.466847389502405, 51.135365148014685 ] ] ] } },
{ "type": "Feature", "properties": { "Type": "Заборы", "Id": "70030076224974388" }, "geometry": { "type": "MultiLineString", "coordinates": [ [ [ 71.466179941246281, 51.128914539408747 ], [ 71.466536931740208, 51.12844216589653 ], [ 71.468171236736595, 51.128167556756374 ], [ 71.468226842452694, 51.128294121836994 ] ] ] } },
{ "type": "Feature", "properties": { "Type": "Заборы", "Id": "70030076288665981" }, "geometry": { "type": "MultiLineString", "coordinates": [ [ [ 71.463554165670828, 51.132811112405335 ], [ 71.463059463443855, 51.13267486389185 ], [ 71.463179119039708, 51.13250276289871 ] ] ] } },
{ "type": "Feature", "properties": { "Type": "Заборы", "Id": "70030076288665982" }, "geometry": { "type": "MultiLineString", "coordinates": [ [ [ 71.463822043288545, 51.132846456906449 ], [ 71.463798417596578, 51.132878362764622 ], [ 71.46360590863118, 51.132825374224829 ] ] ] } },
{ "type": "Feature", "properties": { "Type": "Заборы", "Id": "70030076313182312" }, "geometry": { "type": "MultiLineString", "coordinates": [ [ [ 71.460739564222621, 51.120266615879061 ], [ 71.460995673910119, 51.120250545823822 ] ] ] } },
{ "type": "Feature", "properties": { "Type": "Заборы", "Id": "70030076313182313" }, "geometry": { "type": "MultiLineString", "coordinates": [ [ [ 71.461052627099136, 51.120246993495059 ], [ 71.461838832635792, 51.120197655567431 ] ] ] } },
{ "type": "Feature", "properties": { "Type": "Заборы", "Id": "70030076313188690" }, "geometry": { "type": "MultiLineString", "coordinates": [ [ [ 71.460739564222621, 51.120266615879061 ], [ 71.460656470058836, 51.120268025532752 ], [ 71.46027396741087, 51.119299583303786 ] ] ] } },
{ "type": "Feature", "properties": { "Type": "Заборы", "Id": "70030076313195855" }, "geometry": { "type": "MultiLineString", "coordinates": [ [ [ 71.463845758812042, 51.126286008948881 ], [ 71.464371812242419, 51.126148218951663 ] ] ] } },
{ "type": "Feature", "properties": { "Type": "Заборы", "Id": "70030076313195856" }, "geometry": { "type": "MultiLineString", "coordinates": [ [ [ 71.464450145335206, 51.126127697002019 ], [ 71.465747851594628, 51.125787786789985 ], [ 71.466338493893943, 51.126680658875728 ], [ 71.464440443530123, 51.127177912982418 ], [ 71.463845758812042, 51.126286008948881 ] ] ] } },
{ "type": "Feature", "properties": { "Type": "Заборы", "Id": "70030076313202858" }, "geometry": { "type": "MultiLineString", "coordinates": [ [ [ 71.466177964952664, 51.12891724543713 ], [ 71.465463175481105, 51.129919874422306 ] ] ] } },
{ "type": "Feature", "properties": { "Type": "Заборы", "Id": "70030076313205247" }, "geometry": { "type": "MultiLineString", "coordinates": [ [ [ 71.460377363500058, 51.13033630998742 ], [ 71.460521543103155, 51.130314887916484 ], [ 71.460758698338182, 51.130949033383089 ] ] ] } },
{ "type": "Feature", "properties": { "Type": "Заборы", "Id": "70030076313215360" }, "geometry": { "type": "MultiLineString", "coordinates": [ [ [ 71.461651893225167, 51.119119030722814 ], [ 71.461065293344646, 51.119204232231681 ], [ 71.461061879746552, 51.119184722171369 ], [ 71.46027396741087, 51.119299583303786 ] ] ] } },
{ "type": "Feature", "properties": { "Type": "Заборы", "Id": "70030076313220559" }, "geometry": { "type": "MultiLineString", "coordinates": [ [ [ 71.462378630290019, 51.131013806040876 ], [ 71.460758698338182, 51.130949033383089 ], [ 71.461223127340048, 51.132023097754569 ] ] ] } },
{ "type": "Feature", "properties": { "Type": "Заборы", "Id": "70030076313220561" }, "geometry": { "type": "MultiLineString", "coordinates": [ [ [ 71.463534492566112, 51.131549177610886 ], [ 71.462891029328091, 51.132509189216563 ], [ 71.462746490398871, 51.132466967164454 ], [ 71.462196811276513, 51.132306421545799 ], [ 71.462283408869908, 51.132188999660187 ], [ 71.461476362418651, 51.131953253043136 ], [ 71.461389046173039, 51.132071577476019 ], [ 71.461223127340048, 51.132023097754569 ] ] ] } },
{ "type": "Feature", "properties": { "Type": "Заборы", "Id": "70030076313220562" }, "geometry": { "type": "MultiLineString", "coordinates": [ [ [ 71.463172022348957, 51.131249050099164 ], [ 71.463645973492859, 51.13138293517116 ], [ 71.463567820063147, 51.131499457147385 ] ] ] } },
{ "type": "Feature", "properties": { "Type": "Заборы", "Id": "70030076313226269" }, "geometry": { "type": "MultiLineString", "coordinates": [ [ [ 71.471446085286004, 51.13085106842933 ], [ 71.47151539504479, 51.130694226223611 ], [ 71.47163702693426, 51.130288617679085 ] ] ] } },
{ "type": "Feature", "properties": { "Type": "Заборы", "Id": "70030076313228202" }, "geometry": { "type": "MultiLineString", "coordinates": [ [ [ 71.471713143232051, 51.130134252340433 ], [ 71.471712485418124, 51.13017880116012 ], [ 71.471733307048154, 51.130181645043756 ] ] ] } },
{ "type": "Feature", "properties": { "Type": "Заборы", "Id": "70030076313228203" }, "geometry": { "type": "MultiLineString", "coordinates": [ [ [ 71.47163702693426, 51.130288617679085 ], [ 71.471787530222855, 51.130309090306021 ] ] ] } },
{ "type": "Feature", "properties": { "Type": "Заборы", "Id": "70030076313228646" }, "geometry": { "type": "MultiLineString", "coordinates": [ [ [ 71.463409536910078, 51.131263650637443 ], [ 71.464176428668139, 51.130248817677241 ] ] ] } },
{ "type": "Feature", "properties": { "Type": "Заборы", "Id": "70030076343249329" }, "geometry": { "type": "MultiLineString", "coordinates": [ [ [ 71.439343580616992, 51.122036881493045 ], [ 71.43995111124363, 51.121950275605862 ], [ 71.43986577129165, 51.121713067113475 ], [ 71.439203533264191, 51.121807454475046 ], [ 71.438881038077184, 51.121905337461101 ], [ 71.438771623275571, 51.121944242507418 ], [ 71.438689966416248, 51.1219979201407 ], [ 71.438575341386013, 51.122073700222707 ], [ 71.438462333323244, 51.122180209368885 ], [ 71.438564831097182, 51.122188779707706 ], [ 71.438797225261183, 51.122210374699158 ] ] ] } },
{ "type": "Feature", "properties": { "Type": "Заборы", "Id": "70030076459657866" }, "geometry": { "type": "MultiLineString", "coordinates": [ [ [ 71.462749005681673, 51.135225186756514 ], [ 71.462737507246032, 51.135241138866562 ] ] ] } },
{ "type": "Feature", "properties": { "Type": "Заборы", "Id": "70030076459657881" }, "geometry": { "type": "MultiLineString", "coordinates": [ [ [ 71.46271711548907, 51.135269604632285 ], [ 71.462692681313342, 51.135303481689014 ], [ 71.463109948762821, 51.135422361213919 ] ] ] } },
{ "type": "Feature", "properties": { "Type": "Заборы", "Id": "70030076459658066" }, "geometry": { "type": "MultiLineString", "coordinates": [ [ [ 71.46312198618763, 51.135456012688152 ], [ 71.463453554358992, 51.135026038572491 ] ] ] } },
{ "type": "Feature", "properties": { "Type": "Заборы", "Id": "70030076459658167" }, "geometry": { "type": "MultiLineString", "coordinates": [ [ [ 71.464159091183149, 51.135226934161061 ], [ 71.463831834925131, 51.135651382404092 ] ] ] } },
{ "type": "Feature", "properties": { "Type": "Заборы", "Id": "70030076535426662" }, "geometry": { "type": "MultiLineString", "coordinates": [ [ [ 71.465199250450624, 51.128098100849812 ], [ 71.463875762542528, 51.128305171600395 ], [ 71.463643368378541, 51.127716937152492 ], [ 71.463970355141953, 51.127366383292944 ], [ 71.464609775961193, 51.127267215193719 ], [ 71.46489894365115, 51.127355220549958 ], [ 71.465331033302803, 51.127636599778981 ], [ 71.465181014650355, 51.127785717108608 ], [ 71.465199250450624, 51.128098100849812 ] ] ] } },
{ "type": "Feature", "properties": { "Type": "Заборы", "Id": "70030076538001186" }, "geometry": { "type": "MultiLineString", "coordinates": [ [ [ 71.464147413084447, 51.131282366378613 ], [ 71.46411282794601, 51.131331748839983 ], [ 71.464897236852096, 51.131549121238514 ], [ 71.46504698600998, 51.131335243943703 ] ] ] } },
{ "type": "Feature", "properties": { "Type": "Заборы", "Id": "70030076538001256" }, "geometry": { "type": "MultiLineString", "coordinates": [ [ [ 71.464217571508158, 51.131183995907215 ], [ 71.464263744913751, 51.131118208775867 ], [ 71.46504698600998, 51.131335300316344 ] ] ] } },
{ "type": "Feature", "properties": { "Type": "Заборы", "Id": "70030076538016304" }, "geometry": { "type": "MultiLineString", "coordinates": [ [ [ 71.466990760621755, 51.132507498080379 ], [ 71.466694406409516, 51.132418206001525 ], [ 71.466959678912914, 51.132069548093348 ], [ 71.467256033125139, 51.132158897218012 ], [ 71.467146348828948, 51.132302926515585 ] ] ] } },
{ "type": "Feature", "properties": { "Type": "Заборы", "Id": "70030076821356209" }, "geometry": { "type": "MultiLineString", "coordinates": [ [ [ 71.463453554358992, 51.135026038572491 ], [ 71.4620152617576, 51.134616578639729 ], [ 71.461955703454265, 51.134699327718458 ] ] ] } },
{ "type": "Feature", "properties": { "Type": "Заборы", "Id": "70030076894589749" }, "geometry": { "type": "MultiLineString", "coordinates": [ [ [ 71.455678725406472, 51.11998733443918 ], [ 71.455513165899603, 51.120015245743183 ] ] ] } },
{ "type": "Feature", "properties": { "Type": "Заборы", "Id": "70030076894590074" }, "geometry": { "type": "MultiLineString", "coordinates": [ [ [ 71.455746907536536, 51.119929594637526 ], [ 71.455965108319049, 51.119744871896721 ], [ 71.456610008861531, 51.1196536943742 ] ] ] } },
{ "type": "Feature", "properties": { "Type": "Заборы", "Id": "70030076894602482" }, "geometry": { "type": "MultiLineString", "coordinates": [ [ [ 71.461838832635792, 51.120197655567431 ], [ 71.461808649242244, 51.120007408025188 ], [ 71.462698430531162, 51.119951754550399 ] ] ] } },
{ "type": "Feature", "properties": { "Type": "Заборы", "Id": "70030076911098527" }, "geometry": { "type": "MultiLineString", "coordinates": [ [ [ 71.458369449176971, 51.119710363170967 ], [ 71.459612088709505, 51.119519718912599 ], [ 71.459628438047687, 51.119561783640627 ], [ 71.459644338228202, 51.119602776978127 ], [ 71.459810526555771, 51.119576669808652 ], [ 71.459734529082738, 51.119380442663129 ], [ 71.459917336243052, 51.119352079877466 ] ] ] } },
{ "type": "Feature", "properties": { "Type": "Заборы", "Id": "70030076911100144" }, "geometry": { "type": "MultiLineString", "coordinates": [ [ [ 71.458403944483905, 51.119797424351134 ], [ 71.459644338228202, 51.119602776978127 ] ] ] } },
{ "type": "Feature", "properties": { "Type": "Заборы", "Id": "70030076918549962" }, "geometry": { "type": "MultiLineString", "coordinates": [ [ [ 71.461898570602187, 51.133079718661314 ], [ 71.461873507605759, 51.133114048288455 ], [ 71.461569966871252, 51.133026166646829 ] ] ] } },
{ "type": "Feature", "properties": { "Type": "Заборы", "Id": "70030076918549997" }, "geometry": { "type": "MultiLineString", "coordinates": [ [ [ 71.461265617652984, 51.132937044682947 ], [ 71.46108864954202, 51.132885860074389 ], [ 71.461029450564808, 51.132664378884087 ], [ 71.461097003874158, 51.132569844593675 ] ] ] } },
{ "type": "Feature", "properties": { "Type": "Заборы", "Id": "70030076918550871" }, "geometry": { "type": "MultiLineString", "coordinates": [ [ [ 71.461177762418217, 51.132837775803416 ], [ 71.461421565186313, 51.132908351996377 ], [ 71.461434141600293, 51.132986876339871 ], [ 71.4614790573645, 51.132999897951755 ] ] ] } },
{ "type": "Feature", "properties": { "Type": "Заборы", "Id": "70030076926917145" }, "geometry": { "type": "MultiLineString", "coordinates": [ [ [ 71.466188565073026, 51.13553143248604 ], [ 71.466173922533898, 51.135518637058162 ], [ 71.466168712305247, 51.135508603636445 ], [ 71.466166376685507, 51.135496597348059 ], [ 71.466167813989955, 51.135488987727051 ], [ 71.466233480837232, 51.135400659663944 ], [ 71.466348465193605, 51.135242548063296 ], [ 71.466883681439882, 51.135399701413448 ], [ 71.46683526224605, 51.135464806034165 ] ] ] } },
{ "type": "Feature", "properties": { "Type": "Заборы", "Id": "70030076926917537" }, "geometry": { "type": "MultiLineString", "coordinates": [ [ [ 71.466850623437423, 51.135785423814148 ], [ 71.466903174881551, 51.135713048265117 ] ] ] } },
{ "type": "Feature", "properties": { "Type": "Заборы", "Id": "70030076926917580" }, "geometry": { "type": "MultiLineString", "coordinates": [ [ [ 71.466815768804409, 51.136062862367773 ], [ 71.466650209297526, 51.136293965944709 ], [ 71.466494890584926, 51.136248252621648 ] ] ] } },
{ "type": "Feature", "properties": { "Type": "Заборы", "Id": "70030076926917726" }, "geometry": { "type": "MultiLineString", "coordinates": [ [ [ 71.466151015494148, 51.13597994663175 ], [ 71.46614499678175, 51.135988063474493 ], [ 71.466186229453285, 51.136001986111125 ] ] ] } },
{ "type": "Feature", "properties": { "Type": "Заборы", "Id": "70030076946139577" }, "geometry": { "type": "MultiLineString", "coordinates": [ [ [ 71.466693867420332, 51.133518391877679 ], [ 71.467240492270733, 51.132761167816952 ] ] ] } },
{ "type": "Feature", "properties": { "Type": "Заборы", "Id": "70030076946253010" }, "geometry": { "type": "MultiLineString", "coordinates": [ [ [ 71.46601590887542, 51.132674356552819 ], [ 71.466034054844158, 51.132649384191438 ], [ 71.46610475225701, 51.132670354211378 ] ] ] } },
{ "type": "Feature", "properties": { "Type": "Заборы", "Id": "70030076989156901" }, "geometry": { "type": "MultiLineString", "coordinates": [ [ [ 71.465806781077276, 51.134870405895299 ], [ 71.466268065975669, 51.134237836243067 ] ] ] } },
{ "type": "Feature", "properties": { "Type": "Заборы", "Id": "70030077004688651" }, "geometry": { "type": "MultiLineString", "coordinates": [ [ [ 71.463041407306648, 51.118788936828302 ], [ 71.462437110615014, 51.118883781267009 ] ] ] } },
{ "type": "Feature", "properties": { "Type": "Заборы", "Id": "70030077004688672" }, "geometry": { "type": "MultiLineString", "coordinates": [ [ [ 71.46321828558608, 51.118761081171385 ], [ 71.463420765851126, 51.118729278336083 ] ] ] } },
{ "type": "Feature", "properties": { "Type": "Заборы", "Id": "70030077004688702" }, "geometry": { "type": "MultiLineString", "coordinates": [ [ [ 71.463638966633638, 51.118759840635668 ], [ 71.463710831856375, 51.11871924126649 ], [ 71.463786559834816, 51.118639903229564 ] ] ] } },
{ "type": "Feature", "properties": { "Type": "Заборы", "Id": "70030077004734307" }, "geometry": { "type": "MultiLineString", "coordinates": [ [ [ 71.457410856937315, 51.119735060594955 ], [ 71.456487029499129, 51.119786428939108 ], [ 71.456497090630293, 51.119858040037087 ], [ 71.456340604107808, 51.119866667193385 ], [ 71.455984332266127, 51.120004757861238 ], [ 71.45593196048506, 51.120108621619551 ] ] ] } },
{ "type": "Feature", "properties": { "Type": "Заборы", "Id": "70030077016513750" }, "geometry": { "type": "MultiLineString", "coordinates": [ [ [ 71.468888900817092, 51.126691652646834 ], [ 71.468369135593704, 51.126783831086307 ], [ 71.467713365436296, 51.126673216936858 ] ] ] } },
{ "type": "Feature", "properties": { "Type": "Заборы", "Id": "70030077016514961" }, "geometry": { "type": "MultiLineString", "coordinates": [ [ [ 71.461160784259349, 51.127638178339232 ], [ 71.461417882093642, 51.127571033103202 ], [ 71.461604013020519, 51.12754639624567 ] ] ] } },
{ "type": "Feature", "properties": { "Type": "Заборы", "Id": "70030077016515003" }, "geometry": { "type": "MultiLineString", "coordinates": [ [ [ 71.46224469148116, 51.127460082574807 ], [ 71.46244582427326, 51.127442661964594 ] ] ] } },
{ "type": "Feature", "properties": { "Type": "Заборы", "Id": "70030077016515052" }, "geometry": { "type": "MultiLineString", "coordinates": [ [ [ 71.463395702854697, 51.127191105365419 ], [ 71.463749369582061, 51.126944621416229 ] ] ] } },
{ "type": "Feature", "properties": { "Type": "Заборы", "Id": "70030077016516938" }, "geometry": { "type": "MultiLineString", "coordinates": [ [ [ 71.461133565306227, 51.127596966623216 ], [ 71.460989026377007, 51.127377884298078 ] ] ] } },
{ "type": "Feature", "properties": { "Type": "Заборы", "Id": "70030077016519693" }, "geometry": { "type": "MultiLineString", "coordinates": [ [ [ 71.459672186002038, 51.128026840785168 ], [ 71.460385268674571, 51.127840459115248 ] ] ] } },
{ "type": "Feature", "properties": { "Type": "Заборы", "Id": "70030077016520347" }, "geometry": { "type": "MultiLineString", "coordinates": [ [ [ 71.45991643792776, 51.128478584887958 ], [ 71.460083165244512, 51.128452482734474 ], [ 71.460056844606683, 51.128385507810997 ], [ 71.460006628782295, 51.128346551813344 ], [ 71.459942489071011, 51.128320111327326 ], [ 71.459868917049235, 51.128306862890476 ], [ 71.459792200923971, 51.128307821288182 ], [ 71.45959726650733, 51.128338151745879 ] ] ] } },
{ "type": "Feature", "properties": { "Type": "Заборы", "Id": "70030077016527033" }, "geometry": { "type": "MultiLineString", "coordinates": [ [ [ 71.466039175241278, 51.126033431226055 ], [ 71.466262047263271, 51.126372268435148 ], [ 71.468901656894133, 51.125684725113565 ], [ 71.468681928975627, 51.125343684042612 ] ] ] } },
{ "type": "Feature", "properties": { "Type": "Заборы", "Id": "70030077019744868" }, "geometry": { "type": "MultiLineString", "coordinates": [ [ [ 71.463176244430798, 51.119244718399862 ], [ 71.463531797620249, 51.119223685896308 ], [ 71.463538445153347, 51.1192684011002 ], [ 71.463609501892321, 51.119264228434822 ] ] ] } },
{ "type": "Feature", "properties": { "Type": "Заборы", "Id": "70030077019744871" }, "geometry": { "type": "MultiLineString", "coordinates": [ [ [ 71.464161157308311, 51.119231636522109 ], [ 71.464273087392698, 51.11922498280699 ] ] ] } },
{ "type": "Feature", "properties": { "Type": "Заборы", "Id": "70030077019744885" }, "geometry": { "type": "MultiLineString", "coordinates": [ [ [ 71.464887714710102, 51.119188669294068 ], [ 71.465001531256604, 51.119182015572768 ] ] ] } },
{ "type": "Feature", "properties": { "Type": "Заборы", "Id": "70030077019744903" }, "geometry": { "type": "MultiLineString", "coordinates": [ [ [ 71.465553096841035, 51.119149423602046 ], [ 71.465632148586039, 51.119144687050749 ], [ 71.465607085589625, 51.118977215817949 ], [ 71.466024083544497, 51.118952517988816 ] ] ] } },
{ "type": "Feature", "properties": { "Type": "Заборы", "Id": "70030077019745145" }, "geometry": { "type": "MultiLineString", "coordinates": [ [ [ 71.465656313267189, 51.119815355325137 ], [ 71.465765458574211, 51.119810562455413 ] ] ] } },
{ "type": "Feature", "properties": { "Type": "Заборы", "Id": "70030077019745160" }, "geometry": { "type": "MultiLineString", "coordinates": [ [ [ 71.464313062422832, 51.119893056132007 ], [ 71.464422926382085, 51.119888150497111 ] ] ] } },
{ "type": "Feature", "properties": { "Type": "Заборы", "Id": "70030077019745183" }, "geometry": { "type": "MultiLineString", "coordinates": [ [ [ 71.463695380833471, 51.119920685560139 ], [ 71.463581564286983, 51.11992750833474 ] ] ] } },
{ "type": "Feature", "properties": { "Type": "Заборы", "Id": "70030077022385886" }, "geometry": { "type": "MultiLineString", "coordinates": [ [ [ 71.449568474675416, 51.12081519346512 ], [ 71.451226585026845, 51.12098034623903 ], [ 71.450897621969801, 51.121393197398447 ], [ 71.450320274736697, 51.121867898371107 ], [ 71.449056075637358, 51.121364779463669 ] ] ] } },
{ "type": "Feature", "properties": { "Type": "Заборы", "Id": "70030077022386052" }, "geometry": { "type": "MultiLineString", "coordinates": [ [ [ 71.449056075637358, 51.121364779463669 ], [ 71.449568474675416, 51.12081519346512 ] ] ] } },
{ "type": "Feature", "properties": { "Type": "Заборы", "Id": "70030077045586978" }, "geometry": { "type": "MultiLineString", "coordinates": [ [ [ 71.462296703936119, 51.13277035627236 ], [ 71.462058021565113, 51.133097249886248 ], [ 71.462460466812402, 51.133213485685118 ], [ 71.462699149183379, 51.132886705635556 ], [ 71.462296703936119, 51.13277035627236 ] ] ] } },
{ "type": "Feature", "properties": { "Type": "Заборы", "Id": "70030077045590034" }, "geometry": { "type": "MultiLineString", "coordinates": [ [ [ 71.461192584620406, 51.131952463836747 ], [ 71.461097992020981, 51.131968980796081 ] ] ] } },
{ "type": "Feature", "properties": { "Type": "Заборы", "Id": "70030077046094133" }, "geometry": { "type": "MultiLineString", "coordinates": [ [ [ 71.461261485402687, 51.133325549796126 ], [ 71.461285470420776, 51.133374197260679 ] ] ] } },
{ "type": "Feature", "properties": { "Type": "Заборы", "Id": "70030077046094685" }, "geometry": { "type": "MultiLineString", "coordinates": [ [ [ 71.460333076556552, 51.132148919437903 ], [ 71.459681528480985, 51.132250895631344 ] ] ] } },
{ "type": "Feature", "properties": { "Type": "Заборы", "Id": "70030077046095104" }, "geometry": { "type": "MultiLineString", "coordinates": [ [ [ 71.46058801843418, 51.132158615359842 ], [ 71.461059094969173, 51.133216473313333 ], [ 71.461188721864687, 51.133198491170759 ] ] ] } },
{ "type": "Feature", "properties": { "Type": "Заборы", "Id": "70030077046441108" }, "geometry": { "type": "MultiLineString", "coordinates": [ [ [ 71.460758698338182, 51.130949033383089 ], [ 71.460545707784306, 51.130980545940744 ] ] ] } },
{ "type": "Feature", "properties": { "Type": "Заборы", "Id": "70030077049550220" }, "geometry": { "type": "MultiLineString", "coordinates": [ [ [ 71.464390048042688, 51.129901158128966 ], [ 71.464712902555789, 51.12999265367165 ], [ 71.464192688174762, 51.130719312389111 ], [ 71.463886362662905, 51.130632497286484 ] ] ] } },
{ "type": "Feature", "properties": { "Type": "Заборы", "Id": "70030077071681517" }, "geometry": { "type": "MultiLineString", "coordinates": [ [ [ 71.462312334622055, 51.118903404230018 ], [ 71.461910069037827, 51.118966614924865 ] ] ] } },
{ "type": "Feature", "properties": { "Type": "Заборы", "Id": "70030077074898950" }, "geometry": { "type": "MultiLineString", "coordinates": [ [ [ 71.465095674698375, 51.11984016546635 ], [ 71.464977097080876, 51.119845071106333 ] ] ] } },
{ "type": "Feature", "properties": { "Type": "Заборы", "Id": "70030077112435544" }, "geometry": { "type": "MultiLineString", "coordinates": [ [ [ 71.460331549420559, 51.13189564094175 ], [ 71.460624220540126, 51.131849190428035 ] ] ] } },
{ "type": "Feature", "properties": { "Type": "Заборы", "Id": "70030077112435586" }, "geometry": { "type": "MultiLineString", "coordinates": [ [ [ 71.460671741418665, 51.131841918438056 ], [ 71.460693031490905, 51.131838536116739 ], [ 71.460766693344198, 51.132022308549367 ], [ 71.460945907243385, 51.131993897153585 ] ] ] } },
{ "type": "Feature", "properties": { "Type": "Заборы", "Id": "70030077112436843" }, "geometry": { "type": "MultiLineString", "coordinates": [ [ [ 71.461162670721436, 51.129467580668013 ], [ 71.460117480888357, 51.129618383328108 ], [ 71.460377363500058, 51.13033630998742 ], [ 71.460460996653012, 51.130324302354133 ] ] ] } },
{ "type": "Feature", "properties": { "Type": "Заборы", "Id": "70030077148804804" }, "geometry": { "type": "MultiLineString", "coordinates": [ [ [ 71.461162670721436, 51.129467580668013 ], [ 71.461716392262559, 51.130987367081865 ] ] ] } },
{ "type": "Feature", "properties": { "Type": "Заборы", "Id": "70030077148805503" }, "geometry": { "type": "MultiLineString", "coordinates": [ [ [ 71.464389509053532, 51.129902060119186 ], [ 71.464176428668139, 51.130248817677241 ], [ 71.463211188895329, 51.129966045005098 ], [ 71.462732297017368, 51.130508419054571 ], [ 71.462378630290019, 51.131013806040876 ], [ 71.463172022348957, 51.131249050099164 ] ] ] } },
{ "type": "Feature", "properties": { "Type": "Заборы", "Id": "70030077148806464" }, "geometry": { "type": "MultiLineString", "coordinates": [ [ [ 71.461143356942827, 51.134412185525029 ], [ 71.461031516689957, 51.134380675309096 ], [ 71.461321403032144, 51.133974084493822 ], [ 71.461733011095333, 51.134090205347 ], [ 71.461711631191562, 51.134120588376391 ] ] ] } },
{ "type": "Feature", "properties": { "Type": "Заборы", "Id": "70030077148893664" }, "geometry": { "type": "MultiLineString", "coordinates": [ [ [ 71.464166008210839, 51.129873985665476 ], [ 71.464213618920894, 51.129887402775992 ], [ 71.464228710617661, 51.129866205994574 ], [ 71.464267877164062, 51.129877199007439 ], [ 71.464107258391252, 51.130102808878114 ], [ 71.463153427222565, 51.129833959808408 ] ] ] } },
{ "type": "Feature", "properties": { "Type": "Заборы", "Id": "70030077149239018" }, "geometry": { "type": "MultiLineString", "coordinates": [ [ [ 71.4628834834797, 51.130153263708387 ], [ 71.462905941361782, 51.130120453981441 ], [ 71.462942862119959, 51.130130037581068 ], [ 71.463059732938433, 51.129965481261998 ] ] ] } },
{ "type": "Feature", "properties": { "Type": "Заборы", "Id": "70030077149239733" }, "geometry": { "type": "MultiLineString", "coordinates": [ [ [ 71.463153427222565, 51.129833959808408 ], [ 71.463118213263428, 51.129883512941838 ] ] ] } },
{ "type": "Feature", "properties": { "Type": "Заборы", "Id": "70030077150664508" }, "geometry": { "type": "MultiLineString", "coordinates": [ [ [ 71.454671534309924, 51.119551633977849 ], [ 71.454643686536116, 51.119480980985777 ] ] ] } },
{ "type": "Feature", "properties": { "Type": "Заборы", "Id": "70030077150664536" }, "geometry": { "type": "MultiLineString", "coordinates": [ [ [ 71.455096347607764, 51.119485097244464 ], [ 71.45506841000244, 51.119414500537815 ] ] ] } },
{ "type": "Feature", "properties": { "Type": "Заборы", "Id": "70030077153127050" }, "geometry": { "type": "MultiLineString", "coordinates": [ [ [ 71.462698430531162, 51.119951754550399 ], [ 71.462750981975276, 51.119760885741094 ], [ 71.462690615188194, 51.119200567047557 ], [ 71.462649741842768, 51.119126417491209 ], [ 71.462557035705444, 51.118993850193142 ], [ 71.461719446534545, 51.119108711800081 ] ] ] } },
{ "type": "Feature", "properties": { "Type": "Заборы", "Id": "70030077159061471" }, "geometry": { "type": "MultiLineString", "coordinates": [ [ [ 71.466131162726384, 51.13560533024026 ], [ 71.4661018776481, 51.135591745688671 ], [ 71.466083462184784, 51.135578893910036 ], [ 71.466060375481987, 51.135558714355682 ], [ 71.466041870187127, 51.135522357315089 ], [ 71.466037827768346, 51.13550161406048 ], [ 71.466046990584246, 51.135460634831773 ], [ 71.466183983665076, 51.135276256036398 ], [ 71.466299237516026, 51.135310245823824 ] ] ] } },
{ "type": "Feature", "properties": { "Type": "Заборы", "Id": "70030077159061710" }, "geometry": { "type": "MultiLineString", "coordinates": [ [ [ 71.466131162726384, 51.13560533024026 ], [ 71.466083282521737, 51.135670265469003 ], [ 71.466119484627683, 51.135682891752886 ] ] ] } },
{ "type": "Feature", "properties": { "Type": "Заборы", "Id": "9571042561361488" }, "geometry": { "type": "MultiLineString", "coordinates": [ [ [ 71.407718570702599, 51.196166469070704 ], [ 71.407333193445723, 51.196291834440267 ] ] ] } },
{ "type": "Feature", "properties": { "Type": "Заборы", "Id": "9571042561361527" }, "geometry": { "type": "MultiLineString", "coordinates": [ [ [ 71.404848004212198, 51.194666280175888 ], [ 71.405215864321065, 51.194553070198445 ] ], [ [ 71.405367679604069, 51.194643705757052 ], [ 71.405393281589681, 51.194675906670341 ] ] ] } },
{ "type": "Feature", "properties": { "Type": "Заборы", "Id": "9571042561361529" }, "geometry": { "type": "MultiLineString", "coordinates": [ [ [ 71.406138074791727, 51.196110794803033 ], [ 71.406154154635331, 51.196131848578503 ], [ 71.405870915826242, 51.196219047134313 ], [ 71.405682000121999, 51.195981094327053 ], [ 71.40616493441874, 51.195838952544058 ] ] ] } },
{ "type": "Feature", "properties": { "Type": "Заборы", "Id": "9571042561361531" }, "geometry": { "type": "MultiLineString", "coordinates": [ [ [ 71.405887714322049, 51.196423335422267 ], [ 71.40592346727037, 51.196463078367806 ] ], [ [ 71.405972694947934, 51.19651768264216 ], [ 71.406144362998717, 51.1967133005165 ], [ 71.406098459087701, 51.196728724739465 ] ] ] } },
{ "type": "Feature", "properties": { "Type": "Заборы", "Id": "9571042561361532" }, "geometry": { "type": "MultiLineString", "coordinates": [ [ [ 71.405622711313242, 51.19646037629893 ], [ 71.405570878521331, 51.196479966294625 ] ] ] } },
{ "type": "Feature", "properties": { "Type": "Заборы", "Id": "9571042561361533" }, "geometry": { "type": "MultiLineString", "coordinates": [ [ [ 71.406829418234395, 51.1965895687892 ], [ 71.406315132734235, 51.196754056481318 ], [ 71.406227636825562, 51.196653573823383 ] ], [ [ 71.406187032974714, 51.19660696330596 ], [ 71.406164575092603, 51.196581124846645 ] ], [ [ 71.406137535802571, 51.196550107417757 ], [ 71.40611956949688, 51.196529504177562 ] ] ] } },
{ "type": "Feature", "properties": { "Type": "Заборы", "Id": "9571042561361534" }, "geometry": { "type": "MultiLineString", "coordinates": [ [ [ 71.406951050123851, 51.196454746988287 ], [ 71.406921226056426, 51.196463866471191 ] ] ] } },
{ "type": "Feature", "properties": { "Type": "Заборы", "Id": "9571042561361536" }, "geometry": { "type": "MultiLineString", "coordinates": [ [ [ 71.405382861132367, 51.196544872169071 ], [ 71.404722958724662, 51.196737224947732 ] ] ] } },
{ "type": "Feature", "properties": { "Type": "Заборы", "Id": "9571042561361537" }, "geometry": { "type": "MultiLineString", "coordinates": [ [ [ 71.405686401866873, 51.195160381331299 ], [ 71.405670142360222, 51.195141522605837 ] ], [ [ 71.405619118052087, 51.195077290291913 ], [ 71.405546174851025, 51.19498969551092 ] ] ] } },
{ "type": "Feature", "properties": { "Type": "Заборы", "Id": "9571042561361538" }, "geometry": { "type": "MultiLineString", "coordinates": [ [ [ 71.404488408603981, 51.195023190964193 ], [ 71.404449331889126, 51.19497410182101 ], [ 71.404523353068527, 51.194949557229805 ] ] ] } },
{ "type": "Feature", "properties": { "Type": "Заборы", "Id": "9571042561361540" }, "geometry": { "type": "MultiLineString", "coordinates": [ [ [ 71.404311709987581, 51.195361634413381 ], [ 71.404241192237777, 51.195384489952566 ] ], [ [ 71.404166362574614, 51.195402729340245 ], [ 71.404119919674429, 51.195417478469444 ], [ 71.403905222321541, 51.195148503149881 ], [ 71.403669055233323, 51.195222868396336 ] ], [ [ 71.403630607339181, 51.19523485914776 ], [ 71.403314310527634, 51.195334444188191 ], [ 71.403386265581887, 51.195424458971701 ], [ 71.403445464559113, 51.195516725349627 ], [ 71.403485170094683, 51.195601166656218 ], [ 71.403502148253551, 51.195657854833208 ], [ 71.40351292803696, 51.195695515559713 ], [ 71.403769666545159, 51.195613551368155 ] ] ] } },
{ "type": "Feature", "properties": { "Type": "Заборы", "Id": "9571042561361604" }, "geometry": { "type": "MultiLineString", "coordinates": [ [ [ 71.402195818167371, 51.195441516162262 ], [ 71.402620272139117, 51.19530550881705 ], [ 71.40253979214576, 51.195203696380389 ] ] ] } },
{ "type": "Feature", "properties": { "Type": "Заборы", "Id": "70030076131821858" }, "geometry": { "type": "MultiLineString", "coordinates": [ [ [ 71.40686148809003, 51.196342273217454 ], [ 71.40672736961811, 51.196173787220204 ], [ 71.406830945370373, 51.196141249592777 ] ] ] } },
{ "type": "Feature", "properties": { "Type": "Заборы", "Id": "70030076131824269" }, "geometry": { "type": "MultiLineString", "coordinates": [ [ [ 71.405636994526247, 51.19683573718072 ], [ 71.404249366906868, 51.197259618842928 ] ] ] } },
{ "type": "Feature", "properties": { "Type": "Заборы", "Id": "70030076131832434" }, "geometry": { "type": "MultiLineString", "coordinates": [ [ [ 71.404311709987581, 51.195361634413381 ], [ 71.404604201444087, 51.195741789235321 ] ] ] } },
{ "type": "Feature", "properties": { "Type": "Заборы", "Id": "70030076131833797" }, "geometry": { "type": "MultiLineString", "coordinates": [ [ [ 71.404282065583203, 51.196767397859759 ], [ 71.404153247171465, 51.19662829831919 ], [ 71.40411947051679, 51.196633815022849 ] ], [ [ 71.404037184836767, 51.196647381607605 ], [ 71.403986160528632, 51.19665576924514 ] ] ] } },
{ "type": "Feature", "properties": { "Type": "Заборы", "Id": "70030076131834519" }, "geometry": { "type": "MultiLineString", "coordinates": [ [ [ 71.402432164918636, 51.195758790014445 ], [ 71.402357784413113, 51.195782377177743 ] ] ] } },
{ "type": "Feature", "properties": { "Type": "Заборы", "Id": "70030076145736945" }, "geometry": { "type": "MultiLineString", "coordinates": [ [ [ 71.408716688814792, 51.193509678822679 ], [ 71.408708334482654, 51.193499151337036 ] ] ] } },
{ "type": "Feature", "properties": { "Type": "Заборы", "Id": "70030076147088241" }, "geometry": { "type": "MultiLineString", "coordinates": [ [ [ 71.407946742784787, 51.193698328705594 ], [ 71.407905240618646, 51.193640849966016 ], [ 71.407714168957725, 51.193698441298558 ], [ 71.407602508367901, 51.193733626583594 ] ] ] } },
{ "type": "Feature", "properties": { "Type": "Заборы", "Id": "70030076147089762" }, "geometry": { "type": "MultiLineString", "coordinates": [ [ [ 71.40751402431242, 51.193804109665756 ], [ 71.407106189173433, 51.193932915530972 ], [ 71.407095139895432, 51.193946651799536 ] ], [ [ 71.407069717572895, 51.193978402830908 ], [ 71.407060734420057, 51.193989549464391 ] ] ] } },
{ "type": "Feature", "properties": { "Type": "Заборы", "Id": "70030076147093516" }, "geometry": { "type": "MultiLineString", "coordinates": [ [ [ 71.407039354516286, 51.194359526092008 ], [ 71.406970543565521, 51.194381593989299 ], [ 71.406748839353412, 51.194108784496251 ], [ 71.406860589774752, 51.194072980241472 ] ], [ [ 71.406910805599139, 51.194056879576962 ], [ 71.407010518595669, 51.194024903415361 ], [ 71.407035401929036, 51.194058118089814 ] ] ] } },
{ "type": "Feature", "properties": { "Type": "Заборы", "Id": "70030076147116877" }, "geometry": { "type": "MultiLineString", "coordinates": [ [ [ 71.402859403667748, 51.195532600327063 ], [ 71.402889497229765, 51.195570035979195 ] ], [ [ 71.402927675629357, 51.195617660840028 ], [ 71.402968728637831, 51.19566877588413 ], [ 71.402943485978369, 51.195676938523583 ] ] ] } },
{ "type": "Feature", "properties": { "Type": "Заборы", "Id": "70030076162846560" }, "geometry": { "type": "MultiLineString", "coordinates": [ [ [ 71.404652530806388, 51.195806977619206 ], [ 71.404679120938795, 51.195842893114254 ], [ 71.40463276787014, 51.195854714822815 ] ] ] } },
{ "type": "Feature", "properties": { "Type": "Заборы", "Id": "70030076162848250" }, "geometry": { "type": "MultiLineString", "coordinates": [ [ [ 71.406727998438825, 51.196011098853312 ], [ 71.40666897912466, 51.196036993925922 ] ], [ [ 71.406598730869419, 51.196067786525937 ], [ 71.40655489308358, 51.196086982633638 ] ] ] } },
{ "type": "Feature", "properties": { "Type": "Заборы", "Id": "70030076169927324" }, "geometry": { "type": "MultiLineString", "coordinates": [ [ [ 71.407385924552898, 51.194238377651224 ], [ 71.407423024974136, 51.194284202424178 ] ] ] } },
{ "type": "Feature", "properties": { "Type": "Заборы", "Id": "70030076178610871" }, "geometry": { "type": "MultiLineString", "coordinates": [ [ [ 71.404544193983114, 51.195093221715545 ], [ 71.404525239530628, 51.19509935784545 ] ] ] } },
{ "type": "Feature", "properties": { "Type": "Заборы", "Id": "70030076178610912" }, "geometry": { "type": "MultiLineString", "coordinates": [ [ [ 71.408243186828543, 51.193992420566509 ], [ 71.408258548019901, 51.194011336058402 ] ] ] } },
{ "type": "Feature", "properties": { "Type": "Заборы", "Id": "70030076178610933" }, "geometry": { "type": "MultiLineString", "coordinates": [ [ [ 71.407462011857476, 51.194332166388335 ], [ 71.407700245070828, 51.194626141613035 ], [ 71.408539271546189, 51.194357612039191 ], [ 71.408297534903227, 51.194059412898675 ] ] ] } },
{ "type": "Feature", "properties": { "Type": "Заборы", "Id": "70030076200401144" }, "geometry": { "type": "MultiLineString", "coordinates": [ [ [ 71.404808208845125, 51.195761435830512 ], [ 71.405127380265569, 51.195663371653083 ] ] ] } },
{ "type": "Feature", "properties": { "Type": "Заборы", "Id": "70030076319669917" }, "geometry": { "type": "MultiLineString", "coordinates": [ [ [ 71.408911234211985, 51.193509168641263 ], [ 71.40888045169109, 51.193518461108305 ], [ 71.408793045613947, 51.193408682417513 ], [ 71.408667640800289, 51.19344809018277 ], [ 71.408682642665539, 51.193466949601351 ] ] ] } },
{ "type": "Feature", "properties": { "Type": "Заборы", "Id": "70030076320971893" }, "geometry": { "type": "MultiLineString", "coordinates": [ [ [ 71.404389414259668, 51.196319643326476 ], [ 71.404493708664148, 51.196448216987086 ], [ 71.404682804031452, 51.196575608136683 ], [ 71.404788266245816, 51.19671819798932 ] ] ] } },
{ "type": "Feature", "properties": { "Type": "Заборы", "Id": "70030076320972060" }, "geometry": { "type": "MultiLineString", "coordinates": [ [ [ 71.404133394403701, 51.196399861173475 ], [ 71.404319076172925, 51.196575214085946 ] ] ] } },
{ "type": "Feature", "properties": { "Type": "Заборы", "Id": "70030076320972417" }, "geometry": { "type": "MultiLineString", "coordinates": [ [ [ 71.403379168891149, 51.196367211119266 ], [ 71.403444027254665, 51.196387532966064 ], [ 71.403617671599079, 51.196463810178088 ], [ 71.403686482549844, 51.196503778260919 ] ] ] } },
{ "type": "Feature", "properties": { "Type": "Заборы", "Id": "70030076320980904" }, "geometry": { "type": "MultiLineString", "coordinates": [ [ [ 71.403510502585675, 51.197503475689402 ], [ 71.403605544342739, 51.197472064838387 ], [ 71.403691872441541, 51.197443581144924 ] ] ] } },
{ "type": "Feature", "properties": { "Type": "Заборы", "Id": "70030076445957772" }, "geometry": { "type": "MultiLineString", "coordinates": [ [ [ 71.404759879482839, 51.195696247382195 ], [ 71.404731223225269, 51.195657629656893 ] ] ] } },
{ "type": "Feature", "properties": { "Type": "Заборы", "Id": "70030077141153677" }, "geometry": { "type": "MultiLineString", "coordinates": [ [ [ 71.40890749098115, 51.195450072902332 ], [ 71.408853232737982, 51.195381900409288 ], [ 71.409165846456858, 51.195283610245887 ], [ 71.409105389838231, 51.19520772514241 ], [ 71.409913906764231, 51.194953432732071 ] ] ] } }
]
}
