{
"type": "FeatureCollection",
"name": "Gateway",
"crs": { "type": "name", "properties": { "name": "urn:ogc:def:crs:OGC:1.3:CRS84" } },
"xy_coordinate_resolution": 1e-15,
"features": [
{ "type": "Feature", "properties": { "BarrType": 2, "GatewType": 0, "PaymType": 2, "Id": "70030076127099410", "X": "71.4656512827016", "Y": "51.1350666799784" }, "geometry": { "type": "Point", "coordinates": [ 71.465651282701586, 51.135066679978415 ] } },
{ "type": "Feature", "properties": { "BarrType": 2, "GatewType": 0, "PaymType": 2, "Id": "70030076133703032", "X": "71.4672441753634", "Y": "51.1354366222269" }, "geometry": { "type": "Point", "coordinates": [ 71.46724417536339, 51.135436622226933 ] } },
{ "type": "Feature", "properties": { "BarrType": 2, "GatewType": 2, "PaymType": 2, "Id": "70030076137942279", "X": "71.441629613352", "Y": "51.1291682852573" }, "geometry": { "type": "Point", "coordinates": [ 71.441629613352006, 51.129168285257251 ] } },
{ "type": "Feature", "properties": { "BarrType": 2, "GatewType": 2, "PaymType": 2, "Id": "70030076137943107", "X": "71.4412776534237", "Y": "51.1288947515712" }, "geometry": { "type": "Point", "coordinates": [ 71.441277653423697, 51.128894751571245 ] } },
{ "type": "Feature", "properties": { "BarrType": 2, "GatewType": 2, "PaymType": 2, "Id": "70030076137943156", "X": "71.4417515147361", "Y": "51.1287018338053" }, "geometry": { "type": "Point", "coordinates": [ 71.441751514736069, 51.128701833805295 ] } },
{ "type": "Feature", "properties": { "BarrType": 2, "GatewType": 2, "PaymType": 2, "Id": "70030076137944366", "X": "71.4433824061344", "Y": "51.129628756278" }, "geometry": { "type": "Point", "coordinates": [ 71.44338240613439, 51.129628756278038 ] } },
{ "type": "Feature", "properties": { "BarrType": 2, "GatewType": 2, "PaymType": 2, "Id": "70030076137944408", "X": "71.4443912141984", "Y": "51.1294745711573" }, "geometry": { "type": "Point", "coordinates": [ 71.444391214198447, 51.129474571157346 ] } },
{ "type": "Feature", "properties": { "BarrType": 2, "GatewType": 2, "PaymType": 2, "Id": "70030076137968817", "X": "71.438243144394", "Y": "51.1261236377142" }, "geometry": { "type": "Point", "coordinates": [ 71.438243144393951, 51.12612363771418 ] } },
{ "type": "Feature", "properties": { "BarrType": 2, "GatewType": 2, "PaymType": 2, "Id": "70030076137971914", "X": "71.4382508699054", "Y": "51.1247174112896" }, "geometry": { "type": "Point", "coordinates": [ 71.438250869905389, 51.124717411289552 ] } },
{ "type": "Feature", "properties": { "BarrType": 2, "GatewType": 2, "PaymType": 2, "Id": "70030076137971938", "X": "71.4382762023964", "Y": "51.124505757595" }, "geometry": { "type": "Point", "coordinates": [ 71.438276202396395, 51.12450575759496 ] } },
{ "type": "Feature", "properties": { "BarrType": 2, "GatewType": 2, "PaymType": 2, "Id": "70030076137972269", "X": "71.4401344573931", "Y": "51.1291410559872" }, "geometry": { "type": "Point", "coordinates": [ 71.440134457393128, 51.129141055987247 ] } },
{ "type": "Feature", "properties": { "BarrType": 2, "GatewType": 2, "PaymType": 2, "Id": "70030076137972289", "X": "71.4403321765871", "Y": "51.1293332954175" }, "geometry": { "type": "Point", "coordinates": [ 71.440332176587148, 51.129333295417517 ] } },
{ "type": "Feature", "properties": { "BarrType": 2, "GatewType": 2, "PaymType": 2, "Id": "70030076137972447", "X": "71.4404449151553", "Y": "51.1217722706782" }, "geometry": { "type": "Point", "coordinates": [ 71.440444915155325, 51.121772270678228 ] } },
{ "type": "Feature", "properties": { "BarrType": 2, "GatewType": 2, "PaymType": 2, "Id": "70030076137973316", "X": "71.4397861805575", "Y": "51.1263886746329" }, "geometry": { "type": "Point", "coordinates": [ 71.439786180557476, 51.126388674632935 ] } },
{ "type": "Feature", "properties": { "BarrType": 2, "GatewType": 2, "PaymType": 2, "Id": "70030076137973415", "X": "71.4401090350706", "Y": "51.1272662567745" }, "geometry": { "type": "Point", "coordinates": [ 71.440109035070577, 51.127266256774462 ] } },
{ "type": "Feature", "properties": { "BarrType": 2, "GatewType": 2, "PaymType": 2, "Id": "70030076137952950", "X": "71.4410386117266", "Y": "51.1249181825846" }, "geometry": { "type": "Point", "coordinates": [ 71.441038611726597, 51.124918182584629 ] } },
{ "type": "Feature", "properties": { "BarrType": 2, "GatewType": 2, "PaymType": 2, "Id": "70030076137956023", "X": "71.438885080496", "Y": "51.1274630705753" }, "geometry": { "type": "Point", "coordinates": [ 71.438885080495965, 51.12746307057526 ] } },
{ "type": "Feature", "properties": { "BarrType": 2, "GatewType": 2, "PaymType": 2, "Id": "70030076137956494", "X": "71.4385377918071", "Y": "51.1265768098933" }, "geometry": { "type": "Point", "coordinates": [ 71.438537791807121, 51.126576809893322 ] } },
{ "type": "Feature", "properties": { "BarrType": 2, "GatewType": 0, "PaymType": 2, "Id": "70030076138925362", "X": "71.4662387808974", "Y": "51.119379427693" }, "geometry": { "type": "Point", "coordinates": [ 71.466238780897413, 51.119379427692962 ] } },
{ "type": "Feature", "properties": { "BarrType": 2, "GatewType": 0, "PaymType": 2, "Id": "70030076139075705", "X": "71.4625553289064", "Y": "51.1266436746829" }, "geometry": { "type": "Point", "coordinates": [ 71.462555328906404, 51.12664367468291 ] } },
{ "type": "Feature", "properties": { "BarrType": 2, "GatewType": 0, "PaymType": 2, "Id": "70030076139075809", "X": "71.4605560384101", "Y": "51.1272518241052" }, "geometry": { "type": "Point", "coordinates": [ 71.460556038410061, 51.12725182410523 ] } },
{ "type": "Feature", "properties": { "BarrType": 2, "GatewType": 0, "PaymType": 2, "Id": "70030076139075972", "X": "71.4603225662677", "Y": "51.1286000189026" }, "geometry": { "type": "Point", "coordinates": [ 71.46032256626772, 51.128600018902603 ] } },
{ "type": "Feature", "properties": { "BarrType": 2, "GatewType": 0, "PaymType": 2, "Id": "70030076139081416", "X": "71.4616285370278", "Y": "51.1287182391756" }, "geometry": { "type": "Point", "coordinates": [ 71.461628537027792, 51.128718239175605 ] } },
{ "type": "Feature", "properties": { "BarrType": 2, "GatewType": 0, "PaymType": 2, "Id": "70030076139092522", "X": "71.4610326844998", "Y": "51.1342784219737" }, "geometry": { "type": "Point", "coordinates": [ 71.461032684499827, 51.134278421973697 ] } },
{ "type": "Feature", "properties": { "BarrType": 2, "GatewType": 0, "PaymType": 2, "Id": "70030076139092930", "X": "71.4626230618788", "Y": "51.1341992233968" }, "geometry": { "type": "Point", "coordinates": [ 71.462623061878844, 51.134199223396763 ] } },
{ "type": "Feature", "properties": { "BarrType": 2, "GatewType": 0, "PaymType": 2, "Id": "70030076139093640", "X": "71.4623983033947", "Y": "51.1352267650574" }, "geometry": { "type": "Point", "coordinates": [ 71.462398303394735, 51.135226765057396 ] } },
{ "type": "Feature", "properties": { "BarrType": 2, "GatewType": 0, "PaymType": 0, "Id": "70030076139094276", "X": "71.4630591041177", "Y": "51.1355168896647" }, "geometry": { "type": "Point", "coordinates": [ 71.463059104117733, 51.13551688966465 ] } },
{ "type": "Feature", "properties": { "BarrType": 2, "GatewType": 0, "PaymType": 2, "Id": "70030076139094312", "X": "71.4638335417242", "Y": "51.1356651360402" }, "geometry": { "type": "Point", "coordinates": [ 71.463833541724185, 51.135665136040203 ] } },
{ "type": "Feature", "properties": { "BarrType": 2, "GatewType": 2, "PaymType": 2, "Id": "70030076138976159", "X": "71.4680103484692", "Y": "51.1304325400624" }, "geometry": { "type": "Point", "coordinates": [ 71.468010348469221, 51.130432540062415 ] } },
{ "type": "Feature", "properties": { "BarrType": 2, "GatewType": 2, "PaymType": 2, "Id": "70030076138976199", "X": "71.4683408386623", "Y": "51.1305257257612" }, "geometry": { "type": "Point", "coordinates": [ 71.468340838662257, 51.130525725761174 ] } },
{ "type": "Feature", "properties": { "BarrType": 2, "GatewType": 0, "PaymType": 2, "Id": "70030076139043057", "X": "71.4696866946209", "Y": "51.1269853263128" }, "geometry": { "type": "Point", "coordinates": [ 71.469686694620918, 51.126985326312784 ] } },
{ "type": "Feature", "properties": { "BarrType": 2, "GatewType": 0, "PaymType": 2, "Id": "70030076139044074", "X": "71.4653914000899", "Y": "51.1276221672255" }, "geometry": { "type": "Point", "coordinates": [ 71.465391400089914, 51.127622167225482 ] } },
{ "type": "Feature", "properties": { "BarrType": 2, "GatewType": 0, "PaymType": 2, "Id": "70030076139044606", "X": "71.4665180671192", "Y": "51.1276288761083" }, "geometry": { "type": "Point", "coordinates": [ 71.466518067119239, 51.127628876108318 ] } },
{ "type": "Feature", "properties": { "BarrType": 2, "GatewType": 0, "PaymType": 2, "Id": "70030076139044910", "X": "71.4689794509977", "Y": "51.1259585597071" }, "geometry": { "type": "Point", "coordinates": [ 71.468979450997722, 51.125958559707115 ] } },
{ "type": "Feature", "properties": { "BarrType": 2, "GatewType": 0, "PaymType": 2, "Id": "70030076139190534", "X": "71.4643539357683", "Y": "51.1254821529973" }, "geometry": { "type": "Point", "coordinates": [ 71.464353935768287, 51.125482152997328 ] } },
{ "type": "Feature", "properties": { "BarrType": 2, "GatewType": 0, "PaymType": 2, "Id": "70030076153341734", "X": "71.441419317744", "Y": "51.1239166290321" }, "geometry": { "type": "Point", "coordinates": [ 71.441419317743993, 51.123916629032117 ] } },
{ "type": "Feature", "properties": { "BarrType": 2, "GatewType": 0, "PaymType": 2, "Id": "70030076153342705", "X": "71.4428349728002", "Y": "51.1295834309797" }, "geometry": { "type": "Point", "coordinates": [ 71.442834972800242, 51.1295834309797 ] } },
{ "type": "Feature", "properties": { "BarrType": 2, "GatewType": 0, "PaymType": 2, "Id": "70030076161279603", "X": "71.4659937204879", "Y": "51.1285902094815" }, "geometry": { "type": "Point", "coordinates": [ 71.465993720487901, 51.128590209481516 ] } },
{ "type": "Feature", "properties": { "BarrType": 2, "GatewType": 0, "PaymType": 2, "Id": "70030076163869162", "X": "71.4659075720521", "Y": "51.1259344294026" }, "geometry": { "type": "Point", "coordinates": [ 71.465907572052146, 51.125934429402555 ] } },
{ "type": "Feature", "properties": { "BarrType": 2, "GatewType": 0, "PaymType": 2, "Id": "70030076163871755", "X": "71.4652594375747", "Y": "51.1279873207178" }, "geometry": { "type": "Point", "coordinates": [ 71.465259437574659, 51.12798732071775 ] } },
{ "type": "Feature", "properties": { "BarrType": 2, "GatewType": 0, "PaymType": 2, "Id": "70030076167624729", "X": "71.4646432831213", "Y": "51.1190991823011" }, "geometry": { "type": "Point", "coordinates": [ 71.464643283121291, 51.119099182301099 ] } },
{ "type": "Feature", "properties": { "BarrType": 2, "GatewType": 0, "PaymType": 2, "Id": "70030076167624816", "X": "71.4655206676593", "Y": "51.1186337569225" }, "geometry": { "type": "Point", "coordinates": [ 71.465520667659277, 51.118633756922506 ] } },
{ "type": "Feature", "properties": { "BarrType": 2, "GatewType": 0, "PaymType": 2, "Id": "70030076167627932", "X": "71.4565897967676", "Y": "51.1195956722207" }, "geometry": { "type": "Point", "coordinates": [ 71.456589796767631, 51.119595672220733 ] } },
{ "type": "Feature", "properties": { "BarrType": 2, "GatewType": 0, "PaymType": 2, "Id": "70030076192213075", "X": "71.4646411271646", "Y": "51.1358919577103" }, "geometry": { "type": "Point", "coordinates": [ 71.464641127164597, 51.135891957710285 ] } },
{ "type": "Feature", "properties": { "BarrType": 2, "GatewType": 1, "PaymType": 2, "Id": "70030076214785178", "X": "71.4606475767375", "Y": "51.131848795824" }, "geometry": { "type": "Point", "coordinates": [ 71.460647576737529, 51.131848795823956 ] } },
{ "type": "Feature", "properties": { "BarrType": 2, "GatewType": 0, "PaymType": 2, "Id": "70030076221020834", "X": "71.4654180800538", "Y": "51.1297858723596" }, "geometry": { "type": "Point", "coordinates": [ 71.465418080053837, 51.129785872359591 ] } },
{ "type": "Feature", "properties": { "BarrType": 2, "GatewType": 2, "PaymType": 2, "Id": "70030076224972088", "X": "71.4641679845045", "Y": "51.1288119920906" }, "geometry": { "type": "Point", "coordinates": [ 71.464167984504456, 51.128811992090625 ] } },
{ "type": "Feature", "properties": { "BarrType": 2, "GatewType": 0, "PaymType": 2, "Id": "70030076224972089", "X": "71.4642559295708", "Y": "51.1291151797096" }, "geometry": { "type": "Point", "coordinates": [ 71.464255929570768, 51.129115179709572 ] } },
{ "type": "Feature", "properties": { "BarrType": 2, "GatewType": 1, "PaymType": 2, "Id": "70030076264554248", "X": "71.4645695314365", "Y": "51.1358721164953" }, "geometry": { "type": "Point", "coordinates": [ 71.464569531436453, 51.135872116495342 ] } },
{ "type": "Feature", "properties": { "BarrType": 2, "GatewType": 0, "PaymType": 2, "Id": "70030076286302532", "X": "71.4615401428038", "Y": "51.1189533074173" }, "geometry": { "type": "Point", "coordinates": [ 71.461540142803813, 51.118953307417343 ] } },
{ "type": "Feature", "properties": { "BarrType": 2, "GatewType": 0, "PaymType": 2, "Id": "70030076286302592", "X": "71.4554909775121", "Y": "51.1207450498755" }, "geometry": { "type": "Point", "coordinates": [ 71.455490977512099, 51.120745049875502 ] } },
{ "type": "Feature", "properties": { "BarrType": 2, "GatewType": 0, "PaymType": 2, "Id": "70030076355606599", "X": "71.4556649811826", "Y": "51.12023599819" }, "geometry": { "type": "Point", "coordinates": [ 71.455664981182622, 51.120235998190026 ] } },
{ "type": "Feature", "properties": { "BarrType": 2, "GatewType": 0, "PaymType": 2, "Id": "70030076360222334", "X": "71.4389463455983", "Y": "51.1244783564331" }, "geometry": { "type": "Point", "coordinates": [ 71.438946345598339, 51.124478356433066 ] } },
{ "type": "Feature", "properties": { "BarrType": 2, "GatewType": 0, "PaymType": 2, "Id": "70030076412322136", "X": "71.4605646622368", "Y": "51.1202790208302" }, "geometry": { "type": "Point", "coordinates": [ 71.460564662236806, 51.120279020830168 ] } },
{ "type": "Feature", "properties": { "BarrType": 2, "GatewType": 0, "PaymType": 2, "Id": "70030076531685455", "X": "71.4686951342103", "Y": "51.1275606033139" }, "geometry": { "type": "Point", "coordinates": [ 71.468695134210293, 51.12756060331386 ] } },
{ "type": "Feature", "properties": { "BarrType": 2, "GatewType": 0, "PaymType": 2, "Id": "70030076531685456", "X": "71.4686800425135", "Y": "51.1274514568366" }, "geometry": { "type": "Point", "coordinates": [ 71.46868004251354, 51.127451456836589 ] } },
{ "type": "Feature", "properties": { "BarrType": 2, "GatewType": 0, "PaymType": 2, "Id": "70030076531685465", "X": "71.468520322056", "Y": "51.1274764883862" }, "geometry": { "type": "Point", "coordinates": [ 71.468520322056008, 51.127476488386193 ] } },
{ "type": "Feature", "properties": { "BarrType": 2, "GatewType": 1, "PaymType": 2, "Id": "70030076546366848", "X": "71.4565690456846", "Y": "51.1192527817968" }, "geometry": { "type": "Point", "coordinates": [ 71.45656904568456, 51.119252781796817 ] } },
{ "type": "Feature", "properties": { "BarrType": 2, "GatewType": 0, "PaymType": 2, "Id": "70030076561236754", "X": "71.4609877687356", "Y": "51.1190511964509" }, "geometry": { "type": "Point", "coordinates": [ 71.46098776873562, 51.119051196450862 ] } },
{ "type": "Feature", "properties": { "BarrType": 2, "GatewType": 0, "PaymType": 2, "Id": "70030076655114138", "X": "71.4571030042894", "Y": "51.1194519980033" }, "geometry": { "type": "Point", "coordinates": [ 71.457103004289436, 51.119451998003257 ] } },
{ "type": "Feature", "properties": { "BarrType": 2, "GatewType": 0, "PaymType": 2, "Id": "70030076655114139", "X": "71.4570819837118", "Y": "51.119408974593" }, "geometry": { "type": "Point", "coordinates": [ 71.457081983711788, 51.119408974592972 ] } },
{ "type": "Feature", "properties": { "BarrType": 2, "GatewType": 0, "PaymType": 2, "Id": "70030076655114141", "X": "71.4556429724582", "Y": "51.1200119753286" }, "geometry": { "type": "Point", "coordinates": [ 71.455642972458165, 51.120011975328644 ] } },
{ "type": "Feature", "properties": { "BarrType": 2, "GatewType": 0, "PaymType": 2, "Id": "70030076655114142", "X": "71.4555589799791", "Y": "51.1200149638109" }, "geometry": { "type": "Point", "coordinates": [ 71.455558979979102, 51.120014963810917 ] } },
{ "type": "Feature", "properties": { "BarrType": 2, "GatewType": 0, "PaymType": 2, "Id": "70030076655114143", "X": "71.4557883198711", "Y": "51.1200974007362" }, "geometry": { "type": "Point", "coordinates": [ 71.455788319871132, 51.120097400736171 ] } },
{ "type": "Feature", "properties": { "BarrType": 2, "GatewType": 0, "PaymType": 2, "Id": "70030076655114144", "X": "71.4600303443058", "Y": "51.1202305851158" }, "geometry": { "type": "Point", "coordinates": [ 71.460030344305807, 51.120230585115834 ] } },
{ "type": "Feature", "properties": { "BarrType": 2, "GatewType": 0, "PaymType": 2, "Id": "70030076655114145", "X": "71.4599419500819", "Y": "51.1202350396249" }, "geometry": { "type": "Point", "coordinates": [ 71.459941950081856, 51.120235039624852 ] } },
{ "type": "Feature", "properties": { "BarrType": 2, "GatewType": 0, "PaymType": 0, "Id": "70030076655114146", "X": "71.4575582704754", "Y": "51.1196995368988" }, "geometry": { "type": "Point", "coordinates": [ 71.457558270475431, 51.11969953689875 ] } },
{ "type": "Feature", "properties": { "BarrType": 2, "GatewType": 0, "PaymType": 2, "Id": "70030076655114147", "X": "71.4576480121723", "Y": "51.1203259904557" }, "geometry": { "type": "Point", "coordinates": [ 71.457648012172314, 51.12032599045574 ] } },
{ "type": "Feature", "properties": { "BarrType": 2, "GatewType": 0, "PaymType": 2, "Id": "70030076738329171", "X": "71.4630843467772", "Y": "51.1222740883227" }, "geometry": { "type": "Point", "coordinates": [ 71.463084346777222, 51.122274088322676 ] } },
{ "type": "Feature", "properties": { "BarrType": 2, "GatewType": 0, "PaymType": 2, "Id": "70030076816302894", "X": "71.4646316050226", "Y": "51.1358491187128" }, "geometry": { "type": "Point", "coordinates": [ 71.464631605022589, 51.135849118712827 ] } },
{ "type": "Feature", "properties": { "BarrType": 2, "GatewType": 0, "PaymType": 2, "Id": "70030076816302905", "X": "71.4673245745813", "Y": "51.1353481249604" }, "geometry": { "type": "Point", "coordinates": [ 71.467324574581326, 51.13534812496043 ] } },
{ "type": "Feature", "properties": { "BarrType": 2, "GatewType": 0, "PaymType": 2, "Id": "70030076885665970", "X": "71.4637170302318", "Y": "51.1238159875989" }, "geometry": { "type": "Point", "coordinates": [ 71.463717030231834, 51.123815987598853 ] } },
{ "type": "Feature", "properties": { "BarrType": 2, "GatewType": 0, "PaymType": 2, "Id": "70030076893003390", "X": "71.4632201720482", "Y": "51.1186821379229" }, "geometry": { "type": "Point", "coordinates": [ 71.463220172048167, 51.118682137922882 ] } },
{ "type": "Feature", "properties": { "BarrType": 2, "GatewType": 0, "PaymType": 2, "Id": "70030076892561206", "X": "71.46569997139", "Y": "51.1285810201944" }, "geometry": { "type": "Point", "coordinates": [ 71.465699971389995, 51.12858102019436 ] } },
{ "type": "Feature", "properties": { "BarrType": 2, "GatewType": 0, "PaymType": 2, "Id": "70030076892889101", "X": "71.4661493985266", "Y": "51.1285840081223" }, "geometry": { "type": "Point", "coordinates": [ 71.466149398526639, 51.128584008122296 ] } },
{ "type": "Feature", "properties": { "BarrType": 2, "GatewType": 0, "PaymType": 2, "Id": "70030076916022401", "X": "71.4600503767366", "Y": "51.1303901469902" }, "geometry": { "type": "Point", "coordinates": [ 71.460050376736632, 51.13039014699023 ] } },
{ "type": "Feature", "properties": { "BarrType": 2, "GatewType": 0, "PaymType": 2, "Id": "70030076916022412", "X": "71.4619426778826", "Y": "51.1331758302789" }, "geometry": { "type": "Point", "coordinates": [ 71.461942677882632, 51.133175830278923 ] } },
{ "type": "Feature", "properties": { "BarrType": 2, "GatewType": 0, "PaymType": 2, "Id": "70030076982659490", "X": "71.4589747340154", "Y": "51.1304350768807" }, "geometry": { "type": "Point", "coordinates": [ 71.458974734015428, 51.130435076880666 ] } },
{ "type": "Feature", "properties": { "BarrType": 2, "GatewType": 0, "PaymType": 0, "Id": "70030077019740879", "X": "71.4569572975504", "Y": "51.1194741017581" }, "geometry": { "type": "Point", "coordinates": [ 71.456957297550375, 51.119474101758094 ] } },
{ "type": "Feature", "properties": { "BarrType": 2, "GatewType": 0, "PaymType": 0, "Id": "70030077019740931", "X": "71.45694022956", "Y": "51.1194311911427" }, "geometry": { "type": "Point", "coordinates": [ 71.456940229559962, 51.119431191142723 ] } },
{ "type": "Feature", "properties": { "BarrType": 2, "GatewType": 0, "PaymType": 1, "Id": "70030077045491694", "X": "71.4600245052565", "Y": "51.1303270083" }, "geometry": { "type": "Point", "coordinates": [ 71.460024505256456, 51.13032700829995 ] } },
{ "type": "Feature", "properties": { "BarrType": 2, "GatewType": 0, "PaymType": 1, "Id": "70030077045491713", "X": "71.459804777338", "Y": "51.1298075765484" }, "geometry": { "type": "Point", "coordinates": [ 71.459804777337951, 51.129807576548437 ] } },
{ "type": "Feature", "properties": { "BarrType": 2, "GatewType": 0, "PaymType": 2, "Id": "70030077046422201", "X": "71.4600172289027", "Y": "51.1297837301274" }, "geometry": { "type": "Point", "coordinates": [ 71.460017228902672, 51.129783730127421 ] } },
{ "type": "Feature", "properties": { "BarrType": 2, "GatewType": 0, "PaymType": 2, "Id": "70030077046438168", "X": "71.4602054259547", "Y": "51.1303022601647" }, "geometry": { "type": "Point", "coordinates": [ 71.460205425954669, 51.130302260164747 ] } },
{ "type": "Feature", "properties": { "BarrType": 2, "GatewType": 0, "PaymType": 2, "Id": "70030077066694659", "X": "71.4637477526145", "Y": "51.1282976171706" }, "geometry": { "type": "Point", "coordinates": [ 71.463747752614537, 51.12829761717061 ] } },
{ "type": "Feature", "properties": { "BarrType": 2, "GatewType": 0, "PaymType": 2, "Id": "70030077066694664", "X": "71.4685588597817", "Y": "51.1272912320468" }, "geometry": { "type": "Point", "coordinates": [ 71.468558859781695, 51.127291232046844 ] } },
{ "type": "Feature", "properties": { "BarrType": 2, "GatewType": 0, "PaymType": 2, "Id": "70030077106597838", "X": "71.4396668842877", "Y": "51.1242957943675" }, "geometry": { "type": "Point", "coordinates": [ 71.439666884287732, 51.124295794367512 ] } },
{ "type": "Feature", "properties": { "BarrType": 2, "GatewType": 0, "PaymType": 2, "Id": "70030077112232335", "X": "71.4616082351024", "Y": "51.1344422864983" }, "geometry": { "type": "Point", "coordinates": [ 71.461608235102361, 51.134442286498349 ] } },
{ "type": "Feature", "properties": { "BarrType": 2, "GatewType": 0, "PaymType": 2, "Id": "70030077122778481", "X": "71.4615939518893", "Y": "51.1348457165633" }, "geometry": { "type": "Point", "coordinates": [ 71.461593951889341, 51.134845716563277 ] } },
{ "type": "Feature", "properties": { "BarrType": 2, "GatewType": 0, "PaymType": 2, "Id": "70030077135173569", "X": "71.4409857009563", "Y": "51.1240818270999" }, "geometry": { "type": "Point", "coordinates": [ 71.440985700956347, 51.124081827099879 ] } },
{ "type": "Feature", "properties": { "BarrType": 2, "GatewType": 0, "PaymType": 2, "Id": "70030077159034634", "X": "71.4637455068263", "Y": "51.1356734784076" }, "geometry": { "type": "Point", "coordinates": [ 71.463745506826328, 51.135673478407639 ] } },
{ "type": "Feature", "properties": { "BarrType": 4, "GatewType": 0, "PaymType": 2, "Id": "70030077159060554", "X": "71.4668442453989", "Y": "51.1354527433668" }, "geometry": { "type": "Point", "coordinates": [ 71.466844245398903, 51.13545274336677 ] } },
{ "type": "Feature", "properties": { "BarrType": 1, "GatewType": 0, "PaymType": 2, "Id": "70030077159063481", "X": "71.466243811463", "Y": "51.135293899163" }, "geometry": { "type": "Point", "coordinates": [ 71.466243811463002, 51.135293899163017 ] } },
{ "type": "Feature", "properties": { "BarrType": 4, "GatewType": 0, "PaymType": 2, "Id": "70030077159067143", "X": "71.4634955056828", "Y": "51.1350379886151" }, "geometry": { "type": "Point", "coordinates": [ 71.463495505682758, 51.135037988615117 ] } },
{ "type": "Feature", "properties": { "BarrType": 1, "GatewType": 0, "PaymType": 2, "Id": "70030077159034633", "X": "71.4664106286113", "Y": "51.1353008887704" }, "geometry": { "type": "Point", "coordinates": [ 71.466410628611271, 51.135300888770416 ] } },
{ "type": "Feature", "properties": { "BarrType": 1, "GatewType": 0, "PaymType": 2, "Id": "70030077148899042", "X": "71.4626343806514", "Y": "51.1303919509515" }, "geometry": { "type": "Point", "coordinates": [ 71.462634380651394, 51.130391950951541 ] } },
{ "type": "Feature", "properties": { "BarrType": 1, "GatewType": 0, "PaymType": 2, "Id": "70030077148806575", "X": "71.4610635865456", "Y": "51.1343896943355" }, "geometry": { "type": "Point", "coordinates": [ 71.461063586545592, 51.134389694335539 ] } },
{ "type": "Feature", "properties": { "BarrType": 1, "GatewType": 0, "PaymType": 2, "Id": "70030077148806695", "X": "71.4617219618173", "Y": "51.1341059887414" }, "geometry": { "type": "Point", "coordinates": [ 71.461721961817332, 51.134105988741389 ] } },
{ "type": "Feature", "properties": { "BarrType": 1, "GatewType": 2, "PaymType": 2, "Id": "70030077148806799", "X": "71.4601913224047", "Y": "51.1296077848769" }, "geometry": { "type": "Point", "coordinates": [ 71.460191322404725, 51.129607784876868 ] } },
{ "type": "Feature", "properties": { "BarrType": 1, "GatewType": 0, "PaymType": 2, "Id": "70030077148807466", "X": "71.4641913407018", "Y": "51.1298811452165" }, "geometry": { "type": "Point", "coordinates": [ 71.464191340701845, 51.12988114521653 ] } },
{ "type": "Feature", "properties": { "BarrType": 1, "GatewType": 0, "PaymType": 2, "Id": "70030077139709969", "X": "71.4671332334258", "Y": "51.1325485926723" }, "geometry": { "type": "Point", "coordinates": [ 71.467133233425798, 51.132548592672293 ] } },
{ "type": "Feature", "properties": { "BarrType": 4, "GatewType": 0, "PaymType": 0, "Id": "70030077120577314", "X": "71.4650499504504", "Y": "51.1270189839356" }, "geometry": { "type": "Point", "coordinates": [ 71.465049950450407, 51.127018983935621 ] } },
{ "type": "Feature", "properties": { "BarrType": 4, "GatewType": 0, "PaymType": 0, "Id": "70030077112232336", "X": "71.4611617724062", "Y": "51.1319560716372" }, "geometry": { "type": "Point", "coordinates": [ 71.461161772406172, 51.131956071637234 ] } },
{ "type": "Feature", "properties": { "BarrType": 0, "GatewType": 0, "PaymType": 2, "Id": "70030077109614105", "X": "71.4555403848527", "Y": "51.1203462330528" }, "geometry": { "type": "Point", "coordinates": [ 71.455540384852725, 51.120346233052764 ] } },
{ "type": "Feature", "properties": { "BarrType": 4, "GatewType": 0, "PaymType": 2, "Id": "70030077045589453", "X": "71.4612022864255", "Y": "51.1319749562134" }, "geometry": { "type": "Point", "coordinates": [ 71.461202286425475, 51.131974956213362 ] } },
{ "type": "Feature", "properties": { "BarrType": 1, "GatewType": 0, "PaymType": 2, "Id": "70030077045491715", "X": "71.4622287913006", "Y": "51.1321718626918" }, "geometry": { "type": "Point", "coordinates": [ 71.462228791300618, 51.132171862691784 ] } },
{ "type": "Feature", "properties": { "BarrType": 1, "GatewType": 0, "PaymType": 2, "Id": "70030077045491717", "X": "71.4612854704208", "Y": "51.1329085211085" }, "geometry": { "type": "Point", "coordinates": [ 71.461285470420776, 51.132908521108533 ] } },
{ "type": "Feature", "properties": { "BarrType": 4, "GatewType": 0, "PaymType": 2, "Id": "70030077045491687", "X": "71.4611154193375", "Y": "51.1336559344078" }, "geometry": { "type": "Point", "coordinates": [ 71.461115419337503, 51.133655934407848 ] } },
{ "type": "Feature", "properties": { "BarrType": 1, "GatewType": 0, "PaymType": 2, "Id": "70030077045491688", "X": "71.4600160610928", "Y": "51.1322456530796" }, "geometry": { "type": "Point", "coordinates": [ 71.460016061092787, 51.132245653079622 ] } },
{ "type": "Feature", "properties": { "BarrType": 1, "GatewType": 0, "PaymType": 2, "Id": "70030077019742750", "X": "71.4603815855819", "Y": "51.1192839076236" }, "geometry": { "type": "Point", "coordinates": [ 71.460381585581899, 51.119283907623604 ] } },
{ "type": "Feature", "properties": { "BarrType": 1, "GatewType": 0, "PaymType": 2, "Id": "70030076989163420", "X": "71.4658326525575", "Y": "51.1347618967463" }, "geometry": { "type": "Point", "coordinates": [ 71.465832652557452, 51.134761896746284 ] } },
{ "type": "Feature", "properties": { "BarrType": 1, "GatewType": 0, "PaymType": 2, "Id": "70030076911100792", "X": "71.4584258633768", "Y": "51.1197462815663" }, "geometry": { "type": "Point", "coordinates": [ 71.458425863376831, 51.119746281566336 ] } },
{ "type": "Feature", "properties": { "BarrType": 4, "GatewType": 0, "PaymType": 0, "Id": "70030076893003389", "X": "71.4621782161501", "Y": "51.1199733505876" }, "geometry": { "type": "Point", "coordinates": [ 71.462178216150136, 51.119973350587578 ] } },
{ "type": "Feature", "properties": { "BarrType": 4, "GatewType": 1, "PaymType": 0, "Id": "70030076816302908", "X": "71.4632652674754", "Y": "51.133327128162" }, "geometry": { "type": "Point", "coordinates": [ 71.463265267475435, 51.133327128161952 ] } },
{ "type": "Feature", "properties": { "BarrType": 1, "GatewType": 0, "PaymType": 2, "Id": "70030076816302897", "X": "71.4634365762001", "Y": "51.1350211345447" }, "geometry": { "type": "Point", "coordinates": [ 71.463436576200138, 51.135021134544679 ] } },
{ "type": "Feature", "properties": { "BarrType": 1, "GatewType": 1, "PaymType": 2, "Id": "70030076658589089", "X": "71.4564915210755", "Y": "51.1198182874334" }, "geometry": { "type": "Point", "coordinates": [ 71.456491521075549, 51.119818287433425 ] } },
{ "type": "Feature", "properties": { "BarrType": 4, "GatewType": 0, "PaymType": 2, "Id": "70030076537929052", "X": "71.4642445209667", "Y": "51.1311456059988" }, "geometry": { "type": "Point", "coordinates": [ 71.464244520966673, 51.131145605998768 ] } },
{ "type": "Feature", "properties": { "BarrType": 1, "GatewType": 0, "PaymType": 0, "Id": "70030076459614577", "X": "71.4627275359464", "Y": "51.1352561327176" }, "geometry": { "type": "Point", "coordinates": [ 71.462727535946385, 51.135256132717622 ] } },
{ "type": "Feature", "properties": { "BarrType": 0, "GatewType": 0, "PaymType": 2, "Id": "70030076389109480", "X": "71.4435008939204", "Y": "51.1211761718939" }, "geometry": { "type": "Point", "coordinates": [ 71.443500893920358, 51.121176171893872 ] } },
{ "type": "Feature", "properties": { "BarrType": 0, "GatewType": 1, "PaymType": 2, "Id": "70030076330295749", "X": "71.44274738706", "Y": "51.1237471453493" }, "geometry": { "type": "Point", "coordinates": [ 71.442747387060038, 51.123747145349284 ] } },
{ "type": "Feature", "properties": { "BarrType": 1, "GatewType": 2, "PaymType": 2, "Id": "70030076286302591", "X": "71.4612131560404", "Y": "51.1202369567552" }, "geometry": { "type": "Point", "coordinates": [ 71.461213156040401, 51.1202369567552 ] } },
{ "type": "Feature", "properties": { "BarrType": 1, "GatewType": 0, "PaymType": 2, "Id": "70030076261349139", "X": "71.4635512012304", "Y": "51.1315243173858" }, "geometry": { "type": "Point", "coordinates": [ 71.463551201230374, 51.131524317385825 ] } },
{ "type": "Feature", "properties": { "BarrType": 1, "GatewType": 1, "PaymType": 2, "Id": "70030076217440803", "X": "71.4635489554422", "Y": "51.1310810026447" }, "geometry": { "type": "Point", "coordinates": [ 71.463548955442164, 51.131081002644677 ] } },
{ "type": "Feature", "properties": { "BarrType": 4, "GatewType": 0, "PaymType": 0, "Id": "70030076167627281", "X": "71.4610241505046", "Y": "51.1202487414664" }, "geometry": { "type": "Point", "coordinates": [ 71.461024150504613, 51.120248741466391 ] } },
{ "type": "Feature", "properties": { "BarrType": 4, "GatewType": 0, "PaymType": 0, "Id": "70030076167627737", "X": "71.4616918682553", "Y": "51.1191124897666" }, "geometry": { "type": "Point", "coordinates": [ 71.461691868255315, 51.1191124897666 ] } },
{ "type": "Feature", "properties": { "BarrType": 1, "GatewType": 0, "PaymType": 0, "Id": "70030076156419396", "X": "71.4691191390244", "Y": "51.1312416652692" }, "geometry": { "type": "Point", "coordinates": [ 71.4691191390244, 51.131241665269158 ] } },
{ "type": "Feature", "properties": { "BarrType": 1, "GatewType": 0, "PaymType": 2, "Id": "70030076156420153", "X": "71.4682659191675", "Y": "51.1323410336049" }, "geometry": { "type": "Point", "coordinates": [ 71.46826591916755, 51.132341033604888 ] } },
{ "type": "Feature", "properties": { "BarrType": 4, "GatewType": 0, "PaymType": 2, "Id": "70030076156420158", "X": "71.4683119129101", "Y": "51.1322663977969" }, "geometry": { "type": "Point", "coordinates": [ 71.46831191291011, 51.132266397796919 ] } },
{ "type": "Feature", "properties": { "BarrType": 4, "GatewType": 2, "PaymType": 2, "Id": "70030076139046644", "X": "71.4644109787888", "Y": "51.126137957978" }, "geometry": { "type": "Point", "coordinates": [ 71.46441097878882, 51.126137957977967 ] } },
{ "type": "Feature", "properties": { "BarrType": 1, "GatewType": 0, "PaymType": 2, "Id": "70030076139095540", "X": "71.46282590147", "Y": "51.1339585265321" }, "geometry": { "type": "Point", "coordinates": [ 71.462825901469984, 51.133958526532098 ] } },
{ "type": "Feature", "properties": { "BarrType": 1, "GatewType": 0, "PaymType": 2, "Id": "70030076139092928", "X": "71.4631076131431", "Y": "51.1343376094336" }, "geometry": { "type": "Point", "coordinates": [ 71.46310761314308, 51.134337609433587 ] } },
{ "type": "Feature", "properties": { "BarrType": 4, "GatewType": 2, "PaymType": 2, "Id": "70030076138975356", "X": "71.470305005031", "Y": "51.128672743856" }, "geometry": { "type": "Point", "coordinates": [ 71.470305005030966, 51.128672743856001 ] } },
{ "type": "Feature", "properties": { "BarrType": 0, "GatewType": 0, "PaymType": 2, "Id": "70030076138925392", "X": "71.4630137391959", "Y": "51.1195692831122" }, "geometry": { "type": "Point", "coordinates": [ 71.463013739195901, 51.119569283112234 ] } },
{ "type": "Feature", "properties": { "BarrType": 1, "GatewType": 2, "PaymType": 2, "Id": "70030076137944943", "X": "71.4438286891675", "Y": "51.1305561675095" }, "geometry": { "type": "Point", "coordinates": [ 71.443828689167532, 51.130556167509489 ] } },
{ "type": "Feature", "properties": { "BarrType": 1, "GatewType": 2, "PaymType": 2, "Id": "70030076137945221", "X": "71.4449393661848", "Y": "51.1285079004639" }, "geometry": { "type": "Point", "coordinates": [ 71.444939366184826, 51.128507900463902 ] } },
{ "type": "Feature", "properties": { "BarrType": 1, "GatewType": 2, "PaymType": 2, "Id": "70030076137945385", "X": "71.4431107555925", "Y": "51.1238653216622" }, "geometry": { "type": "Point", "coordinates": [ 71.443110755592471, 51.12386532166218 ] } },
{ "type": "Feature", "properties": { "BarrType": 1, "GatewType": 2, "PaymType": 2, "Id": "70030076137952703", "X": "71.4444405317076", "Y": "51.1234902123129" }, "geometry": { "type": "Point", "coordinates": [ 71.444440531707556, 51.123490212312888 ] } },
{ "type": "Feature", "properties": { "BarrType": 1, "GatewType": 2, "PaymType": 2, "Id": "70030076137952745", "X": "71.4444841898304", "Y": "51.1261247089152" }, "geometry": { "type": "Point", "coordinates": [ 71.444484189830362, 51.126124708915185 ] } },
{ "type": "Feature", "properties": { "BarrType": 4, "GatewType": 0, "PaymType": 0, "Id": "70030076131194526", "X": "71.4646086081513", "Y": "51.1319924314859" }, "geometry": { "type": "Point", "coordinates": [ 71.464608608151323, 51.131992431485891 ] } },
{ "type": "Feature", "properties": { "BarrType": 4, "GatewType": 0, "PaymType": 0, "Id": "70030076131194820", "X": "71.463191066633", "Y": "51.132486415244" }, "geometry": { "type": "Point", "coordinates": [ 71.463191066632973, 51.132486415243996 ] } },
{ "type": "Feature", "properties": { "BarrType": 4, "GatewType": 0, "PaymType": 0, "Id": "70030076131194842", "X": "71.463579857488", "Y": "51.1328185533552" }, "geometry": { "type": "Point", "coordinates": [ 71.463579857487957, 51.132818553355179 ] } },
{ "type": "Feature", "properties": { "BarrType": 4, "GatewType": 0, "PaymType": 2, "Id": "70030076131195006", "X": "71.4674250960616", "Y": "51.1326326983623" }, "geometry": { "type": "Point", "coordinates": [ 71.467425096061618, 51.132632698362286 ] } },
{ "type": "Feature", "properties": { "BarrType": 1, "GatewType": 0, "PaymType": 2, "Id": "70030076127099552", "X": "71.4637971599552", "Y": "51.1345330402504" }, "geometry": { "type": "Point", "coordinates": [ 71.463797159955163, 51.134533040250446 ] } },
{ "type": "Feature", "properties": { "BarrType": 1, "GatewType": 0, "PaymType": 2, "Id": "70030076127099564", "X": "71.4643771123026", "Y": "51.1346979185051" }, "geometry": { "type": "Point", "coordinates": [ 71.464377112302586, 51.13469791850514 ] } },
{ "type": "Feature", "properties": { "BarrType": 1, "GatewType": 0, "PaymType": 2, "Id": "70030076127099374", "X": "71.4650606404023", "Y": "51.1348957152654" }, "geometry": { "type": "Point", "coordinates": [ 71.465060640402285, 51.134895715265351 ] } },
{ "type": "Feature", "properties": { "BarrType": 1, "GatewType": 0, "PaymType": 2, "Id": "9571098428256843", "X": "71.4648268987654", "Y": "51.1332962936485" }, "geometry": { "type": "Point", "coordinates": [ 71.464826898765352, 51.13329629364852 ] } },
{ "type": "Feature", "properties": { "BarrType": 2, "GatewType": 0, "PaymType": 1, "Id": "9571098430151604", "X": "71.4071953918811", "Y": "51.1957987587089" }, "geometry": { "type": "Point", "coordinates": [ 71.407195391881146, 51.195798758708868 ] } },
{ "type": "Feature", "properties": { "BarrType": 2, "GatewType": 0, "PaymType": 0, "Id": "70030076131834074", "X": "71.4040783276768", "Y": "51.1966405701693" }, "geometry": { "type": "Point", "coordinates": [ 71.404078327676771, 51.196640570169286 ] } },
{ "type": "Feature", "properties": { "BarrType": 2, "GatewType": 0, "PaymType": 2, "Id": "70030076145736462", "X": "71.409267535747", "Y": "51.1940310959836" }, "geometry": { "type": "Point", "coordinates": [ 71.40926753574702, 51.194031095983604 ] } },
{ "type": "Feature", "properties": { "BarrType": 2, "GatewType": 0, "PaymType": 1, "Id": "70030076147079808", "X": "71.4078544858051", "Y": "51.1952023208573" }, "geometry": { "type": "Point", "coordinates": [ 71.407854485805089, 51.19520232085727 ] } },
{ "type": "Feature", "properties": { "BarrType": 2, "GatewType": 0, "PaymType": 2, "Id": "70030076147091189", "X": "71.4070823838184", "Y": "51.193962527318" }, "geometry": { "type": "Point", "coordinates": [ 71.407082383818405, 51.193962527317964 ] } },
{ "type": "Feature", "properties": { "BarrType": 2, "GatewType": 0, "PaymType": 1, "Id": "70030076161430957", "X": "71.4080002823757", "Y": "51.1951264356199" }, "geometry": { "type": "Point", "coordinates": [ 71.40800028237571, 51.195126435619891 ] } },
{ "type": "Feature", "properties": { "BarrType": 2, "GatewType": 1, "PaymType": 0, "Id": "70030076178610359", "X": "71.4074393743123", "Y": "51.1943045251897" }, "geometry": { "type": "Point", "coordinates": [ 71.407439374312304, 51.194304525189743 ] } },
{ "type": "Feature", "properties": { "BarrType": 2, "GatewType": 0, "PaymType": 2, "Id": "70030076320647949", "X": "71.403007356195", "Y": "51.1956703521181" }, "geometry": { "type": "Point", "coordinates": [ 71.403007356195047, 51.195670352118071 ] } },
{ "type": "Feature", "properties": { "BarrType": 1, "GatewType": 0, "PaymType": 0, "Id": "70030076320647964", "X": "71.4036176715991", "Y": "51.1964638101781" }, "geometry": { "type": "Point", "coordinates": [ 71.403617671599079, 51.196463810178088 ] } },
{ "type": "Feature", "properties": { "BarrType": 1, "GatewType": 2, "PaymType": 2, "Id": "70030076320647935", "X": "71.4075518433859", "Y": "51.1962207359362" }, "geometry": { "type": "Point", "coordinates": [ 71.407551843385889, 51.196220735936208 ] } },
{ "type": "Feature", "properties": { "BarrType": 1, "GatewType": 2, "PaymType": 2, "Id": "70030076320647942", "X": "71.4036055443427", "Y": "51.1974720648384" }, "geometry": { "type": "Point", "coordinates": [ 71.403605544342739, 51.197472064838387 ] } },
{ "type": "Feature", "properties": { "BarrType": 4, "GatewType": 0, "PaymType": 0, "Id": "70030076191444173", "X": "71.4086954885741", "Y": "51.193483050472" }, "geometry": { "type": "Point", "coordinates": [ 71.408695488574097, 51.193483050472011 ] } },
{ "type": "Feature", "properties": { "BarrType": 1, "GatewType": 2, "PaymType": 2, "Id": "70030076162848279", "X": "71.406633854997", "Y": "51.1960524183753" }, "geometry": { "type": "Point", "coordinates": [ 71.40663385499704, 51.196052418375295 ] } },
{ "type": "Feature", "properties": { "BarrType": 4, "GatewType": 2, "PaymType": 2, "Id": "70030076162848464", "X": "71.4063187259954", "Y": "51.1962972385976" }, "geometry": { "type": "Point", "coordinates": [ 71.406318725995362, 51.196297238597602 ] } },
{ "type": "Feature", "properties": { "BarrType": 4, "GatewType": 0, "PaymType": 0, "Id": "70030076147094837", "X": "71.4068856527712", "Y": "51.1940648736139" }, "geometry": { "type": "Point", "coordinates": [ 71.40688565277118, 51.194064873613904 ] } },
{ "type": "Feature", "properties": { "BarrType": 1, "GatewType": 0, "PaymType": 2, "Id": "70030076147117202", "X": "71.4029086313453", "Y": "51.1955938484158" }, "geometry": { "type": "Point", "coordinates": [ 71.402908631345312, 51.195593848415761 ] } },
{ "type": "Feature", "properties": { "BarrType": 1, "GatewType": 0, "PaymType": 2, "Id": "70030076131821640", "X": "71.4070749278015", "Y": "51.1961466537678" }, "geometry": { "type": "Point", "coordinates": [ 71.407074927801531, 51.196146653767777 ] } },
{ "type": "Feature", "properties": { "BarrType": 4, "GatewType": 0, "PaymType": 0, "Id": "70030076131822487", "X": "71.4061510105318", "Y": "51.1965656442813" }, "geometry": { "type": "Point", "coordinates": [ 71.406151010531829, 51.196565644281293 ] } },
{ "type": "Feature", "properties": { "BarrType": 1, "GatewType": 0, "PaymType": 2, "Id": "70030076131822539", "X": "71.4062073349001", "Y": "51.1966302685706" }, "geometry": { "type": "Point", "coordinates": [ 71.406207334900145, 51.196630268570573 ] } },
{ "type": "Feature", "properties": { "BarrType": 1, "GatewType": 0, "PaymType": 0, "Id": "9571098395935453", "X": "71.4053454912166", "Y": "51.1946157269732" }, "geometry": { "type": "Point", "coordinates": [ 71.405345491216551, 51.194615726973197 ] } },
{ "type": "Feature", "properties": { "BarrType": 1, "GatewType": 0, "PaymType": 0, "Id": "9571098395935454", "X": "71.4059481709407", "Y": "51.1964904930992" }, "geometry": { "type": "Point", "coordinates": [ 71.405948170940675, 51.196490493099198 ] } },
{ "type": "Feature", "properties": { "BarrType": 1, "GatewType": 0, "PaymType": 0, "Id": "9571098395935457", "X": "71.4042142427793", "Y": "51.1953927652312" }, "geometry": { "type": "Point", "coordinates": [ 71.404214242779261, 51.195392765231212 ] } },
{ "type": "Feature", "properties": { "BarrType": 4, "GatewType": 0, "PaymType": 0, "Id": "9571098395935460", "X": "71.4036499211178", "Y": "51.1952287793305" }, "geometry": { "type": "Point", "coordinates": [ 71.40364992111779, 51.195228779330527 ] } }
]
}
