{
"type": "FeatureCollection",
"name": "LivingArea",
"crs": { "type": "name", "properties": { "name": "urn:ogc:def:crs:OGC:1.3:CRS84" } },
"xy_coordinate_resolution": 1e-15,
"features": [
{ "type": "Feature", "properties": { "Name": "Юго-Восток (правая сторона) ж/м", "CityId": "9570771978420226", "Okato": null, "Oktmo": null, "Id": "9570810633125895" }, "geometry": { "type": "MultiPolygon", "coordinates": [ [ [ [ 71.470884040752708, 51.131644543064574 ], [ 71.470810127715239, 51.131622405270868 ], [ 71.47080958872607, 51.131623025366025 ], [ 71.47077518325068, 51.131506165467016 ], [ 71.470512426030083, 51.131435530758523 ], [ 71.470414599495641, 51.131407908217426 ], [ 71.464859417778641, 51.129841739484753 ], [ 71.462919865248708, 51.132566687810211 ], [ 71.462915014346166, 51.132642506924739 ], [ 71.462954270724083, 51.132717536721472 ], [ 71.463040778485961, 51.132782194156995 ], [ 71.463185227583637, 51.132826783495275 ], [ 71.468434622777906, 51.134234003144428 ], [ 71.468557602140308, 51.134269290187405 ], [ 71.466852869225633, 51.136561875546029 ], [ 71.466732315314516, 51.136772797601523 ], [ 71.467107721271745, 51.136904412025018 ], [ 71.467150014827467, 51.13691610907668 ], [ 71.470884040752708, 51.131644543064574 ] ] ] ] } }
]
}
