{
"type": "FeatureCollection",
"name": "NoParking-Stopping",
"crs": { "type": "name", "properties": { "name": "urn:ogc:def:crs:OGC:1.3:CRS84" } },
"xy_coordinate_resolution": 1e-15,
"features": [
{ "type": "Feature", "properties": { "Name": "NoStoppingSignArea", "Sign": "70030076254646090", "MapClass": "Зона запрета остановки", "SysCode": "70030076349838095" }, "geometry": { "type": "MultiLineString", "coordinates": [ [ [ 71.466305392628712, 51.137069370159217 ], [ 71.466402903099819, 51.136942571682766 ], [ 71.466421228731619, 51.136910443169469 ], [ 71.466480248045784, 51.136807068117079 ] ] ] } },
{ "type": "Feature", "properties": { "Name": "NoStoppingSignArea", "Sign": "70030076276457195", "MapClass": "Зона запрета остановки", "SysCode": "70030076349838128" }, "geometry": { "type": "MultiLineString", "coordinates": [ [ [ 71.461626740397222, 51.12884818528773 ], [ 71.461676057906317, 51.128840630946762 ], [ 71.462209208027446, 51.128758660630133 ], [ 71.463570964166635, 51.128549224119162 ], [ 71.463829229810813, 51.128509478994388 ] ] ] } },
{ "type": "Feature", "properties": { "Name": "NoStoppingSignArea", "Sign": "70030076276457197", "MapClass": "Зона запрета остановки", "SysCode": "70030076349838130" }, "geometry": { "type": "MultiLineString", "coordinates": [ [ [ 71.465426883543614, 51.128259506744726 ], [ 71.468713819168201, 51.127745125671488 ], [ 71.469899775006297, 51.127559644900671 ], [ 71.470171784874339, 51.12751708005942 ] ] ] } },
{ "type": "Feature", "properties": { "Name": "NoStoppingSignArea", "Sign": "70030076276457198", "MapClass": "Зона запрета остановки", "SysCode": "70030076349838131" }, "geometry": { "type": "MultiLineString", "coordinates": [ [ [ 71.468713819168201, 51.127745012917444 ], [ 71.469899775006297, 51.127559532146165 ], [ 71.470171605211291, 51.127517023682124 ] ] ] } },
{ "type": "Feature", "properties": { "Name": "NoStoppingSignArea", "Sign": "70030076276810960", "MapClass": "Зона запрета остановки", "SysCode": "70030076349838199" }, "geometry": { "type": "MultiLineString", "coordinates": [ [ [ 71.439701359741449, 51.130674076403267 ], [ 71.439711710220408, 51.130575785514452 ] ] ] } },
{ "type": "Feature", "properties": { "Name": "NoStoppingSignArea", "Sign": "70030076276813658", "MapClass": "Зона запрета остановки", "SysCode": "70030076349838219" }, "geometry": { "type": "MultiLineString", "coordinates": [ [ [ 71.441098080198387, 51.121454543991746 ], [ 71.440730848910249, 51.121510872271749 ], [ 71.439866400112351, 51.12164326319396 ], [ 71.439788426345686, 51.121655273084237 ] ] ] } },
{ "type": "Feature", "properties": { "Name": "NoStoppingSignArea", "Sign": "70030076276815132", "MapClass": "Зона запрета остановки", "SysCode": "70030076349838225" }, "geometry": { "type": "MultiLineString", "coordinates": [ [ [ 71.43742204092969, 51.121744214710475 ], [ 71.437882291144305, 51.121672695877251 ], [ 71.438221764490166, 51.121619976402521 ], [ 71.43857902447867, 51.121564437639464 ], [ 71.438649182902367, 51.121553555417151 ], [ 71.439012820929378, 51.12149700165061 ], [ 71.439301359798648, 51.121453303528348 ] ] ] } },
{ "type": "Feature", "properties": { "Name": "NoStoppingSignArea", "Sign": "70030076419407517", "MapClass": "Зона запрета остановки", "SysCode": "70030076419916844" }, "geometry": { "type": "MultiLineString", "coordinates": [ [ [ 71.441429558538246, 51.128984952471129 ], [ 71.442000617564346, 51.128897401225188 ], [ 71.442720347769992, 51.128783916974278 ], [ 71.442975109984573, 51.128744172051469 ], [ 71.443373333150021, 51.128682102252547 ], [ 71.444324289709783, 51.128533946209998 ], [ 71.444340998374074, 51.128533438825471 ], [ 71.444356718891555, 51.128537046893086 ], [ 71.444369115642459, 51.12854415027536 ], [ 71.444376212333211, 51.12855362145001 ], [ 71.444388429421068, 51.12858457188225 ], [ 71.444400377014361, 51.128615127662044 ] ] ] } },
{ "type": "Feature", "properties": { "Name": "NoStoppingSignArea", "Sign": "70030076416423977", "MapClass": "Зона запрета остановки", "SysCode": "70030076420848864" }, "geometry": { "type": "MultiLineString", "coordinates": [ [ [ 71.468380274703222, 51.134155311814091 ], [ 71.468396174883736, 51.134159877718723 ] ] ] } },
{ "type": "Feature", "properties": { "Name": "NoStoppingSignArea", "Sign": "70030076419943012", "MapClass": "Зона запрета остановки", "SysCode": "70030076450120232" }, "geometry": { "type": "MultiLineString", "coordinates": [ [ [ 71.460315200082405, 51.129049953385397 ], [ 71.460427669155962, 51.129032646125737 ], [ 71.460491988530322, 51.12902272404564 ], [ 71.461626740397222, 51.12884818528773 ] ] ] } },
{ "type": "Feature", "properties": { "Name": "NoStoppingSignArea", "Sign": "70030076419943014", "MapClass": "Зона запрета остановки", "SysCode": "70030076450120234" }, "geometry": { "type": "MultiLineString", "coordinates": [ [ [ 71.464153611459906, 51.128458796863676 ], [ 71.465368672713225, 51.128268639719472 ], [ 71.465426973375145, 51.128259506744726 ] ] ] } },
{ "type": "Feature", "properties": { "Name": "NoStoppingSignArea", "Sign": "70030076691469082", "MapClass": "Зона запрета остановки", "SysCode": "70030076700049228" }, "geometry": { "type": "MultiLineString", "coordinates": [ [ [ 71.466292949309036, 51.132316681149071 ], [ 71.466444944255116, 51.132362511107338 ] ] ] } },
{ "type": "Feature", "properties": { "Name": "NoStoppingSignArea", "Sign": "70030076691480193", "MapClass": "Зона запрета остановки", "SysCode": "70030076700049229" }, "geometry": { "type": "MultiLineString", "coordinates": [ [ [ 71.467703304305104, 51.132801472991218 ], [ 71.46737425141653, 51.13270226019123 ], [ 71.466899761283472, 51.132559303190909 ], [ 71.466543938599429, 51.132452085150256 ], [ 71.466448088358618, 51.13242322304842 ] ] ] } },
{ "type": "Feature", "properties": { "Name": "NoStoppingSignArea", "Sign": "70030076690776510", "MapClass": "Зона запрета остановки", "SysCode": "70030076700604086" }, "geometry": { "type": "MultiLineString", "coordinates": [ [ [ 71.45862987077787, 51.12775679571331 ], [ 71.458612443461348, 51.127767620097302 ], [ 71.45847104863563, 51.127911606713823 ], [ 71.458392535879796, 51.127983994490847 ], [ 71.45821871187232, 51.128216829795591 ], [ 71.458121065000938, 51.128440418235229 ], [ 71.458079652666342, 51.128686612322497 ], [ 71.458094744363095, 51.12890828171745 ], [ 71.458119268370368, 51.128983881336488 ] ] ] } },
{ "type": "Feature", "properties": { "Name": "NoStoppingSignArea", "Sign": "70030076691977605", "MapClass": "Зона запрета остановки", "SysCode": "70030076701798328" }, "geometry": { "type": "MultiLineString", "coordinates": [ [ [ 71.45679542113615, 51.118966727700347 ], [ 71.456709542195, 51.118980204367148 ], [ 71.456485682026212, 51.119015221127384 ], [ 71.454378324201187, 51.119345031468775 ], [ 71.454182671132301, 51.119375649748278 ] ] ] } },
{ "type": "Feature", "properties": { "Name": "NoStoppingSignArea", "Sign": "70030076692434215", "MapClass": "Зона запрета остановки", "SysCode": "70030076708415359" }, "geometry": { "type": "MultiLineString", "coordinates": [ [ [ 71.442718820633999, 51.128904786430056 ], [ 71.442353296144915, 51.128963247895697 ], [ 71.442113625627087, 51.128998764468378 ], [ 71.441869283869806, 51.129038678298414 ], [ 71.44150223224473, 51.12909392619833 ] ] ] } },
{ "type": "Feature", "properties": { "Name": "NoStoppingSignArea", "Sign": "70030076780395467", "MapClass": "Зона запрета остановки", "SysCode": "70030076785120892" }, "geometry": { "type": "MultiLineString", "coordinates": [ [ [ 71.467053013870924, 51.120010396507745 ], [ 71.46702624407547, 51.119943522115818 ], [ 71.46677220051312, 51.119308379726306 ], [ 71.466663773858315, 51.119038227293586 ], [ 71.466574211824508, 51.118815269994599 ], [ 71.466507736493469, 51.118645485654532 ], [ 71.466500280476623, 51.118626482851631 ] ] ] } },
{ "type": "Feature", "properties": { "Name": "NoStoppingSignArea", "Sign": "70030076780395469", "MapClass": "Зона запрета остановки", "SysCode": "70030076785120893" }, "geometry": { "type": "MultiLineString", "coordinates": [ [ [ 71.46650037030814, 51.118626539239791 ], [ 71.466105740403833, 51.11761785698981 ], [ 71.46606585520523, 51.117515961264608 ] ] ] } },
{ "type": "Feature", "properties": { "Name": "NoStoppingSignArea", "Sign": "70030076932374704", "MapClass": "Зона запрета остановки", "SysCode": "70030076941588888" }, "geometry": { "type": "MultiLineString", "coordinates": [ [ [ 71.469361773982655, 51.12787355234628 ], [ 71.46829753986556, 51.128037439599218 ], [ 71.466230246902214, 51.128360927764206 ], [ 71.465042494433561, 51.128546743573381 ], [ 71.46409845490146, 51.128699015012572 ], [ 71.463914749425868, 51.128727710314557 ] ] ] } },
{ "type": "Feature", "properties": { "Name": "NoStoppingSignArea", "Sign": "70030076959163095", "MapClass": "Зона запрета остановки", "SysCode": "70030076963644039" }, "geometry": { "type": "MultiLineString", "coordinates": [ [ [ 71.438557249084369, 51.127696971559665 ], [ 71.43858809746304, 51.127692751389482 ] ] ] } },
{ "type": "Feature", "properties": { "Name": "NoStoppingSignArea", "Sign": "70030076276802561", "MapClass": "Зона запрета остановки", "SysCode": "70030077041913710" }, "geometry": { "type": "MultiLineString", "coordinates": [ [ [ 71.437711521408787, 51.124794991090297 ], [ 71.437747004862501, 51.124884297908871 ], [ 71.437765420325832, 51.124930755428046 ], [ 71.437838633021499, 51.125115288292164 ], [ 71.437884087774876, 51.125229909159252 ], [ 71.437973559977166, 51.12545542897243 ], [ 71.438242066415597, 51.126132263700406 ], [ 71.438425412565095, 51.126594174451689 ], [ 71.438431341445963, 51.126609171110488 ] ] ] } },
{ "type": "Feature", "properties": { "Name": "NoStoppingSignArea", "Sign": "70030076276803129", "MapClass": "Зона запрета остановки", "SysCode": "70030077041913711" }, "geometry": { "type": "MultiLineString", "coordinates": [ [ [ 71.439747642831776, 51.12923159465732 ], [ 71.440170120509904, 51.129164508113085 ], [ 71.440448418584921, 51.129124876268484 ], [ 71.440539238260158, 51.129113150196986 ], [ 71.441250254807528, 51.129014098599242 ], [ 71.441279899211921, 51.129009983189626 ], [ 71.441428660222968, 51.128985065222153 ] ] ] } },
{ "type": "Feature", "properties": { "Name": "NoStoppingSignArea", "Sign": "70030077059672269", "MapClass": "Зона запрета остановки", "SysCode": "70030077060279046" }, "geometry": { "type": "MultiLineString", "coordinates": [ [ [ 71.467642937518008, 51.135171524494261 ], [ 71.467786308637343, 51.134978745684776 ], [ 71.468044843776127, 51.134631009007464 ], [ 71.468259990286683, 51.134342513534001 ], [ 71.468359882946274, 51.134208637042555 ] ] ] } },
{ "type": "Feature", "properties": { "Name": "NoStoppingSignArea", "Sign": "70030077069002778", "MapClass": "Зона запрета остановки", "SysCode": "70030077079456659" }, "geometry": { "type": "MultiLineString", "coordinates": [ [ [ 71.462574013864312, 51.126526407534307 ], [ 71.462491997678868, 51.126547887741012 ], [ 71.461641921925505, 51.126770582208771 ], [ 71.460790768193803, 51.126993501114569 ], [ 71.460705697736415, 51.127015770394792 ], [ 71.460444916809422, 51.127083987616807 ], [ 71.459573820478411, 51.127312204499923 ], [ 71.459257074509225, 51.12741554443204 ], [ 71.458923080886606, 51.127573964719232 ], [ 71.458629960609386, 51.127756739336299 ] ] ] } },
{ "type": "Feature", "properties": { "Name": "NoStoppingSignArea", "Sign": "70030076276802560", "MapClass": "Зона запрета остановки", "SysCode": "70030077101867087" }, "geometry": { "type": "MultiLineString", "coordinates": [ [ [ 71.436558110577707, 51.121884232450149 ], [ 71.436674416413283, 51.122185058376573 ], [ 71.437297487894355, 51.123799016668897 ], [ 71.437521168400096, 51.124370837725145 ], [ 71.437579918219669, 51.124518894360222 ], [ 71.437631391685457, 51.124648514002622 ] ] ] } },
{ "type": "Feature", "properties": { "Name": "NoStoppingSignArea", "Sign": "70030076276802562", "MapClass": "Зона запрета остановки", "SysCode": "70030077101867088" }, "geometry": { "type": "MultiLineString", "coordinates": [ [ [ 71.438431341445963, 51.126609171110488 ], [ 71.43873730763174, 51.127380477661575 ], [ 71.439442934287413, 51.129158814208623 ], [ 71.439487490725497, 51.129271170035196 ] ] ] } },
{ "type": "Feature", "properties": { "Name": "NoStoppingSignArea", "Sign": "70030077122402752", "MapClass": "Зона запрета остановки", "SysCode": "70030077124021375" }, "geometry": { "type": "MultiLineString", "coordinates": [ [ [ 71.464448618199214, 51.117766724717804 ], [ 71.463878008330738, 51.117855142898897 ], [ 71.463198881975956, 51.117961830938064 ], [ 71.462595753094192, 51.118056564297014 ] ] ] } },
{ "type": "Feature", "properties": { "Name": "NoStoppingSignArea", "Sign": "70030077122402753", "MapClass": "Зона запрета остановки", "SysCode": "70030077124021376" }, "geometry": { "type": "MultiLineString", "coordinates": [ [ [ 71.462595753094192, 51.118056564297014 ], [ 71.460848440035036, 51.118331120773938 ], [ 71.460415541899636, 51.118399068880017 ] ] ] } },
{ "type": "Feature", "properties": { "Name": "NoStoppingSignArea", "Sign": "70030077122402754", "MapClass": "Зона запрета остановки", "SysCode": "70030077124021377" }, "geometry": { "type": "MultiLineString", "coordinates": [ [ [ 71.457024222039024, 51.118930921474437 ], [ 71.456865938885969, 51.118955732090612 ], [ 71.45679542113615, 51.118966727700347 ] ] ] } },
{ "type": "Feature", "properties": { "Name": "NoStoppingSignArea", "Sign": "70030077122434925", "MapClass": "Зона запрета остановки", "SysCode": "70030077124021379" }, "geometry": { "type": "MultiLineString", "coordinates": [ [ [ 71.456908788525013, 51.118692851657393 ], [ 71.456974635035337, 51.118682645415639 ] ] ] } },
{ "type": "Feature", "properties": { "Name": "NoStoppingSignArea", "Sign": "70030077122434926", "MapClass": "Зона запрета остановки", "SysCode": "70030077124021380" }, "geometry": { "type": "MultiLineString", "coordinates": [ [ [ 71.461331643826384, 51.11800716764121 ], [ 71.46346127987043, 51.117677742474413 ] ] ] } },
{ "type": "Feature", "properties": { "Name": "NoParkingSignArea", "Sign": "9571300303690821", "MapClass": "Зона запрета стоянки", "SysCode": "70030076389298501" }, "geometry": { "type": "MultiLineString", "coordinates": [ [ [ 71.466107447202887, 51.13671180954875 ], [ 71.465741114229999, 51.136606912164183 ], [ 71.463526946717693, 51.135973238962031 ], [ 71.463434869401084, 51.135945280933193 ], [ 71.462898395513392, 51.135782379984931 ], [ 71.462823925176352, 51.135759156688749 ], [ 71.462803533419404, 51.135752730823185 ], [ 71.462309549844676, 51.135583628776274 ], [ 71.462165370241564, 51.135534476331806 ], [ 71.461704624332341, 51.135334427597662 ], [ 71.4613592221056, 51.135153824952923 ], [ 71.461017053813862, 51.134954450988232 ], [ 71.460862992742648, 51.134840643411231 ], [ 71.460716297856749, 51.134731852349802 ] ] ] } },
{ "type": "Feature", "properties": { "Name": "NoParkingSignArea", "Sign": "9571300303694554", "MapClass": "Зона запрета стоянки", "SysCode": "70030076389298502" }, "geometry": { "type": "MultiLineString", "coordinates": [ [ [ 71.46145444352571, 51.134945770281497 ], [ 71.461501066088957, 51.134972939760779 ], [ 71.461560714223836, 51.13500766255752 ], [ 71.461888329807948, 51.135179134167601 ], [ 71.462323294068526, 51.135368417342264 ], [ 71.462362640277973, 51.135381889224156 ], [ 71.462980232035804, 51.135592647567741 ], [ 71.463002240760275, 51.135599298925321 ], [ 71.463656573613207, 51.135797993699342 ], [ 71.464492725479673, 51.136037384536792 ], [ 71.465527764350028, 51.136334098935805 ], [ 71.466288547564147, 51.136551335054591 ], [ 71.46639149449571, 51.136576981700692 ], [ 71.46658400346108, 51.136625005711778 ] ] ] } },
{ "type": "Feature", "properties": { "Name": "NoParkingSignArea", "Sign": "70030076136680423", "MapClass": "Зона запрета стоянки", "SysCode": "70030076389298538" }, "geometry": { "type": "MultiLineString", "coordinates": [ [ [ 71.458012818009195, 51.12944655281872 ], [ 71.457964847973031, 51.12931982177092 ], [ 71.457947779982632, 51.129274665294865 ], [ 71.457846180523987, 51.12897322636411 ], [ 71.457840790632275, 51.128926378281825 ], [ 71.457814919152113, 51.128684075408202 ], [ 71.457860194242414, 51.128411666378526 ], [ 71.457968800560266, 51.128161242587367 ], [ 71.458160680704978, 51.1279035448282 ], [ 71.458375198394819, 51.127701658968 ], [ 71.458411939489935, 51.12766721256304 ], [ 71.458445985639216, 51.127644548956894 ] ] ] } },
{ "type": "Feature", "properties": { "Name": "NoParkingSignArea", "Sign": "70030076289757477", "MapClass": "Зона запрета стоянки", "SysCode": "70030076389298712" }, "geometry": { "type": "MultiLineString", "coordinates": [ [ [ 71.460233168063681, 51.133944835644279 ], [ 71.460376914342419, 51.134129381976727 ], [ 71.460670393945747, 51.134412241893912 ], [ 71.460729592922959, 51.13445863346066 ], [ 71.460775676497036, 51.134494653126133 ] ] ] } },
{ "type": "Feature", "properties": { "Name": "NoParkingSignArea", "Sign": "70030076320979660", "MapClass": "Зона запрета стоянки", "SysCode": "70030076389298798" }, "geometry": { "type": "MultiLineString", "coordinates": [ [ [ 71.469420421511586, 51.12474547673655 ], [ 71.469343448350855, 51.124757554342253 ] ] ] } },
{ "type": "Feature", "properties": { "Name": "NoParkingSignArea", "Sign": "70030076320979661", "MapClass": "Зона запрета стоянки", "SysCode": "70030076389298799" }, "geometry": { "type": "MultiLineString", "coordinates": [ [ [ 71.468423034510749, 51.124994578060232 ], [ 71.466734471271181, 51.125436598110163 ] ] ] } },
{ "type": "Feature", "properties": { "Name": "NoParkingSignArea", "Sign": "9570832107962487", "MapClass": "Зона запрета стоянки", "SysCode": "70030076412124608" }, "geometry": { "type": "MultiLineString", "coordinates": [ [ [ 71.438085759556159, 51.125738172882564 ], [ 71.438189514971469, 51.125999772885038 ] ] ] } },
{ "type": "Feature", "properties": { "Name": "NoParkingSignArea", "Sign": "9570832107962490", "MapClass": "Зона запрета стоянки", "SysCode": "70030076412124610" }, "geometry": { "type": "MultiLineString", "coordinates": [ [ [ 71.439907453120824, 51.130274073206472 ], [ 71.440011298367679, 51.130535760265616 ] ] ] } },
{ "type": "Feature", "properties": { "Name": "NoParkingSignArea", "Sign": "9570832107962647", "MapClass": "Зона запрета стоянки", "SysCode": "70030076412124768" }, "geometry": { "type": "MultiLineString", "coordinates": [ [ [ 71.467652549491561, 51.121553837340045 ], [ 71.46755095003293, 51.121291817463714 ] ] ] } },
{ "type": "Feature", "properties": { "Name": "NoParkingSignArea", "Sign": "9570832107962649", "MapClass": "Зона запрета стоянки", "SysCode": "70030076412124769" }, "geometry": { "type": "MultiLineString", "coordinates": [ [ [ 71.4649664969605, 51.117686539205728 ], [ 71.464550397320892, 51.117750992128293 ] ] ] } },
{ "type": "Feature", "properties": { "Name": "NoParkingSignArea", "Sign": "9570832107962663", "MapClass": "Зона запрета стоянки", "SysCode": "70030076412124779" }, "geometry": { "type": "MultiLineString", "coordinates": [ [ [ 71.453070826305137, 51.119577515613514 ], [ 71.452654996160135, 51.119642642541066 ] ] ] } },
{ "type": "Feature", "properties": { "Name": "NoParkingSignArea", "Sign": "9570832107962718", "MapClass": "Зона запрета стоянки", "SysCode": "70030076412124825" }, "geometry": { "type": "MultiLineString", "coordinates": [ [ [ 71.466939376987483, 51.136117820030528 ], [ 71.467023279635029, 51.136004973558933 ], [ 71.467120926506411, 51.135873694774126 ] ] ] } },
{ "type": "Feature", "properties": { "Name": "NoParkingSignArea", "Sign": "9570832107962719", "MapClass": "Зона запрета стоянки", "SysCode": "70030076412124826" }, "geometry": { "type": "MultiLineString", "coordinates": [ [ [ 71.470737274345709, 51.130917295311335 ], [ 71.470743832047262, 51.130905005963321 ], [ 71.470846509484247, 51.130660571279087 ] ] ] } },
{ "type": "Feature", "properties": { "Name": "NoParkingSignArea", "Sign": "9570832107962722", "MapClass": "Зона запрета стоянки", "SysCode": "70030076412124828" }, "geometry": { "type": "MultiLineString", "coordinates": [ [ [ 71.469512421455804, 51.126478034748764 ], [ 71.46939959305611, 51.126217790548282 ] ] ] } },
{ "type": "Feature", "properties": { "Name": "NoParkingSignArea", "Sign": "9570832107962737", "MapClass": "Зона запрета стоянки", "SysCode": "70030076412124838" }, "geometry": { "type": "MultiLineString", "coordinates": [ [ [ 71.470511797209383, 51.131991867767518 ], [ 71.47033024769047, 51.132236069919031 ] ] ] } },
{ "type": "Feature", "properties": { "Name": "NoParkingSignArea", "Sign": "9570832107962825", "MapClass": "Зона запрета стоянки", "SysCode": "70030076412124909" }, "geometry": { "type": "MultiLineString", "coordinates": [ [ [ 71.458302075530682, 51.120533321593712 ], [ 71.458728685459121, 51.120508004352068 ] ] ] } },
{ "type": "Feature", "properties": { "Name": "NoParkingSignArea", "Sign": "9570832107962890", "MapClass": "Зона запрета стоянки", "SysCode": "70030076412124962" }, "geometry": { "type": "MultiLineString", "coordinates": [ [ [ 71.465778753640407, 51.13661773447388 ], [ 71.465741114229999, 51.136606912164183 ], [ 71.46538861531252, 51.13650607291693 ] ] ] } },
{ "type": "Feature", "properties": { "Name": "NoParkingSignArea", "Sign": "9570832107963254", "MapClass": "Зона запрета стоянки", "SysCode": "70030076412125240" }, "geometry": { "type": "MultiLineString", "coordinates": [ [ [ 71.463519490700861, 51.120397487945382 ], [ 71.463092880772422, 51.120422579703778 ] ] ] } },
{ "type": "Feature", "properties": { "Name": "NoParkingSignArea", "Sign": "9570832107963255", "MapClass": "Зона запрета стоянки", "SysCode": "70030076412125241" }, "geometry": { "type": "MultiLineString", "coordinates": [ [ [ 71.457613966023061, 51.120744034935313 ], [ 71.457286080944343, 51.120759146264596 ] ] ] } },
{ "type": "Feature", "properties": { "Name": "NoParkingSignArea", "Sign": "9570832107963257", "MapClass": "Зона запрета стоянки", "SysCode": "70030076412125243" }, "geometry": { "type": "MultiLineString", "coordinates": [ [ [ 71.460398024751598, 51.118151635794078 ], [ 71.460814124391192, 51.118087239819211 ] ] ] } },
{ "type": "Feature", "properties": { "Name": "NoParkingSignArea", "Sign": "9570832107963272", "MapClass": "Зона запрета стоянки", "SysCode": "70030076412125253" }, "geometry": { "type": "MultiLineString", "coordinates": [ [ [ 71.465749019404512, 51.125694760669845 ], [ 71.465474134927561, 51.125766700885841 ] ] ] } },
{ "type": "Feature", "properties": { "Name": "NoParkingSignArea", "Sign": "9570832107963273", "MapClass": "Зона запрета стоянки", "SysCode": "70030076412125254" }, "geometry": { "type": "MultiLineString", "coordinates": [ [ [ 71.45995901807224, 51.127211288576554 ], [ 71.459573820478411, 51.127312204499923 ] ] ] } },
{ "type": "Feature", "properties": { "Name": "NoParkingSignArea", "Sign": "9570832107963274", "MapClass": "Зона запрета стоянки", "SysCode": "70030076412125255" }, "geometry": { "type": "MultiLineString", "coordinates": [ [ [ 71.461423271985353, 51.126633019170661 ], [ 71.461819069699544, 51.126529395595171 ] ] ] } },
{ "type": "Feature", "properties": { "Name": "NoParkingSignArea", "Sign": "9570832107963275", "MapClass": "Зона запрета стоянки", "SysCode": "70030076412125256" }, "geometry": { "type": "MultiLineString", "coordinates": [ [ [ 71.467234743052927, 51.125110890633955 ], [ 71.467630361104028, 51.125007207263224 ] ] ] } },
{ "type": "Feature", "properties": { "Name": "NoParkingSignArea", "Sign": "9570832107963527", "MapClass": "Зона запрета стоянки", "SysCode": "70030076412125397" }, "geometry": { "type": "MultiLineString", "coordinates": [ [ [ 71.464914574337101, 51.120141720390322 ], [ 71.465341094433981, 51.120116064616063 ] ] ] } },
{ "type": "Feature", "properties": { "Name": "NoParkingSignArea", "Sign": "9570832140368325", "MapClass": "Зона запрета стоянки", "SysCode": "70030076412125509" }, "geometry": { "type": "MultiLineString", "coordinates": [ [ [ 71.46668227915319, 51.119084295979206 ], [ 71.466663773858315, 51.119038227293586 ], [ 71.466577266096451, 51.118822882363219 ] ] ] } },
{ "type": "Feature", "properties": { "Name": "NoParkingSignArea", "Sign": "70030076160735413", "MapClass": "Зона запрета стоянки", "SysCode": "70030076412125859" }, "geometry": { "type": "MultiLineString", "coordinates": [ [ [ 71.464583365491848, 51.128391540068179 ], [ 71.46499919563685, 51.128326425474633 ] ] ] } },
{ "type": "Feature", "properties": { "Name": "NoParkingSignArea", "Sign": "70030076142056811", "MapClass": "Зона запрета стоянки", "SysCode": "70030076455290168" }, "geometry": { "type": "MultiLineString", "coordinates": [ [ [ 71.465397239139236, 51.12849115676223 ], [ 71.465042404602031, 51.128546687197328 ], [ 71.464981947983404, 51.128556383875598 ] ] ] } },
{ "type": "Feature", "properties": { "Name": "NoParkingSignArea", "Sign": "70030076690776512", "MapClass": "Зона запрета стоянки", "SysCode": "70030076700604088" }, "geometry": { "type": "MultiLineString", "coordinates": [ [ [ 71.461112544728579, 51.126909216019968 ], [ 71.460790768193803, 51.126993501114569 ], [ 71.460705697736415, 51.127015770394792 ], [ 71.460444916809422, 51.127083987616807 ], [ 71.459573820478411, 51.127312204499923 ], [ 71.459257074509225, 51.12741554443204 ], [ 71.458923080886606, 51.127573964719232 ], [ 71.458612443461348, 51.127767563720305 ], [ 71.45847104863563, 51.127911606713823 ], [ 71.458392535879796, 51.127983994490847 ], [ 71.45821871187232, 51.128216829795591 ], [ 71.458121065000938, 51.128440418235229 ], [ 71.458079652666342, 51.128686612322497 ], [ 71.458094744363095, 51.12890828171745 ], [ 71.45819984725135, 51.129232158409373 ], [ 71.45822041867136, 51.129283572568283 ], [ 71.458253835999926, 51.129367064079396 ] ] ] } },
{ "type": "Feature", "properties": { "Name": "NoParkingSignArea", "Sign": "70030076689237675", "MapClass": "Зона запрета стоянки", "SysCode": "70030076701186813" }, "geometry": { "type": "MultiLineString", "coordinates": [ [ [ 71.467109850239183, 51.136972812024844 ], [ 71.467028310200618, 51.136947700969664 ], [ 71.466839304664845, 51.136897479026196 ] ] ] } },
{ "type": "Feature", "properties": { "Name": "NoParkingSignArea", "Sign": "70030076691904506", "MapClass": "Зона запрета стоянки", "SysCode": "70030076701798335" }, "geometry": { "type": "MultiLineString", "coordinates": [ [ [ 71.462474300867768, 51.120563600770978 ], [ 71.46295274358809, 51.121813995049699 ], [ 71.463124052312779, 51.122262529662997 ], [ 71.463211099063813, 51.122490488451618 ] ] ] } },
{ "type": "Feature", "properties": { "Name": "NoParkingSignArea", "Sign": "70030076691977609", "MapClass": "Зона запрета стоянки", "SysCode": "70030076701798337" }, "geometry": { "type": "MultiLineString", "coordinates": [ [ [ 71.455708279979333, 51.120522495514351 ], [ 71.455733522638795, 51.120529769286705 ], [ 71.4561103659005, 51.120599349345767 ], [ 71.456498258440178, 51.120623144123108 ], [ 71.456817968849791, 51.120616772537012 ], [ 71.457291919993708, 51.120590327626033 ] ] ] } },
{ "type": "Feature", "properties": { "Name": "NoParkingSignArea", "Sign": "70030076691977610", "MapClass": "Зона запрета стоянки", "SysCode": "70030076701798338" }, "geometry": { "type": "MultiLineString", "coordinates": [ [ [ 71.458963864400502, 51.120494133429823 ], [ 71.459011475110557, 51.120491314136167 ], [ 71.459729768011741, 51.120449757727826 ] ], [ [ 71.460375836364065, 51.120411020580832 ], [ 71.460545348458183, 51.120401153034543 ] ] ] } },
{ "type": "Feature", "properties": { "Name": "NoParkingSignArea", "Sign": "70030076691977611", "MapClass": "Зона запрета стоянки", "SysCode": "70030076701798339" }, "geometry": { "type": "MultiLineString", "coordinates": [ [ [ 71.46100726217729, 51.120373016419585 ], [ 71.461042206641835, 51.120370873750829 ], [ 71.461231571503731, 51.120359652931135 ], [ 71.461611918195018, 51.120337098511477 ] ], [ [ 71.462303171806155, 51.120296105825538 ], [ 71.462426420663135, 51.120288832016399 ], [ 71.462837310074093, 51.120264585977637 ], [ 71.462886447920127, 51.120261710283835 ] ] ] } },
{ "type": "Feature", "properties": { "Name": "NoParkingSignArea", "Sign": "70030076691977612", "MapClass": "Зона запрета стоянки", "SysCode": "70030076701798340" }, "geometry": { "type": "MultiLineString", "coordinates": [ [ [ 71.46288635808861, 51.120261710283835 ], [ 71.463384833239758, 51.120232445860154 ] ], [ [ 71.463986704480121, 51.120197035318867 ], [ 71.464056952735334, 51.12019291912361 ], [ 71.464075727524801, 51.12019179139881 ] ] ] } },
{ "type": "Feature", "properties": { "Name": "NoParkingSignArea", "Sign": "70030076898095226", "MapClass": "Зона запрета стоянки", "SysCode": "70030076906466466" }, "geometry": { "type": "MultiLineString", "coordinates": [ [ [ 71.458430624447843, 51.127635133972952 ], [ 71.45873075158427, 51.127440745133285 ], [ 71.459099869334523, 51.127264960089505 ], [ 71.459340078841493, 51.127164044062908 ], [ 71.460334424029483, 51.126914853823749 ], [ 71.460596372766318, 51.126849511635818 ], [ 71.460677580468015, 51.126828257081954 ], [ 71.462164382094755, 51.126438964385009 ], [ 71.463562250508375, 51.126072783828171 ], [ 71.463693494371384, 51.126038392587482 ], [ 71.463817012722942, 51.126006087349552 ], [ 71.464479969402632, 51.125832382881761 ] ] ] } },
{ "type": "Feature", "properties": { "Name": "NoParkingSignArea", "Sign": "70030076691903739", "MapClass": "Зона запрета стоянки", "SysCode": "70030077014402521" }, "geometry": { "type": "MultiLineString", "coordinates": [ [ [ 71.464504223915299, 51.125760048111935 ], [ 71.46452847842798, 51.12581969752501 ] ] ] } },
{ "type": "Feature", "properties": { "Name": "NoParkingSignArea", "Sign": "70030077101746999", "MapClass": "Зона запрета стоянки", "SysCode": "70030077101867098" }, "geometry": { "type": "MultiLineString", "coordinates": [ [ [ 71.454902850495571, 51.119004958569164 ], [ 71.455318860303649, 51.11894022545706 ] ] ] } },
{ "type": "Feature", "properties": { "Name": "NoParkingSignArea", "Sign": "70030077132197738", "MapClass": "Зона запрета стоянки", "SysCode": "70030077133613185" }, "geometry": { "type": "MultiLineString", "coordinates": [ [ [ 71.466767888599747, 51.137024696570435 ], [ 71.466755312185782, 51.13704154990954 ], [ 71.466644500232135, 51.137185635623247 ] ] ] } },
{ "type": "Feature", "properties": { "Name": "NoStoppingSignArea", "Sign": "70030076423734042", "MapClass": "Зона запрета остановки", "SysCode": "70030076426562002" }, "geometry": { "type": "MultiLineString", "coordinates": [ [ [ 71.409408301752038, 51.194549073222497 ], [ 71.409276249405281, 51.194590619237218 ], [ 71.408796099885919, 51.194741715809513 ], [ 71.408057505059318, 51.194974158115933 ], [ 71.407983304216842, 51.194990202165023 ], [ 71.407905510113238, 51.194999265642913 ], [ 71.407823134601671, 51.194993748743535 ], [ 71.407751179547418, 51.194964869453372 ] ] ] } },
{ "type": "Feature", "properties": { "Name": "NoStoppingSignArea", "Sign": "70030076435964372", "MapClass": "Зона запрета остановки", "SysCode": "70030076437526460" }, "geometry": { "type": "MultiLineString", "coordinates": [ [ [ 71.409239867636259, 51.194508090125218 ], [ 71.409216331775824, 51.194515521129084 ], [ 71.408736182256476, 51.194666617947654 ], [ 71.408515106865039, 51.194736142584091 ] ] ] } },
{ "type": "Feature", "properties": { "Name": "NoStoppingSignArea", "Sign": "70030076437215920", "MapClass": "Зона запрета остановки", "SysCode": "70030076437526463" }, "geometry": { "type": "MultiLineString", "coordinates": [ [ [ 71.408557597177989, 51.194209891958586 ], [ 71.408386198621784, 51.19399872573134 ], [ 71.408210937309846, 51.193782829641108 ], [ 71.408079962941414, 51.193621483949478 ], [ 71.407986897477969, 51.193506751393755 ] ] ] } },
{ "type": "Feature", "properties": { "Name": "NoStoppingSignArea", "Sign": "70030076687849257", "MapClass": "Зона запрета остановки", "SysCode": "70030076694292434" }, "geometry": { "type": "MultiLineString", "coordinates": [ [ [ 71.406641490676947, 51.195116978103798 ], [ 71.406561271122087, 51.195147883908106 ], [ 71.406511953612977, 51.195180197058392 ], [ 71.406501533155691, 51.19521723893449 ], [ 71.406515097716479, 51.195265483400192 ], [ 71.406529740255593, 51.195284623547622 ], [ 71.406844060773537, 51.195693601562404 ], [ 71.406853133757892, 51.195705423309256 ], [ 71.406864452530471, 51.195718145757255 ], [ 71.406907930990215, 51.195761942476118 ], [ 71.406941977139482, 51.195785248168157 ], [ 71.406967129967441, 51.195794311489664 ], [ 71.40701806444406, 51.195796675834096 ] ] ] } },
{ "type": "Feature", "properties": { "Name": "NoStoppingSignArea", "Sign": "70030077082127018", "MapClass": "Зона запрета остановки", "SysCode": "70030077082459128" }, "geometry": { "type": "MultiLineString", "coordinates": [ [ [ 71.408778582737881, 51.194076020226461 ], [ 71.408836524073692, 51.194147347223812 ], [ 71.408848112340863, 51.194161758979405 ], [ 71.408936686227875, 51.194270804030914 ], [ 71.409004419200315, 51.194249580517614 ], [ 71.409350022292045, 51.194141205357631 ] ] ] } },
{ "type": "Feature", "properties": { "Name": "NoParkingSignArea", "Sign": "70030076273344297", "MapClass": "Зона запрета стоянки", "SysCode": "70030076349838352" }, "geometry": { "type": "MultiLineString", "coordinates": [ [ [ 71.408898597659856, 51.194675794079771 ], [ 71.408774630150617, 51.194714806694662 ], [ 71.407958331051944, 51.194971737434358 ] ] ] } },
{ "type": "Feature", "properties": { "Name": "NoParkingSignArea", "Sign": "9570832107962877", "MapClass": "Зона запрета стоянки", "SysCode": "70030076412124949" }, "geometry": { "type": "MultiLineString", "coordinates": [ [ [ 71.404290150420763, 51.19484653735806 ], [ 71.404223225932114, 51.194886563138873 ], [ 71.404102761852513, 51.194958508125829 ], [ 71.404048593440876, 51.194986937060754 ] ] ] } },
{ "type": "Feature", "properties": { "Name": "NoParkingSignArea", "Sign": "9570832107963380", "MapClass": "Зона запрета стоянки", "SysCode": "70030076412125309" }, "geometry": { "type": "MultiLineString", "coordinates": [ [ [ 71.405480508003762, 51.194243725753623 ], [ 71.405864268293143, 51.194122858488157 ] ] ] } },
{ "type": "Feature", "properties": { "Name": "NoParkingSignArea", "Sign": "70030076834124027", "MapClass": "Зона запрета стоянки", "SysCode": "70030076834390012" }, "geometry": { "type": "MultiLineString", "coordinates": [ [ [ 71.408326819981482, 51.194949669819707 ], [ 71.408093347839156, 51.195023134669327 ], [ 71.408008187550223, 51.195041768263913 ], [ 71.407920062820835, 51.195052407986751 ] ] ] } },
{ "type": "Feature", "properties": { "Name": "NoParkingSignArea", "Sign": "70030076922494809", "MapClass": "Зона запрета стоянки", "SysCode": "70030076922812587" }, "geometry": { "type": "MultiLineString", "coordinates": [ [ [ 71.409611859995422, 51.194545301427993 ], [ 71.409314697299436, 51.194638808063722 ], [ 71.409228099706056, 51.194666111289997 ] ] ] } },
{ "type": "Feature", "properties": { "Name": "NoParkingSignArea", "Sign": "70030076922495016", "MapClass": "Зона запрета стоянки", "SysCode": "70030076922812588" }, "geometry": { "type": "MultiLineString", "coordinates": [ [ [ 71.408931116673131, 51.194759505090182 ], [ 71.408834547780074, 51.194789848182836 ], [ 71.408547536046797, 51.194880258095537 ] ] ] } }
]
}
