{
"type": "FeatureCollection",
"name": "ParkingsUnderground",
"crs": { "type": "name", "properties": { "name": "urn:ogc:def:crs:OGC:1.3:CRS84" } },
"xy_coordinate_resolution": 1e-15,
"features": [
{ "type": "Feature", "properties": { "Purpose": "Для автомобилей", "Name": null, "LevelCount": 0, "HouseId": "70030076697243722", "MinCpcty": "100", "MaxCpcty": "100", "Charged": 0, "ParkingAcc": "Для резидентов", "Synonym": null, "ParkingTer": null, "Id": "70030077149239851", "X": 71.46305749, "Y": 51.12991542 }, "geometry": { "type": "Point", "coordinates": [ 71.463057487150223, 51.129915420847169 ] } },
{ "type": "Feature", "properties": { "Purpose": "Для автомобилей", "Name": null, "LevelCount": 1, "HouseId": "9570784863349089", "MinCpcty": null, "MaxCpcty": null, "Charged": 1, "ParkingAcc": "Для резидентов", "Synonym": null, "ParkingTer": null, "Id": "70030076816302934", "X": 71.46403458, "Y": 51.13465852 }, "geometry": { "type": "Point", "coordinates": [ 71.464034584684768, 51.134658516883448 ] } },
{ "type": "Feature", "properties": { "Purpose": "Для автомобилей", "Name": null, "LevelCount": 1, "HouseId": "9570784863334401", "MinCpcty": null, "MaxCpcty": null, "Charged": 1, "ParkingAcc": "Для резидентов", "Synonym": null, "ParkingTer": null, "Id": "70030076816302938", "X": 71.46535798, "Y": 51.13503714 }, "geometry": { "type": "Point", "coordinates": [ 71.465357982761333, 51.135037143093321 ] } },
{ "type": "Feature", "properties": { "Purpose": "Для автомобилей", "Name": null, "LevelCount": 1, "HouseId": "9570784863342921", "MinCpcty": "50", "MaxCpcty": "50", "Charged": 0, "ParkingAcc": "Для резидентов", "Synonym": null, "ParkingTer": null, "Id": "70030076546365726", "X": 71.46897128000001, "Y": 51.12725966 }, "geometry": { "type": "Point", "coordinates": [ 71.468971276328645, 51.127259660594142 ] } },
{ "type": "Feature", "properties": { "Purpose": "Для автомобилей", "Name": null, "LevelCount": 1, "HouseId": "9570784863334434", "MinCpcty": "50", "MaxCpcty": "50", "Charged": 0, "ParkingAcc": "Для резидентов", "Synonym": null, "ParkingTer": null, "Id": "70030076453182261", "X": 71.46288115, "Y": 51.13425616 }, "geometry": { "type": "Point", "coordinates": [ 71.462881147859946, 51.134256156195327 ] } },
{ "type": "Feature", "properties": { "Purpose": "Для автомобилей", "Name": null, "LevelCount": 1, "HouseId": "70030076220850423", "MinCpcty": "6", "MaxCpcty": "6", "Charged": 0, "ParkingAcc": "Для электроавтомобилей", "Synonym": null, "ParkingTer": null, "Id": "70030076823170447", "X": 71.45740214, "Y": 51.11940441 }, "geometry": { "type": "Point", "coordinates": [ 71.457402143279054, 51.119404407229879 ] } },
{ "type": "Feature", "properties": { "Purpose": "Для автомобилей", "Name": null, "LevelCount": 1, "HouseId": "70030076247337809", "MinCpcty": "2", "MaxCpcty": "2", "Charged": 0, "ParkingAcc": "Для электроавтомобилей", "Synonym": null, "ParkingTer": null, "Id": "70030076823173836", "X": 71.45744023, "Y": 51.11980498 }, "geometry": { "type": "Point", "coordinates": [ 71.457440231847102, 51.119804980171217 ] } },
{ "type": "Feature", "properties": { "Purpose": "Для автомобилей", "Name": null, "LevelCount": 0, "HouseId": null, "MinCpcty": "200", "MaxCpcty": "200", "Charged": 0, "ParkingAcc": "Для резидентов", "Synonym": null, "ParkingTer": "70030076153342285", "Id": "70030076153342310", "X": 71.43978205000001, "Y": 51.1259863 }, "geometry": { "type": "Point", "coordinates": [ 71.439782048307165, 51.125986298265929 ] } }
]
}
