{
"type": "FeatureCollection",
"name": "ParkingTerritory",
"crs": { "type": "name", "properties": { "name": "urn:ogc:def:crs:OGC:1.3:CRS84" } },
"xy_coordinate_resolution": 1e-15,
"features": [
{ "type": "Feature", "properties": { "Id": "9571222949986325" }, "geometry": { "type": "MultiPolygon", "coordinates": [ [ [ [ 71.445231318652162, 51.131036467993695 ], [ 71.445184965583493, 51.130868588885271 ], [ 71.445019316245094, 51.130444773162459 ], [ 71.443522273824115, 51.13065718887124 ], [ 71.4437160404309, 51.131195552334475 ], [ 71.443818628036354, 51.131460165541441 ], [ 71.4452488358002, 51.131240594186842 ], [ 71.445231318652162, 51.131036467993695 ] ] ] ] } },
{ "type": "Feature", "properties": { "Id": "9571222949986341" }, "geometry": { "type": "MultiPolygon", "coordinates": [ [ [ [ 71.461292567111514, 51.120628275222778 ], [ 71.461318708086282, 51.12080436745179 ], [ 71.461755019819776, 51.120778712045535 ], [ 71.461728878845008, 51.120602619718738 ], [ 71.461292567111514, 51.120628275222778 ] ] ] ] } },
{ "type": "Feature", "properties": { "Id": "9571222949986342" }, "geometry": { "type": "MultiPolygon", "coordinates": [ [ [ [ 71.463086951891555, 51.120522608286024 ], [ 71.463117135285103, 51.120723510584654 ], [ 71.46326418949711, 51.120715221901982 ], [ 71.463454901831923, 51.120704508636464 ], [ 71.464088214107221, 51.120668872914358 ], [ 71.464099802374392, 51.120668196286481 ], [ 71.464069888475436, 51.120464643609736 ], [ 71.463221878847222, 51.120514657882396 ], [ 71.463086951891555, 51.120522608286024 ] ] ] ] } },
{ "type": "Feature", "properties": { "Id": "9571222949986343" }, "geometry": { "type": "MultiPolygon", "coordinates": [ [ [ [ 71.464651727284945, 51.1206248356945 ], [ 71.46507213883794, 51.12059996958893 ], [ 71.465492550390891, 51.120575103469982 ], [ 71.465786838477968, 51.120557680263012 ], [ 71.46595500309914, 51.120547699976441 ], [ 71.466099362365313, 51.120539242104797 ], [ 71.466070885770804, 51.120346684141175 ], [ 71.464623160858906, 51.120431432298432 ], [ 71.464651727284945, 51.1206248356945 ] ] ] ] } },
{ "type": "Feature", "properties": { "Id": "9571222949986344" }, "geometry": { "type": "MultiPolygon", "coordinates": [ [ [ [ 71.45799575001881, 51.120822467191381 ], [ 71.458024226613304, 51.121020548924641 ], [ 71.459742524088782, 51.120919675640273 ], [ 71.459713149178967, 51.120721480703303 ], [ 71.45799575001881, 51.120822467191381 ] ] ] ] } },
{ "type": "Feature", "properties": { "Id": "9571222949986348" }, "geometry": { "type": "MultiPolygon", "coordinates": [ [ [ [ 71.45486260597086, 51.120530333144977 ], [ 71.454661383347201, 51.120423932966773 ], [ 71.454641261084831, 51.120413388791626 ], [ 71.454507142612911, 51.120332418468003 ], [ 71.454364759640384, 51.120231318136334 ], [ 71.454268639904981, 51.120151249674272 ], [ 71.454009026787872, 51.120284208354178 ], [ 71.454261004225089, 51.120459681649621 ], [ 71.454469413371001, 51.120590947869324 ], [ 71.454732080760053, 51.120727119262341 ], [ 71.454945789966146, 51.120566927532259 ], [ 71.45486260597086, 51.120530333144977 ] ] ] ] } },
{ "type": "Feature", "properties": { "Id": "9571222949986419" }, "geometry": { "type": "MultiPolygon", "coordinates": [ [ [ [ 71.463350248101321, 51.133066133366661 ], [ 71.463211278726874, 51.133023404488611 ], [ 71.462602580290351, 51.133870082802204 ], [ 71.46275664136158, 51.133911345290009 ], [ 71.463350248101321, 51.133066133366661 ] ] ] ] } },
{ "type": "Feature", "properties": { "Id": "9571222985589665" }, "geometry": { "type": "MultiPolygon", "coordinates": [ [ [ [ 71.468257834329989, 51.128549618751435 ], [ 71.468138987217884, 51.128256067784633 ], [ 71.466664133184437, 51.128492509788849 ], [ 71.466782980296543, 51.128786059252839 ], [ 71.468257834329989, 51.128549618751435 ] ] ] ] } },
{ "type": "Feature", "properties": { "Id": "9571222990300332" }, "geometry": { "type": "MultiPolygon", "coordinates": [ [ [ [ 71.45817738936924, 51.127615007324223 ], [ 71.458204159164723, 51.127593978631438 ], [ 71.458285277034861, 51.127530328722827 ], [ 71.458431522763135, 51.127433697958708 ], [ 71.458446614459902, 51.127424621196269 ], [ 71.458447961932833, 51.127423831912488 ], [ 71.458597531427628, 51.127342873876522 ], [ 71.458598609405982, 51.127342366478906 ], [ 71.458746112775628, 51.127272401932998 ], [ 71.458747190753968, 51.127271894534644 ], [ 71.458902958624236, 51.127207060250925 ], [ 71.458903677276453, 51.127206778362542 ], [ 71.459046329743586, 51.127152824893258 ], [ 71.459047497553442, 51.127152373871297 ], [ 71.459198594184258, 51.127103099696491 ], [ 71.459255727036307, 51.127086637374646 ], [ 71.45932363967178, 51.127067187021069 ], [ 71.459357506158, 51.127057490030147 ], [ 71.459239647192717, 51.126903409081358 ], [ 71.459221950381632, 51.126909723422351 ], [ 71.458774050380953, 51.127075079919173 ], [ 71.458456855254141, 51.127233106730614 ], [ 71.458435565181915, 51.127245397055766 ], [ 71.457985149898448, 51.127510822178799 ], [ 71.45817738936924, 51.127615007324223 ] ] ] ] } },
{ "type": "Feature", "properties": { "Id": "9571222990300410" }, "geometry": { "type": "MultiPolygon", "coordinates": [ [ [ [ 71.460612362778392, 51.126727565614232 ], [ 71.460631586725469, 51.126722209678952 ], [ 71.462068352190897, 51.126347010772186 ], [ 71.46212189178182, 51.126332239543252 ], [ 71.462009063382126, 51.126155773733032 ], [ 71.460482466388299, 51.126560967547036 ], [ 71.460591971021415, 51.126732583279363 ], [ 71.460612362778392, 51.126727565614232 ] ] ] ] } },
{ "type": "Feature", "properties": { "Id": "9571222990300438" }, "geometry": { "type": "MultiPolygon", "coordinates": [ [ [ [ 71.463812610978067, 51.125889269616451 ], [ 71.463705352133118, 51.125733606145225 ], [ 71.463274879448974, 51.125846308580471 ], [ 71.46338285694614, 51.126002084430191 ], [ 71.463812610978067, 51.125889269616451 ] ] ] ] } },
{ "type": "Feature", "properties": { "Id": "9571222990300459" }, "geometry": { "type": "MultiPolygon", "coordinates": [ [ [ [ 71.465880892088222, 51.125347574259159 ], [ 71.465998391727382, 51.12531611423784 ], [ 71.465875771691103, 51.125142689076227 ], [ 71.464953112062787, 51.125384221210354 ], [ 71.465070252375838, 51.12555911133704 ], [ 71.465880892088222, 51.125347574259159 ] ] ] ] } },
{ "type": "Feature", "properties": { "Id": "9571222990300478" }, "geometry": { "type": "MultiPolygon", "coordinates": [ [ [ [ 71.466524714652351, 51.1251659740919 ], [ 71.467786398468888, 51.124836599970429 ], [ 71.467838410923846, 51.124822110161411 ], [ 71.467855209419653, 51.124817994378262 ], [ 71.467745345460401, 51.124652009612142 ], [ 71.466422306709958, 51.124998862968773 ], [ 71.466524714652351, 51.1251659740919 ] ] ] ] } },
{ "type": "Feature", "properties": { "Id": "9571222990300611" }, "geometry": { "type": "MultiPolygon", "coordinates": [ [ [ [ 71.457569319753432, 51.128946786236867 ], [ 71.457560156937532, 51.128883250943851 ], [ 71.457550634795524, 51.12874327003864 ], [ 71.457557461991669, 51.128609208185985 ], [ 71.457580369031419, 51.128473116403462 ], [ 71.457614684675278, 51.128357206930303 ], [ 71.457667505613983, 51.128236054159323 ], [ 71.457706492497323, 51.128146753821298 ], [ 71.45772562661287, 51.128119298442755 ], [ 71.457548478838845, 51.128083217427658 ], [ 71.457447957358539, 51.12826131078927 ], [ 71.457439333531809, 51.12828797681437 ], [ 71.457362886901137, 51.128522840125257 ], [ 71.457353813916768, 51.128731092863717 ], [ 71.457365042857816, 51.128926660159728 ], [ 71.457379326070836, 51.12901381672188 ], [ 71.457579560547671, 51.129003387258365 ], [ 71.457575697791953, 51.128991322903026 ], [ 71.457569319753432, 51.128946786236867 ] ] ] ] } },
{ "type": "Feature", "properties": { "Id": "70030076129621932" }, "geometry": { "type": "MultiPolygon", "coordinates": [ [ [ [ 71.461382937629111, 51.134076563980344 ], [ 71.461344040577302, 51.134065571967106 ], [ 71.461278912719195, 51.134047195569885 ], [ 71.461041398158088, 51.134383437386134 ], [ 71.461143356942827, 51.134412185525029 ], [ 71.461382937629111, 51.134076563980344 ] ] ] ] } },
{ "type": "Feature", "properties": { "Id": "70030076129780955" }, "geometry": { "type": "MultiPolygon", "coordinates": [ [ [ [ 71.464702661761564, 51.126025199875244 ], [ 71.464675173313879, 51.12598331016995 ], [ 71.463961910978284, 51.126170093986858 ], [ 71.463989848583608, 51.12621153249161 ], [ 71.464702661761564, 51.126025199875244 ] ] ] ] } },
{ "type": "Feature", "properties": { "Id": "70030076129784208" }, "geometry": { "type": "MultiPolygon", "coordinates": [ [ [ [ 71.460335861333945, 51.120401547736449 ], [ 71.460330201947642, 51.120362190302664 ], [ 71.459760490394459, 51.120395909137677 ], [ 71.459766239612279, 51.120435830402151 ], [ 71.460335861333945, 51.120401547736449 ] ] ] ] } },
{ "type": "Feature", "properties": { "Id": "70030076129972725" }, "geometry": { "type": "MultiPolygon", "coordinates": [ [ [ [ 71.440138859138017, 51.121913569546095 ], [ 71.440145237176537, 51.121906747064806 ], [ 71.440154130497845, 51.121902574637737 ], [ 71.440164461123615, 51.121901334186376 ], [ 71.440171288319775, 51.12190167249129 ], [ 71.440180271472627, 51.121902518253577 ], [ 71.440181169787905, 51.121902574637737 ], [ 71.440181259619436, 51.121902800174347 ], [ 71.440231385612265, 51.121917008978443 ], [ 71.440278906490803, 51.121930597552883 ], [ 71.44035535312149, 51.121952530969573 ], [ 71.440405928271986, 51.121969728114188 ], [ 71.440731208236357, 51.122758760054545 ], [ 71.440766152700903, 51.122843560169919 ], [ 71.44077576467447, 51.122756279197766 ], [ 71.440789239403728, 51.122692227940171 ], [ 71.440830651738324, 51.122587975307198 ], [ 71.440905032243833, 51.122455474325456 ], [ 71.441036096443796, 51.122303576987719 ], [ 71.441127634771249, 51.122227797282825 ], [ 71.441101493796481, 51.122197462812537 ], [ 71.440907817021213, 51.121724118451333 ], [ 71.440861553784089, 51.121612702801819 ], [ 71.440232463590604, 51.121713123497862 ], [ 71.440204346322233, 51.12171763424832 ], [ 71.440162933987637, 51.121722877995168 ], [ 71.440120982663871, 51.121725302523082 ], [ 71.44008298392734, 51.121725471676186 ], [ 71.440056034468824, 51.121723385454501 ], [ 71.440055944637308, 51.121723385454501 ], [ 71.440064748127071, 51.121758569288559 ], [ 71.440133289583244, 51.121924789988356 ], [ 71.440138859138017, 51.121913569546095 ] ] ], [ [ [ 71.441808557756616, 51.12167072242206 ], [ 71.442010588864008, 51.121778416567729 ], [ 71.442103923822032, 51.121825892127099 ], [ 71.44215934987507, 51.12181326205431 ], [ 71.442175878876284, 51.121814784429333 ], [ 71.442189802763181, 51.121819633475383 ], [ 71.442252145843909, 51.121856395993994 ], [ 71.442468819490429, 51.122028818582002 ], [ 71.442532959201728, 51.122095238884036 ], [ 71.442544457637354, 51.122102174105322 ], [ 71.442553171295614, 51.122105331604089 ], [ 71.442561615459283, 51.122105613523601 ], [ 71.44313186600165, 51.122022559957784 ], [ 71.442946453727004, 51.121517469273016 ], [ 71.442946633390065, 51.121502414576426 ], [ 71.44294762153686, 51.121499200651797 ], [ 71.442956694521243, 51.121484540641895 ], [ 71.442960826771539, 51.121480988408031 ], [ 71.442977625267375, 51.121472079629811 ], [ 71.44298328465365, 51.121470218935407 ], [ 71.442852939105919, 51.121487641798225 ], [ 71.442743524304319, 51.121504331654172 ], [ 71.442683157517237, 51.121513522349304 ], [ 71.442633211187427, 51.121383611985898 ], [ 71.442618748311361, 51.121372560566599 ], [ 71.44259512261938, 51.121368557245681 ], [ 71.442533049033258, 51.121374195725735 ], [ 71.441731122979121, 51.121496268650198 ], [ 71.441746214675888, 51.121546563728927 ], [ 71.441775589585689, 51.121611631496194 ], [ 71.44168279361682, 51.121603681279979 ], [ 71.441808557756616, 51.12167072242206 ] ] ] ] } },
{ "type": "Feature", "properties": { "Id": "70030076129972806" }, "geometry": { "type": "MultiPolygon", "coordinates": [ [ [ [ 71.439237848908036, 51.127697036047714 ], [ 71.438821839099973, 51.126643505547833 ], [ 71.438530515453323, 51.12668900286635 ], [ 71.438942662505681, 51.127741461164995 ], [ 71.439237848908036, 51.127697036047714 ] ] ], [ [ [ 71.440146315154863, 51.12906878277451 ], [ 71.439959645238829, 51.128882574436254 ], [ 71.439692126947222, 51.128591337001296 ], [ 71.439421284889065, 51.12827112028021 ], [ 71.439314115875675, 51.128119298442755 ], [ 71.43910193380556, 51.128165978214206 ], [ 71.439190058534933, 51.128342041710191 ], [ 71.43946718880008, 51.128669812309717 ], [ 71.43973955799423, 51.128966348549959 ], [ 71.439892900413227, 51.129119182359133 ], [ 71.440146315154863, 51.12906878277451 ] ] ], [ [ [ 71.442472322920054, 51.129768509001174 ], [ 71.442768407637701, 51.12995274066607 ], [ 71.442867401981999, 51.129904427843407 ], [ 71.442600961668745, 51.129702832602675 ], [ 71.442720886759162, 51.129641553338026 ], [ 71.442028645001216, 51.129153063928172 ], [ 71.441789603304116, 51.12928740607785 ], [ 71.442472322920054, 51.129768509001174 ] ] ], [ [ [ 71.440421109800283, 51.129635070246401 ], [ 71.440390387417565, 51.129651644409293 ], [ 71.440243962026258, 51.129735924499258 ], [ 71.440504383627129, 51.129915195349696 ], [ 71.440667517682726, 51.129823643279053 ], [ 71.440421109800283, 51.129635070246401 ] ] ], [ [ [ 71.440668236334943, 51.130012102793238 ], [ 71.44096324307425, 51.130215106034093 ], [ 71.441868565217575, 51.130813455854906 ], [ 71.442037268827946, 51.130694846331252 ], [ 71.441051457635155, 51.130031946526195 ], [ 71.440869908116227, 51.129890728865817 ], [ 71.440668236334943, 51.130012102793238 ] ] ], [ [ [ 71.438721587114259, 51.126491283710223 ], [ 71.4385765990274, 51.126126794938081 ], [ 71.438379598485596, 51.126155322701344 ], [ 71.438513986452094, 51.126521333468261 ], [ 71.438721587114259, 51.126491283710223 ] ] ], [ [ [ 71.438314111301381, 51.124328608232346 ], [ 71.43833701834113, 51.12418635826829 ], [ 71.438514884767386, 51.123696627138571 ], [ 71.438261200531144, 51.123644642939944 ], [ 71.438169482540644, 51.123832563849994 ], [ 71.438135795717471, 51.123932979720465 ], [ 71.43802260799167, 51.124298049616698 ], [ 71.438314111301381, 51.124328608232346 ] ] ], [ [ [ 71.438747278931373, 51.123255267028043 ], [ 71.438788421771406, 51.123158852850445 ], [ 71.43892873861877, 51.122880885703267 ], [ 71.438607770567771, 51.122817060150588 ], [ 71.438403852998277, 51.123192682409368 ], [ 71.438747278931373, 51.123255267028043 ] ] ], [ [ [ 71.439063216416812, 51.122750133438345 ], [ 71.439268571290768, 51.122397117389518 ], [ 71.438938081097731, 51.122307580227606 ], [ 71.438697512264639, 51.12265930014641 ], [ 71.439063216416812, 51.122750133438345 ] ] ], [ [ [ 71.440027557874316, 51.124161719605354 ], [ 71.440279445479973, 51.123502785544979 ], [ 71.440142182904566, 51.123477864606294 ], [ 71.440298489764004, 51.12317244105958 ], [ 71.44019653097925, 51.123151805022566 ], [ 71.440064209137901, 51.123410375028321 ], [ 71.439911046381965, 51.12374404434464 ], [ 71.439767675262615, 51.124122421756482 ], [ 71.440027557874316, 51.124161719605354 ] ] ], [ [ [ 71.438245390182161, 51.125746629802379 ], [ 71.43819014379217, 51.124982738179298 ], [ 71.438094652877481, 51.124983809406743 ], [ 71.438145228027977, 51.125750350846587 ], [ 71.438245390182161, 51.125746629802379 ] ] ] ] } },
{ "type": "Feature", "properties": { "Id": "70030076129973698" }, "geometry": { "type": "MultiPolygon", "coordinates": [ [ [ [ 71.463947358270687, 51.120186660250667 ], [ 71.463940531074513, 51.120142002321828 ], [ 71.463414477644122, 51.12017380418466 ], [ 71.46342130484031, 51.120218518468981 ], [ 71.463947358270687, 51.120186660250667 ] ] ] ] } },
{ "type": "Feature", "properties": { "Id": "70030076129973699" }, "geometry": { "type": "MultiPolygon", "coordinates": [ [ [ [ 71.462261849303076, 51.120289283105372 ], [ 71.462255201769977, 51.120244512503376 ], [ 71.461643718556076, 51.120280543255745 ], [ 71.461650366089188, 51.120325313822811 ], [ 71.462261849303076, 51.120289283105372 ] ] ] ] } },
{ "type": "Feature", "properties": { "Id": "70030076131990175" }, "geometry": { "type": "MultiPolygon", "coordinates": [ [ [ [ 71.468360511766974, 51.124205753453658 ], [ 71.467886740286133, 51.123047609809539 ], [ 71.467651561344738, 51.12308572453594 ], [ 71.468125332825593, 51.124243867224472 ], [ 71.468360511766974, 51.124205753453658 ] ] ] ] } },
{ "type": "Feature", "properties": { "Id": "70030076138975669" }, "geometry": { "type": "MultiPolygon", "coordinates": [ [ [ [ 71.470425289447519, 51.130359028646524 ], [ 71.46953029792995, 51.130106698693801 ], [ 71.469334195703425, 51.130382085537263 ], [ 71.470229187220994, 51.130634413985319 ], [ 71.470425289447519, 51.130359028646524 ] ] ] ] } },
{ "type": "Feature", "properties": { "Id": "70030076138976486" }, "geometry": { "type": "MultiPolygon", "coordinates": [ [ [ [ 71.468349642152035, 51.130786396674793 ], [ 71.468446839865777, 51.130651495150822 ], [ 71.46774750141708, 51.130454300321077 ], [ 71.467650303703337, 51.130589202421071 ], [ 71.468349642152035, 51.130786396674793 ] ] ] ] } },
{ "type": "Feature", "properties": { "Id": "70030076139076109" }, "geometry": { "type": "MultiPolygon", "coordinates": [ [ [ [ 71.458548303750064, 51.129287236952429 ], [ 71.459977253872509, 51.129066415007451 ], [ 71.459896585159996, 51.128857825527028 ], [ 71.458463862113348, 51.129078197466214 ], [ 71.458548303750064, 51.129287236952429 ] ] ] ] } },
{ "type": "Feature", "properties": { "Id": "70030076139092307" }, "geometry": { "type": "MultiPolygon", "coordinates": [ [ [ [ 71.459453985219511, 51.131829234731839 ], [ 71.459507075652809, 51.13195765004987 ], [ 71.459649368793805, 51.131935101292918 ], [ 71.459124662836345, 51.130678385289642 ], [ 71.458982369695349, 51.130700934660219 ], [ 71.459453985219511, 51.131829234731839 ] ] ] ] } },
{ "type": "Feature", "properties": { "Id": "70030076139093671" }, "geometry": { "type": "MultiPolygon", "coordinates": [ [ [ [ 71.462169232997283, 51.135229978026899 ], [ 71.462294817474003, 51.135123668075437 ], [ 71.461753672346859, 51.134870575000285 ], [ 71.461628087870139, 51.134976885534456 ], [ 71.462169232997283, 51.135229978026899 ] ] ] ] } },
{ "type": "Feature", "properties": { "Id": "70030076139094163" }, "geometry": { "type": "MultiPolygon", "coordinates": [ [ [ [ 71.465377206708411, 51.136159531443731 ], [ 71.465483297743461, 51.136012864929548 ], [ 71.464761052255042, 51.135806166941236 ], [ 71.464654961219964, 51.135952890479004 ], [ 71.465377206708411, 51.136159531443731 ] ] ] ] } },
{ "type": "Feature", "properties": { "Id": "70030076139110713" }, "geometry": { "type": "MultiPolygon", "coordinates": [ [ [ [ 71.465733769026357, 51.136873384924122 ], [ 71.465745426143371, 51.136857628354285 ], [ 71.465485274037093, 51.136784127166223 ], [ 71.465482900212237, 51.136787372759279 ], [ 71.465733769026357, 51.136873384924122 ] ] ] ] } },
{ "type": "Feature", "properties": { "Id": "70030076139188053" }, "geometry": { "type": "MultiPolygon", "coordinates": [ [ [ [ 71.466939646482075, 51.120735013243831 ], [ 71.466704557372225, 51.120773073492799 ], [ 71.467179047505297, 51.121930710321109 ], [ 71.467414136615162, 51.121892538257541 ], [ 71.466939646482075, 51.120735013243831 ] ] ] ] } },
{ "type": "Feature", "properties": { "Id": "70030076139497426" }, "geometry": { "type": "MultiPolygon", "coordinates": [ [ [ [ 71.46177738787037, 51.134234284989915 ], [ 71.46174630616153, 51.134183270926769 ], [ 71.461439172165896, 51.134604064801557 ], [ 71.461470253874722, 51.13465513476843 ], [ 71.46177738787037, 51.134234284989915 ] ] ] ] } },
{ "type": "Feature", "properties": { "Id": "70030076151014256" }, "geometry": { "type": "MultiPolygon", "coordinates": [ [ [ [ 71.46620356693829, 51.120055505655067 ], [ 71.466197997383517, 51.120010847599438 ], [ 71.465657660740106, 51.120043157030366 ], [ 71.465664398104735, 51.120087927827484 ], [ 71.46620356693829, 51.120055505655067 ] ] ] ] } },
{ "type": "Feature", "properties": { "Id": "70030076153342285" }, "geometry": { "type": "MultiPolygon", "coordinates": [ [ [ [ 71.440038786815379, 51.125738623918323 ], [ 71.439486861904797, 51.125738623918323 ], [ 71.439581005346568, 51.126282457084244 ], [ 71.440068700714335, 51.126220496734696 ], [ 71.440038786815379, 51.125738623918323 ] ] ], [ [ [ 71.440060166719121, 51.125574333850608 ], [ 71.440179912146505, 51.12499824278467 ], [ 71.439491173818155, 51.124963286939739 ], [ 71.439486861904797, 51.125574333850608 ], [ 71.440060166719121, 51.125574333850608 ] ] ] ] } },
{ "type": "Feature", "properties": { "Id": "70030076163869281" }, "geometry": { "type": "MultiPolygon", "coordinates": [ [ [ [ 71.467982051537774, 51.126113658630118 ], [ 71.46801888246442, 51.126195859156766 ], [ 71.468866981924151, 51.126045158079478 ], [ 71.468830150997505, 51.125963013663821 ], [ 71.467982051537774, 51.126113658630118 ] ] ] ] } },
{ "type": "Feature", "properties": { "Id": "70030076163870667" }, "geometry": { "type": "MultiPolygon", "coordinates": [ [ [ [ 71.469487987280061, 51.126756431275808 ], [ 71.469708344019253, 51.12731474148957 ], [ 71.469797456895449, 51.127299745059872 ], [ 71.469571171275376, 51.126743407903398 ], [ 71.469487987280061, 51.126756431275808 ] ] ] ] } },
{ "type": "Feature", "properties": { "Id": "70030076163874197" }, "geometry": { "type": "MultiPolygon", "coordinates": [ [ [ [ 71.465418259716884, 51.128204257846633 ], [ 71.468537659541013, 51.127716993529546 ], [ 71.468434353283314, 51.127455346875593 ], [ 71.465315043290744, 51.127942613953067 ], [ 71.465418259716884, 51.128204257846633 ] ] ] ] } },
{ "type": "Feature", "properties": { "Id": "70030076166891853" }, "geometry": { "type": "MultiPolygon", "coordinates": [ [ [ [ 71.462203997798781, 51.120141833162926 ], [ 71.46260177180659, 51.120115895457076 ], [ 71.462578235946154, 51.119972843109011 ], [ 71.462180461938345, 51.119998837281663 ], [ 71.461827424031682, 51.12001930556783 ], [ 71.461852846354219, 51.120166925060161 ], [ 71.462203997798781, 51.120141833162926 ] ] ] ] } },
{ "type": "Feature", "properties": { "Id": "70030076172651470" }, "geometry": { "type": "MultiPolygon", "coordinates": [ [ [ [ 71.464423734865846, 51.129590872449647 ], [ 71.464993715913607, 51.12976033469058 ], [ 71.465358881076625, 51.129654801392022 ], [ 71.465386549187357, 51.129652602779075 ], [ 71.465419697021346, 51.129667880318166 ], [ 71.46542481741848, 51.129685130965122 ], [ 71.465329595998355, 51.129830520965534 ], [ 71.465428320848076, 51.129858990066751 ], [ 71.465886731137559, 51.12921547134551 ], [ 71.465368043892511, 51.129126229276544 ], [ 71.465446736311407, 51.129336170546622 ], [ 71.465197184325476, 51.129375351209667 ], [ 71.46528998029433, 51.129593747562701 ], [ 71.464930833843724, 51.129654406769191 ], [ 71.464807764649805, 51.129324106278212 ], [ 71.464474669342465, 51.129376478710277 ], [ 71.46439256332549, 51.129168398007813 ], [ 71.464643372952821, 51.12912730040788 ], [ 71.464559470305289, 51.128918880329223 ], [ 71.465028121388997, 51.128842998725403 ], [ 71.464972964830565, 51.128711417699307 ], [ 71.46424470062972, 51.128825465885384 ], [ 71.464284585828338, 51.128931959463792 ], [ 71.464176159173533, 51.128948364752354 ], [ 71.464360583301371, 51.129420563962263 ], [ 71.464423734865846, 51.129590872449647 ] ] ] ] } },
{ "type": "Feature", "properties": { "Id": "70030076172651835" }, "geometry": { "type": "MultiPolygon", "coordinates": [ [ [ [ 71.460732647194931, 51.131771566103637 ], [ 71.460454888109069, 51.131068769713181 ], [ 71.460205336123153, 51.131107836160488 ], [ 71.460483095209, 51.131810631956412 ], [ 71.460732647194931, 51.131771566103637 ] ] ] ] } },
{ "type": "Feature", "properties": { "Id": "70030076172651866" }, "geometry": { "type": "MultiPolygon", "coordinates": [ [ [ [ 71.460242526375922, 51.13034685189762 ], [ 71.460062593824503, 51.129891461733031 ], [ 71.459933416086642, 51.129911643764117 ], [ 71.460111641839021, 51.130367315598797 ], [ 71.460242526375922, 51.13034685189762 ] ] ] ] } },
{ "type": "Feature", "properties": { "Id": "70030076172771158" }, "geometry": { "type": "MultiPolygon", "coordinates": [ [ [ [ 71.461898211276079, 51.134482139254921 ], [ 71.462179653454584, 51.134088232422307 ], [ 71.462114705259538, 51.134069856034117 ], [ 71.461833263081033, 51.13446376302349 ], [ 71.461898211276079, 51.134482139254921 ] ] ] ] } },
{ "type": "Feature", "properties": { "Id": "70030076172820394" }, "geometry": { "type": "MultiPolygon", "coordinates": [ [ [ [ 71.467117063750678, 51.135446261090948 ], [ 71.467268340044541, 51.135242717166896 ], [ 71.466815319646756, 51.135109406965775 ], [ 71.466663953521376, 51.135312951477474 ], [ 71.467117063750678, 51.135446261090948 ] ] ] ] } },
{ "type": "Feature", "properties": { "Id": "70030076172820475" }, "geometry": { "type": "MultiPolygon", "coordinates": [ [ [ [ 71.466819901054706, 51.135055800937067 ], [ 71.467003786193359, 51.13480840069851 ], [ 71.466916110621639, 51.134782583964736 ], [ 71.466734291608134, 51.135030548022904 ], [ 71.466819901054706, 51.135055800937067 ] ] ] ] } },
{ "type": "Feature", "properties": { "Id": "70030076201721993" }, "geometry": { "type": "MultiPolygon", "coordinates": [ [ [ [ 71.464950596779985, 51.130025858109036 ], [ 71.46488510959577, 51.130007480104197 ], [ 71.46459387578065, 51.130414274966945 ], [ 71.464659362964866, 51.130432709183644 ], [ 71.464950596779985, 51.130025858109036 ] ] ] ] } },
{ "type": "Feature", "properties": { "Id": "70030076201799787" }, "geometry": { "type": "MultiPolygon", "coordinates": [ [ [ [ 71.460966388831849, 51.120365009604186 ], [ 71.460959471804173, 51.120319900759092 ], [ 71.460575621683262, 51.120343075433766 ], [ 71.460582448879435, 51.120387789554236 ], [ 71.460966388831849, 51.120365009604186 ] ] ] ] } },
{ "type": "Feature", "properties": { "Id": "70030076266895500" }, "geometry": { "type": "MultiPolygon", "coordinates": [ [ [ [ 71.461061969578097, 51.127541716932576 ], [ 71.460958034499697, 51.12738419857417 ], [ 71.46083748058858, 51.127415713564318 ], [ 71.460941415666966, 51.127573175438009 ], [ 71.461061969578097, 51.127541716932576 ] ] ] ] } },
{ "type": "Feature", "properties": { "Id": "70030076288666038" }, "geometry": { "type": "MultiPolygon", "coordinates": [ [ [ [ 71.467856287397979, 51.134136540868063 ], [ 71.46788009275302, 51.134097476982944 ], [ 71.467251990706373, 51.133943983215303 ], [ 71.467228275182862, 51.133983047230274 ], [ 71.467856287397979, 51.134136540868063 ] ] ] ] } },
{ "type": "Feature", "properties": { "Id": "70030076307863864" }, "geometry": { "type": "MultiPolygon", "coordinates": [ [ [ [ 71.461372607003341, 51.118965261619195 ], [ 71.461338201527951, 51.118878029707304 ], [ 71.461022713200165, 51.118927369044222 ], [ 71.461057208507071, 51.119014544475277 ], [ 71.461372607003341, 51.118965261619195 ] ] ] ] } },
{ "type": "Feature", "properties": { "Id": "70030076321629402" }, "geometry": { "type": "MultiPolygon", "coordinates": [ [ [ [ 71.464348635708106, 51.135934063896698 ], [ 71.464488144071723, 51.135737004358937 ], [ 71.463966043228595, 51.13559078744214 ], [ 71.463826534864964, 51.135787791236737 ], [ 71.464348635708106, 51.135934063896698 ] ] ] ] } },
{ "type": "Feature", "properties": { "Id": "70030076324089675" }, "geometry": { "type": "MultiPolygon", "coordinates": [ [ [ [ 71.460038191122635, 51.13354158787984 ], [ 71.460600864342737, 51.134234284989915 ], [ 71.460769747616141, 51.134179945146087 ], [ 71.460186112176075, 51.133461458169485 ], [ 71.459990369275673, 51.133145446627864 ], [ 71.459819869034732, 51.132717987689084 ], [ 71.45967685724149, 51.132359128824135 ], [ 71.459541391296654, 51.132380493575454 ], [ 71.459851079356554, 51.133154606727274 ], [ 71.460038191122635, 51.13354158787984 ] ] ] ] } },
{ "type": "Feature", "properties": { "Id": "70030076334299271" }, "geometry": { "type": "MultiPolygon", "coordinates": [ [ [ [ 71.466005847744228, 51.118133704174369 ], [ 71.466142391667418, 51.118482749231816 ], [ 71.466184073496606, 51.118476320962195 ], [ 71.46604752957343, 51.118127275856175 ], [ 71.466005847744228, 51.118133704174369 ] ] ] ] } },
{ "type": "Feature", "properties": { "Id": "70030076334299272" }, "geometry": { "type": "MultiPolygon", "coordinates": [ [ [ [ 71.454581343455388, 51.119725418451537 ], [ 71.454530588641845, 51.11954847630453 ], [ 71.454488367823487, 51.119553325588463 ], [ 71.454539122637044, 51.119730211330108 ], [ 71.454581343455388, 51.119725418451537 ] ] ] ] } },
{ "type": "Feature", "properties": { "Id": "70030076334299285" }, "geometry": { "type": "MultiPolygon", "coordinates": [ [ [ [ 71.463167261277945, 51.135459845685332 ], [ 71.463416453937768, 51.135136181772779 ], [ 71.463377826380537, 51.135124457227619 ], [ 71.463128633720729, 51.135448064854742 ], [ 71.463167261277945, 51.135459845685332 ] ] ] ] } },
{ "type": "Feature", "properties": { "Id": "70030076334300227" }, "geometry": { "type": "MultiPolygon", "coordinates": [ [ [ [ 71.466359334808544, 51.119913750011364 ], [ 71.465790701233686, 51.119947525560214 ], [ 71.465794653820936, 51.119974309158195 ], [ 71.466363287395794, 51.119940533628913 ], [ 71.466359334808544, 51.119913750011364 ] ] ] ] } },
{ "type": "Feature", "properties": { "Id": "70030076334300356" }, "geometry": { "type": "MultiPolygon", "coordinates": [ [ [ [ 71.46712083667488, 51.135583685143722 ], [ 71.466975489261912, 51.135779167053869 ], [ 71.467014296482205, 51.135790553229597 ], [ 71.467159643895158, 51.135595127735087 ], [ 71.46712083667488, 51.135583685143722 ] ] ] ] } },
{ "type": "Feature", "properties": { "Id": "70030076353893704" }, "geometry": { "type": "MultiPolygon", "coordinates": [ [ [ [ 71.464059917175774, 51.135237080379703 ], [ 71.463942776862723, 51.135203710585515 ], [ 71.463647949786477, 51.135612996209524 ], [ 71.463765090099528, 51.135646365707927 ], [ 71.464059917175774, 51.135237080379703 ] ] ] ] } },
{ "type": "Feature", "properties": { "Id": "70030076354863971" }, "geometry": { "type": "MultiPolygon", "coordinates": [ [ [ [ 71.466534775783529, 51.1198997661375 ], [ 71.466333732822946, 51.119375480586569 ], [ 71.466292050993758, 51.119381795956635 ], [ 71.466493093954341, 51.1199060814359 ], [ 71.466534775783529, 51.1198997661375 ] ] ] ] } },
{ "type": "Feature", "properties": { "Id": "70030076371478524" }, "geometry": { "type": "MultiPolygon", "coordinates": [ [ [ [ 71.464820341063785, 51.132002409299794 ], [ 71.464857261821962, 51.131953816761971 ], [ 71.464406397380856, 51.131817960323389 ], [ 71.464369386791148, 51.131866553004173 ], [ 71.464820341063785, 51.132002409299794 ] ] ] ] } },
{ "type": "Feature", "properties": { "Id": "70030076371494712" }, "geometry": { "type": "MultiPolygon", "coordinates": [ [ [ [ 71.46823896970902, 51.134108187142317 ], [ 71.468265649672972, 51.134071321635901 ], [ 71.467799424040521, 51.133957286404488 ], [ 71.467776067843118, 51.133994997542828 ], [ 71.46823896970902, 51.134108187142317 ] ] ] ] } },
{ "type": "Feature", "properties": { "Id": "70030076459658564" }, "geometry": { "type": "MultiPolygon", "coordinates": [ [ [ [ 71.465759080535676, 51.135588194539672 ], [ 71.46601366308721, 51.135245817399557 ], [ 71.465934072353036, 51.135222311994049 ], [ 71.465681466095148, 51.135565309350689 ], [ 71.465759080535676, 51.135588194539672 ] ] ] ] } },
{ "type": "Feature", "properties": { "Id": "70030076475603333" }, "geometry": { "type": "MultiPolygon", "coordinates": [ [ [ [ 71.460393623006695, 51.118453540069638 ], [ 71.460376375353249, 51.118409895456978 ], [ 71.45706680218349, 51.11892883512656 ], [ 71.457084049836936, 51.118972422861269 ], [ 71.460393623006695, 51.118453540069638 ] ] ] ] } },
{ "type": "Feature", "properties": { "Id": "70030076527613493" }, "geometry": { "type": "MultiPolygon", "coordinates": [ [ [ [ 71.463885644010659, 51.126762238232885 ], [ 71.463964875418711, 51.12674149104307 ], [ 71.46372861849899, 51.126384671746727 ], [ 71.46364947692247, 51.126405419096834 ], [ 71.463885644010659, 51.126762238232885 ] ] ] ] } },
{ "type": "Feature", "properties": { "Id": "70030076535420553" }, "geometry": { "type": "MultiPolygon", "coordinates": [ [ [ [ 71.468684713753007, 51.127438377282751 ], [ 71.468542869769649, 51.127080774080518 ], [ 71.468487443716612, 51.127089456265793 ], [ 71.468629287699983, 51.127447059400787 ], [ 71.468684713753007, 51.127438377282751 ] ] ] ] } },
{ "type": "Feature", "properties": { "Id": "70030076535423388" }, "geometry": { "type": "MultiPolygon", "coordinates": [ [ [ [ 71.46878487590719, 51.125870608068986 ], [ 71.467932644197148, 51.126021986265279 ], [ 71.467948185051569, 51.126056659413585 ], [ 71.468800506593141, 51.125905281330944 ], [ 71.46878487590719, 51.125870608068986 ] ] ] ] } },
{ "type": "Feature", "properties": { "Id": "70030076537963239" }, "geometry": { "type": "MultiPolygon", "coordinates": [ [ [ [ 71.466254321751833, 51.13242474507377 ], [ 71.466284954303006, 51.132383988599777 ], [ 71.465834179693445, 51.132248246169794 ], [ 71.465803636973789, 51.132288946392102 ], [ 71.466254321751833, 51.13242474507377 ] ] ] ] } },
{ "type": "Feature", "properties": { "Id": "70030076658577110" }, "geometry": { "type": "MultiPolygon", "coordinates": [ [ [ [ 71.456348509282307, 51.119214212808465 ], [ 71.456324434432716, 51.119153201565211 ], [ 71.454702795681797, 51.119406888266674 ], [ 71.454726870531431, 51.119467955562037 ], [ 71.456348509282307, 51.119214212808465 ] ] ] ] } },
{ "type": "Feature", "properties": { "Id": "70030076658589415" }, "geometry": { "type": "MultiPolygon", "coordinates": [ [ [ [ 71.455930163854489, 51.119933259763791 ], [ 71.456159413915003, 51.119834865119117 ], [ 71.45652080615379, 51.119709742915852 ], [ 71.456499875407687, 51.119685834894334 ], [ 71.455992686598279, 51.119757502535002 ], [ 71.455734151459495, 51.119976057139844 ], [ 71.455800716622065, 51.120004250383026 ], [ 71.455930163854489, 51.119933259763791 ] ] ] ] } },
{ "type": "Feature", "properties": { "Id": "70030076658598892" }, "geometry": { "type": "MultiPolygon", "coordinates": [ [ [ [ 71.465097561160462, 51.118974058105366 ], [ 71.46537541007784, 51.118932218393347 ], [ 71.465345406347353, 51.118853557376646 ], [ 71.46506764726152, 51.118895453547715 ], [ 71.465097561160462, 51.118974058105366 ] ] ] ] } },
{ "type": "Feature", "properties": { "Id": "70030076658600557" }, "geometry": { "type": "MultiPolygon", "coordinates": [ [ [ [ 71.464339113566069, 51.119105272158656 ], [ 71.464825281797843, 51.11903196826421 ], [ 71.464788720365775, 51.118935827210962 ], [ 71.464302552134029, 51.119009074870284 ], [ 71.464339113566069, 51.119105272158656 ] ] ] ] } },
{ "type": "Feature", "properties": { "Id": "70030076658600677" }, "geometry": { "type": "MultiPolygon", "coordinates": [ [ [ [ 71.463977900990344, 51.119095855434118 ], [ 71.463954544792955, 51.119034674871628 ], [ 71.46376014936547, 51.119064052829259 ], [ 71.463783505562859, 51.119125176965305 ], [ 71.463977900990344, 51.119095855434118 ] ] ] ] } },
{ "type": "Feature", "properties": { "Id": "70030076658600828" }, "geometry": { "type": "MultiPolygon", "coordinates": [ [ [ [ 71.464631425359528, 51.118773599302692 ], [ 71.464608069162153, 51.118712418313436 ], [ 71.463885913505251, 51.11882130350169 ], [ 71.463909179871109, 51.118882540734575 ], [ 71.464631425359528, 51.118773599302692 ] ] ] ] } },
{ "type": "Feature", "properties": { "Id": "70030076658608725" }, "geometry": { "type": "MultiPolygon", "coordinates": [ [ [ [ 71.462935136608536, 51.119709912076331 ], [ 71.463046348040706, 51.119345369792434 ], [ 71.462711545934312, 51.119357323892828 ], [ 71.462757090519204, 51.119705908611344 ], [ 71.462935136608536, 51.119709912076331 ] ] ] ] } },
{ "type": "Feature", "properties": { "Id": "70030076787076170" }, "geometry": { "type": "MultiPolygon", "coordinates": [ [ [ [ 71.463842255382431, 51.131112289620638 ], [ 71.464124865370835, 51.13073898669812 ], [ 71.463944214167185, 51.130684868234795 ], [ 71.463661694010312, 51.13105822796777 ], [ 71.463842255382431, 51.131112289620638 ] ] ] ] } },
{ "type": "Feature", "properties": { "Id": "70030076787102867" }, "geometry": { "type": "MultiPolygon", "coordinates": [ [ [ [ 71.461892372226728, 51.13343254032845 ], [ 71.461822034139985, 51.13354201089048 ], [ 71.462062962299186, 51.13359798621147 ], [ 71.462125754537539, 51.133488177562079 ], [ 71.461892372226728, 51.13343254032845 ] ] ] ] } },
{ "type": "Feature", "properties": { "Id": "70030076823479187" }, "geometry": { "type": "MultiPolygon", "coordinates": [ [ [ [ 71.440965219367882, 51.121923380385205 ], [ 71.440893443976677, 51.121934262520391 ], [ 71.440923627370225, 51.122012974675833 ], [ 71.44099540276143, 51.122002092559157 ], [ 71.440965219367882, 51.121923380385205 ] ] ] ] } },
{ "type": "Feature", "properties": { "Id": "70030076894605436" }, "geometry": { "type": "MultiPolygon", "coordinates": [ [ [ [ 71.46093261217716, 51.119153257952732 ], [ 71.460918778121794, 51.119118297684658 ], [ 71.460392185702233, 51.119200905372267 ], [ 71.460406019757613, 51.119235865577828 ], [ 71.46093261217716, 51.119153257952732 ] ] ] ] } },
{ "type": "Feature", "properties": { "Id": "70030076894606682" }, "geometry": { "type": "MultiPolygon", "coordinates": [ [ [ [ 71.456991613194205, 51.119135890597057 ], [ 71.457087732929608, 51.119380160726969 ], [ 71.457143248814162, 51.119371477092599 ], [ 71.457047129078788, 51.119127263304314 ], [ 71.456991613194205, 51.119135890597057 ] ] ] ] } },
{ "type": "Feature", "properties": { "Id": "70030076894607140" }, "geometry": { "type": "MultiPolygon", "coordinates": [ [ [ [ 71.457110729800888, 51.119475680597326 ], [ 71.457172444060902, 51.119632718443754 ], [ 71.457227959945456, 51.119624034856848 ], [ 71.457166245685428, 51.119467053368027 ], [ 71.457110729800888, 51.119475680597326 ] ] ] ] } },
{ "type": "Feature", "properties": { "Id": "70030076894611404" }, "geometry": { "type": "MultiPolygon", "coordinates": [ [ [ [ 71.463022003696508, 51.118065022623171 ], [ 71.463008259472659, 51.118030061531641 ], [ 71.460804242923061, 51.11837408879952 ], [ 71.460817987146925, 51.118408993242319 ], [ 71.463022003696508, 51.118065022623171 ] ] ] ] } },
{ "type": "Feature", "properties": { "Id": "70030076894614308" }, "geometry": { "type": "MultiPolygon", "coordinates": [ [ [ [ 71.463790332759018, 51.118801567727935 ], [ 71.463748920424422, 51.118696911598228 ], [ 71.463111386067268, 51.118796831140962 ], [ 71.463152798401865, 51.118901543432145 ], [ 71.463790332759018, 51.118801567727935 ] ] ] ] } },
{ "type": "Feature", "properties": { "Id": "70030076915043885" }, "geometry": { "type": "MultiPolygon", "coordinates": [ [ [ [ 71.456039129498464, 51.121072818002126 ], [ 71.456059970413051, 51.12100211095116 ], [ 71.456158335936664, 51.121013557155749 ], [ 71.456137405190546, 51.12108432057434 ], [ 71.456165432627401, 51.121087647298125 ], [ 71.456212055190662, 51.121092665575922 ], [ 71.456255623481937, 51.121094018819285 ], [ 71.456407079438847, 51.121098867940987 ], [ 71.456602732507719, 51.121104788379576 ], [ 71.456798475408121, 51.12109616145451 ], [ 71.456904117285532, 51.121091368717664 ], [ 71.456929000618914, 51.12109052294052 ], [ 71.456899715540644, 51.120883363459399 ], [ 71.456799912712569, 51.120887817905484 ], [ 71.456784282026632, 51.120888212603212 ], [ 71.456742061208274, 51.120889001998684 ], [ 71.456699031906169, 51.120889847779509 ], [ 71.456656811087825, 51.120890637174931 ], [ 71.45661378178572, 51.120891482955734 ], [ 71.456571560967362, 51.120892272351149 ], [ 71.456486041352321, 51.120890298862612 ], [ 71.456442742555609, 51.120889283925621 ], [ 71.456399892916565, 51.120888268988608 ], [ 71.456357312772099, 51.120887254051581 ], [ 71.456314642796116, 51.12088420924033 ], [ 71.456272421977744, 51.120881164428909 ], [ 71.456230021496339, 51.120878119617259 ], [ 71.456186992194219, 51.120875018420016 ], [ 71.456144501881298, 51.120871973607969 ], [ 71.456135339065384, 51.120870902285169 ], [ 71.456102101399878, 51.120866786149953 ], [ 71.456079284191659, 51.12086407964987 ], [ 71.456060599233766, 51.120861767847607 ], [ 71.456018198752346, 51.120856636773873 ], [ 71.455976427091628, 51.120851618470432 ], [ 71.455934475767876, 51.120846487395575 ], [ 71.455871144540339, 51.121053139575366 ], [ 71.456039129498464, 51.121072818002126 ] ] ] ] } },
{ "type": "Feature", "properties": { "Id": "70030076918565179" }, "geometry": { "type": "MultiPolygon", "coordinates": [ [ [ [ 71.462182977221133, 51.132639632001464 ], [ 71.46220678257616, 51.132606993154248 ], [ 71.461076612117211, 51.132281505356907 ], [ 71.461052806762183, 51.132314257177079 ], [ 71.462182977221133, 51.132639632001464 ] ] ] ] } },
{ "type": "Feature", "properties": { "Id": "70030076918568126" }, "geometry": { "type": "MultiPolygon", "coordinates": [ [ [ [ 71.462086138833513, 51.132236295405193 ], [ 71.462108956041718, 51.132203318043423 ], [ 71.461545802190116, 51.13204891603116 ], [ 71.461522984981897, 51.132081893503212 ], [ 71.462086138833513, 51.132236295405193 ] ] ] ] } },
{ "type": "Feature", "properties": { "Id": "70030076982659325" }, "geometry": { "type": "MultiPolygon", "coordinates": [ [ [ [ 71.458939699719352, 51.130169217570618 ], [ 71.459785283896309, 51.130036907458127 ], [ 71.45975779544861, 51.129967116116966 ], [ 71.458912121440122, 51.130099426429425 ], [ 71.458939699719352, 51.130169217570618 ] ] ] ] } },
{ "type": "Feature", "properties": { "Id": "70030077033937937" }, "geometry": { "type": "MultiPolygon", "coordinates": [ [ [ [ 71.466368946782069, 51.133519406537197 ], [ 71.466450693472936, 51.133404580761209 ], [ 71.465460031377603, 51.133125096898659 ], [ 71.465378194855219, 51.133239923369629 ], [ 71.466368946782069, 51.133519406537197 ] ] ] ] } },
{ "type": "Feature", "properties": { "Id": "70030077042391356" }, "geometry": { "type": "MultiPolygon", "coordinates": [ [ [ [ 71.467289001296066, 51.130605438000366 ], [ 71.467454201476826, 51.130652058885545 ], [ 71.467477557674215, 51.130619249512961 ], [ 71.467312267661939, 51.13057262859467 ], [ 71.467289001296066, 51.130605438000366 ] ] ] ] } },
{ "type": "Feature", "properties": { "Id": "70030077042401171" }, "geometry": { "type": "MultiPolygon", "coordinates": [ [ [ [ 71.464053359474207, 51.131176216456971 ], [ 71.464118756826878, 51.131194424878288 ], [ 71.464205174757211, 51.13107102463168 ], [ 71.464139777404526, 51.131052928907671 ], [ 71.464053359474207, 51.131176216456971 ] ] ] ] } },
{ "type": "Feature", "properties": { "Id": "70030077042405481" }, "geometry": { "type": "MultiPolygon", "coordinates": [ [ [ [ 71.462321407606424, 51.133445730924848 ], [ 71.462220616631541, 51.1336042432673 ], [ 71.462286912299518, 51.133620985115229 ], [ 71.462387703274388, 51.133462416460205 ], [ 71.462321407606424, 51.133445730924848 ] ] ] ] } },
{ "type": "Feature", "properties": { "Id": "70030077045589367" }, "geometry": { "type": "MultiPolygon", "coordinates": [ [ [ [ 71.461582543285232, 51.133660274882651 ], [ 71.461740287449118, 51.133441615910137 ], [ 71.461633028604211, 51.133404975352001 ], [ 71.461455970661703, 51.133631018947113 ], [ 71.461582543285232, 51.133660274882651 ] ] ] ] } },
{ "type": "Feature", "properties": { "Id": "70030077045595135" }, "geometry": { "type": "MultiPolygon", "coordinates": [ [ [ [ 71.460682341539012, 51.130886064576465 ], [ 71.460475279866017, 51.130362749319161 ], [ 71.460336669817693, 51.130384453236893 ], [ 71.460543731490674, 51.13090776824825 ], [ 71.460682341539012, 51.130886064576465 ] ] ] ] } },
{ "type": "Feature", "properties": { "Id": "70030077087030687" }, "geometry": { "type": "MultiPolygon", "coordinates": [ [ [ [ 71.469465922234306, 51.133646592737612 ], [ 71.469401479518197, 51.133627636756835 ], [ 71.46915938354914, 51.133953284174254 ], [ 71.469233259535272, 51.133975057724491 ], [ 71.469465922234306, 51.133646592737612 ] ] ] ] } },
{ "type": "Feature", "properties": { "Id": "70030077109613030" }, "geometry": { "type": "MultiPolygon", "coordinates": [ [ [ [ 71.457022335576937, 51.119406775492287 ], [ 71.456932863374632, 51.119180323948562 ], [ 71.456877077995486, 51.11918900761885 ], [ 71.456966550197777, 51.11941545912002 ], [ 71.457022335576937, 51.119406775492287 ] ] ] ] } },
{ "type": "Feature", "properties": { "Id": "70030077112427408" }, "geometry": { "type": "MultiPolygon", "coordinates": [ [ [ [ 71.460522980407617, 51.13095483981305 ], [ 71.460418057182437, 51.130693380622304 ], [ 71.460238034799502, 51.13072196193837 ], [ 71.460134009889586, 51.130460445055455 ], [ 71.460023157783525, 51.130477977274779 ], [ 71.460232105918621, 51.131001065734168 ], [ 71.460522980407617, 51.13095483981305 ] ] ] ] } },
{ "type": "Feature", "properties": { "Id": "70030077112436045" }, "geometry": { "type": "MultiPolygon", "coordinates": [ [ [ [ 71.461459474091313, 51.133899282216788 ], [ 71.461434411094871, 51.133931751042205 ], [ 71.461806762780157, 51.134045955444662 ], [ 71.461831825776585, 51.134013655807664 ], [ 71.461459474091313, 51.133899282216788 ] ] ] ] } },
{ "type": "Feature", "properties": { "Id": "70030077112436094" }, "geometry": { "type": "MultiPolygon", "coordinates": [ [ [ [ 71.463624144431463, 51.131609608759753 ], [ 71.463545721507145, 51.131588018162468 ], [ 71.463243079087917, 51.132024732536699 ], [ 71.463321591843766, 51.132046266558028 ], [ 71.463624144431463, 51.131609608759753 ] ] ] ] } },
{ "type": "Feature", "properties": { "Id": "70030077112436440" }, "geometry": { "type": "MultiPolygon", "coordinates": [ [ [ [ 71.464718561942092, 51.130065094561168 ], [ 71.464679395395706, 51.130054101593018 ], [ 71.464215774877573, 51.130701442020936 ], [ 71.464254851592429, 51.13071254758178 ], [ 71.464718561942092, 51.130065094561168 ] ] ] ] } },
{ "type": "Feature", "properties": { "Id": "70030077148746029" }, "geometry": { "type": "MultiPolygon", "coordinates": [ [ [ [ 71.461376918916685, 51.129317735892229 ], [ 71.462903336247479, 51.129082876623634 ], [ 71.462882944490516, 51.129030560234078 ], [ 71.461356527159751, 51.129265307018393 ], [ 71.461376918916685, 51.129317735892229 ] ] ] ] } },
{ "type": "Feature", "properties": { "Id": "70030077148818845" }, "geometry": { "type": "MultiPolygon", "coordinates": [ [ [ [ 71.46172564490999, 51.130463376488088 ], [ 71.461589550144438, 51.130114196453562 ], [ 71.461478518375344, 51.130131277811458 ], [ 71.461614613140867, 51.130480514090536 ], [ 71.46172564490999, 51.130463376488088 ] ] ] ] } },
{ "type": "Feature", "properties": { "Id": "70030077148819023" }, "geometry": { "type": "MultiPolygon", "coordinates": [ [ [ [ 71.46407375123114, 51.129426877959105 ], [ 71.464129177284178, 51.12941819621323 ], [ 71.464015540400752, 51.129130231925139 ], [ 71.463960024516183, 51.129138970100477 ], [ 71.46407375123114, 51.129426877959105 ] ] ] ] } },
{ "type": "Feature", "properties": { "Id": "70030077148819203" }, "geometry": { "type": "MultiPolygon", "coordinates": [ [ [ [ 71.462948611337779, 51.130131954300758 ], [ 71.463007540820442, 51.130150895996906 ], [ 71.463178939376633, 51.129912376631005 ], [ 71.463118123431897, 51.129894111329804 ], [ 71.462948611337779, 51.130131954300758 ] ] ] ] } },
{ "type": "Feature", "properties": { "Id": "70030077155144824" }, "geometry": { "type": "MultiPolygon", "coordinates": [ [ [ [ 71.456137405190546, 51.12108432057434 ], [ 71.456158335936664, 51.121013557155749 ], [ 71.456059970413051, 51.12100211095116 ], [ 71.456039129498464, 51.121072818002126 ], [ 71.456137405190546, 51.12108432057434 ] ] ] ] } },
{ "type": "Feature", "properties": { "Id": "70030077159383662" }, "geometry": { "type": "MultiPolygon", "coordinates": [ [ [ [ 71.462172197437724, 51.134662124472527 ], [ 71.465525159235696, 51.135603470115171 ], [ 71.465548515433085, 51.135570720627925 ], [ 71.462195463803596, 51.134629317948978 ], [ 71.462172197437724, 51.134662124472527 ] ] ] ] } },
{ "type": "Feature", "properties": { "Id": "70030077165368578" }, "geometry": { "type": "MultiPolygon", "coordinates": [ [ [ [ 71.459722491657928, 51.129880017728254 ], [ 71.459653321381055, 51.129891123486637 ], [ 71.459688625171708, 51.129978221854408 ], [ 71.45975779544861, 51.129967116116966 ], [ 71.459722491657928, 51.129880017728254 ] ] ] ] } },
{ "type": "Feature", "properties": { "Id": "70030077165403826" }, "geometry": { "type": "MultiPolygon", "coordinates": [ [ [ [ 71.468844793536647, 51.127547185527348 ], [ 71.468860693717147, 51.127590990639462 ], [ 71.469000022417745, 51.127571033103202 ], [ 71.468984122237202, 51.127527171594856 ], [ 71.468844793536647, 51.127547185527348 ] ] ] ] } },
{ "type": "Feature", "properties": { "Id": "70030077166767236" }, "geometry": { "type": "MultiPolygon", "coordinates": [ [ [ [ 71.461178211575842, 51.118903009515321 ], [ 71.461242800444765, 51.118892972483465 ], [ 71.461219264584329, 51.118831735264401 ], [ 71.461154136726236, 51.118841941473228 ], [ 71.461178211575842, 51.118903009515321 ] ] ] ] } },
{ "type": "Feature", "properties": { "Id": "9571222984203165" }, "geometry": { "type": "MultiPolygon", "coordinates": [ [ [ [ 71.409694397559619, 51.194637248489165 ], [ 71.409668184363738, 51.194645225730731 ], [ 71.409824042065537, 51.194847381784172 ], [ 71.409837468992649, 51.194843330656951 ], [ 71.409694397559619, 51.194637248489165 ] ] ], [ [ [ 71.408598740017993, 51.194973144807371 ], [ 71.407928237489926, 51.19518672723931 ], [ 71.407892035383981, 51.195198886884086 ], [ 71.407871284300924, 51.195212510185996 ], [ 71.407865714746151, 51.195227371965309 ], [ 71.407869128344231, 51.195241164142587 ], [ 71.407999024734309, 51.1953993516764 ], [ 71.408069542484114, 51.195485256849786 ], [ 71.408832391823395, 51.195255181494005 ], [ 71.408598740017993, 51.194973144807371 ] ] ] ] } },
{ "type": "Feature", "properties": { "Id": "70030076129621894" }, "geometry": { "type": "MultiPolygon", "coordinates": [ [ [ [ 71.405247844345155, 51.194593265120339 ], [ 71.405215864321065, 51.194553070198445 ], [ 71.404848004212198, 51.194666280175888 ], [ 71.404886452106382, 51.194714468923259 ], [ 71.404963347894679, 51.194690318260612 ], [ 71.405040064019943, 51.194786751949813 ], [ 71.405393281589681, 51.194675906670341 ], [ 71.405311804393406, 51.194573167663783 ], [ 71.405247844345155, 51.194593265120339 ] ] ] ] } },
{ "type": "Feature", "properties": { "Id": "70030076129805331" }, "geometry": { "type": "MultiPolygon", "coordinates": [ [ [ [ 71.405783958906738, 51.194811409217984 ], [ 71.40561615361166, 51.194601090178097 ], [ 71.405784497895908, 51.194548285086356 ], [ 71.405639330145988, 51.194365549728303 ], [ 71.405349084477692, 51.194456579724609 ], [ 71.405662686343376, 51.19485132243917 ], [ 71.405783958906738, 51.194811409217984 ] ] ] ] } },
{ "type": "Feature", "properties": { "Id": "70030076129917728" }, "geometry": { "type": "MultiPolygon", "coordinates": [ [ [ [ 71.406645802590319, 51.195712066003779 ], [ 71.406311719136156, 51.195273983878415 ], [ 71.4063013885104, 51.19522945486581 ], [ 71.406306868233614, 51.195179183754369 ], [ 71.406325463359991, 51.195143886983772 ], [ 71.406349358546564, 51.195100540035504 ], [ 71.40613969175925, 51.19516899441826 ], [ 71.406572589894665, 51.195733457725375 ], [ 71.406645802590319, 51.195712066003779 ] ] ] ] } },
{ "type": "Feature", "properties": { "Id": "70030076129920136" }, "geometry": { "type": "MultiPolygon", "coordinates": [ [ [ [ 71.408748219681272, 51.194055415879902 ], [ 71.408814335686188, 51.194034248563476 ], [ 71.408504506744677, 51.193659934491805 ], [ 71.408438390739761, 51.193681101980204 ], [ 71.408748219681272, 51.194055415879902 ] ] ] ] } },
{ "type": "Feature", "properties": { "Id": "70030076129920182" }, "geometry": { "type": "MultiPolygon", "coordinates": [ [ [ [ 71.407258812940199, 51.195813958062438 ], [ 71.407284414925797, 51.195846101864028 ], [ 71.407955007285381, 51.195634661664961 ], [ 71.407929405299797, 51.19560257401001 ], [ 71.407258812940199, 51.195813958062438 ] ] ] ] } },
{ "type": "Feature", "properties": { "Id": "70030076131821345" }, "geometry": { "type": "MultiPolygon", "coordinates": [ [ [ [ 71.407435242061993, 51.195906617716844 ], [ 71.407192786766814, 51.195982839431366 ], [ 71.407098373830451, 51.195866367646843 ], [ 71.406955811194862, 51.195911965625577 ], [ 71.407093882254031, 51.19608231026799 ], [ 71.407192157946113, 51.196050898448043 ], [ 71.407348105479443, 51.196243253289047 ], [ 71.407634398560489, 51.196153183811731 ], [ 71.407435242061993, 51.195906617716844 ] ] ] ] } },
{ "type": "Feature", "properties": { "Id": "70030076134310055" }, "geometry": { "type": "MultiPolygon", "coordinates": [ [ [ [ 71.407909283037441, 51.194873390100931 ], [ 71.407942790197538, 51.194915386183126 ], [ 71.408475580992544, 51.194746275720718 ], [ 71.408443511136909, 51.194706024637057 ], [ 71.407909283037441, 51.194873390100931 ] ] ] ] } },
{ "type": "Feature", "properties": { "Id": "70030076147117460" }, "geometry": { "type": "MultiPolygon", "coordinates": [ [ [ [ 71.402501874184694, 51.195646033074148 ], [ 71.402559905352035, 51.195718314639272 ], [ 71.402815116724256, 51.195637138605825 ], [ 71.402834610165925, 51.195661176184018 ], [ 71.40291123645963, 51.195636857135277 ], [ 71.402936568950651, 51.195628807076957 ], [ 71.402861739287502, 51.195535471333045 ], [ 71.402501874184694, 51.195646033074148 ] ] ] ] } },
{ "type": "Feature", "properties": { "Id": "70030076169927301" }, "geometry": { "type": "MultiPolygon", "coordinates": [ [ [ [ 71.404752692960557, 51.196354151091107 ], [ 71.405076984778134, 51.196259409482906 ], [ 71.405046801384586, 51.196218709373916 ], [ 71.404722509567023, 51.196313507359093 ], [ 71.404752692960557, 51.196354151091107 ] ] ] ] } },
{ "type": "Feature", "properties": { "Id": "70030076178610917" }, "geometry": { "type": "MultiPolygon", "coordinates": [ [ [ [ 71.408492648982929, 51.194353108385201 ], [ 71.408218483158223, 51.194015107896639 ], [ 71.407440991279813, 51.194264104832811 ], [ 71.407715516430656, 51.194602553857813 ], [ 71.408492648982929, 51.194353108385201 ] ] ] ] } },
{ "type": "Feature", "properties": { "Id": "70030076320973039" }, "geometry": { "type": "MultiPolygon", "coordinates": [ [ [ [ 71.404468016847019, 51.195389725333108 ], [ 71.404692865162644, 51.195318794320457 ], [ 71.404628905114407, 51.195238349412861 ], [ 71.40440396696728, 51.195309280549345 ], [ 71.404468016847019, 51.195389725333108 ] ] ] ] } },
{ "type": "Feature", "properties": { "Id": "70030076320973476" }, "geometry": { "type": "MultiPolygon", "coordinates": [ [ [ [ 71.404121087484313, 51.195198661705511 ], [ 71.404210559686604, 51.195170401785262 ], [ 71.404107882249619, 51.19504188085358 ], [ 71.404018410047328, 51.195070140852664 ], [ 71.404121087484313, 51.195198661705511 ] ] ] ] } },
{ "type": "Feature", "properties": { "Id": "70030076320974847" }, "geometry": { "type": "MultiPolygon", "coordinates": [ [ [ [ 71.405037458905625, 51.197190717228622 ], [ 71.405533328942454, 51.197029946394494 ], [ 71.40546128405667, 51.196942130155733 ], [ 71.404965324188325, 51.197102788711661 ], [ 71.405037458905625, 51.197190717228622 ] ] ] ] } },
{ "type": "Feature", "properties": { "Id": "70030076320974966" }, "geometry": { "type": "MultiPolygon", "coordinates": [ [ [ [ 71.402655396266724, 51.196023708629617 ], [ 71.403038527735418, 51.195807653146012 ], [ 71.402970165942278, 51.195722649277812 ], [ 71.402552718829767, 51.195855221467397 ], [ 71.402655396266724, 51.196023708629617 ] ] ] ] } },
{ "type": "Feature", "properties": { "Id": "70030077039955938" }, "geometry": { "type": "MultiPolygon", "coordinates": [ [ [ [ 71.40835862034254, 51.194442562130206 ], [ 71.408345774433997, 51.194426517890427 ], [ 71.40785978586527, 51.194579585339945 ], [ 71.407872631773841, 51.194595573231041 ], [ 71.40835862034254, 51.194442562130206 ] ] ] ] } },
{ "type": "Feature", "properties": { "Id": "70030077156748475" }, "geometry": { "type": "MultiPolygon", "coordinates": [ [ [ [ 71.409503830309603, 51.194362752657533 ], [ 71.40923825066875, 51.194445996159757 ], [ 71.409276608731389, 51.194494297728518 ], [ 71.409538214572805, 51.194412280249075 ], [ 71.409503830309603, 51.194362752657533 ] ] ] ] } }
]
}
