{
"type": "FeatureCollection",
"name": "ParkingsGround",
"crs": { "type": "name", "properties": { "name": "urn:ogc:def:crs:OGC:1.3:CRS84" } },
"xy_coordinate_resolution": 1e-15,
"features": [
{ "type": "Feature", "properties": { "Purpose": "Для автомобилей", "Name": null, "LevelCount": 0, "HouseId": null, "MinCpcty": "80", "MaxCpcty": "80", "Charged": 0, "ParkingAcc": "Общедоступная", "Synonym": null, "ParkingTer": "9571222990300611", "Id": "9571205770117207", "X": 71.45745227, "Y": 51.12859168 }, "geometry": { "type": "Point", "coordinates": [ 71.457452269271911, 51.128591675257212 ] } },
{ "type": "Feature", "properties": { "Purpose": "Для автомобилей", "Name": "3621", "LevelCount": 0, "HouseId": null, "MinCpcty": "74", "MaxCpcty": "74", "Charged": 1, "ParkingAcc": "Общедоступная", "Synonym": null, "ParkingTer": "9571222990300410", "Id": "9571205770117208", "X": 71.46124981, "Y": 51.12643299 }, "geometry": { "type": "Point", "coordinates": [ 71.461249807304, 51.126432988251416 ] } },
{ "type": "Feature", "properties": { "Purpose": "Для автомобилей", "Name": null, "LevelCount": 0, "HouseId": null, "MinCpcty": "80", "MaxCpcty": "80", "Charged": 0, "ParkingAcc": "Общедоступная", "Synonym": null, "ParkingTer": "9571222990300332", "Id": "9571205770117211", "X": 71.45866634, "Y": 51.12724619 }, "geometry": { "type": "Point", "coordinates": [ 71.458666342378407, 51.127246186342589 ] } },
{ "type": "Feature", "properties": { "Purpose": "Для автомобилей", "Name": null, "LevelCount": 0, "HouseId": null, "MinCpcty": "15", "MaxCpcty": "15", "Charged": 0, "ParkingAcc": "Общедоступная", "Synonym": null, "ParkingTer": "70030076129780955", "Id": "9571205770117212", "X": 71.46434369000001, "Y": 51.12609347 }, "geometry": { "type": "Point", "coordinates": [ 71.464343694974048, 51.126093474939331 ] } },
{ "type": "Feature", "properties": { "Purpose": "Для автомобилей", "Name": null, "LevelCount": 0, "HouseId": null, "MinCpcty": "350", "MaxCpcty": "350", "Charged": 0, "ParkingAcc": "Для резидентов", "Synonym": null, "ParkingTer": "9571222949986325", "Id": "9571205770117256", "X": 71.44442589000001, "Y": 51.1309669 }, "geometry": { "type": "Point", "coordinates": [ 71.444425889168429, 51.130966903655455 ] } },
{ "type": "Feature", "properties": { "Purpose": "Для автомобилей", "Name": null, "LevelCount": 0, "HouseId": null, "MinCpcty": "60", "MaxCpcty": "60", "Charged": 1, "ParkingAcc": "Общедоступная", "Synonym": null, "ParkingTer": "9571222949986343", "Id": "9571205770117330", "X": 71.46533795000001, "Y": 51.1204837 }, "geometry": { "type": "Point", "coordinates": [ 71.465337950330508, 51.120483702042449 ] } },
{ "type": "Feature", "properties": { "Purpose": "Для автомобилей", "Name": null, "LevelCount": 0, "HouseId": null, "MinCpcty": "40", "MaxCpcty": "40", "Charged": 0, "ParkingAcc": "Общедоступная", "Synonym": null, "ParkingTer": "9571222949986342", "Id": "9571205770117331", "X": 71.46360465, "Y": 51.12059698 }, "geometry": { "type": "Point", "coordinates": [ 71.46360465098978, 51.120596981144509 ] } },
{ "type": "Feature", "properties": { "Purpose": "Для автомобилей", "Name": null, "LevelCount": 0, "HouseId": null, "MinCpcty": "15", "MaxCpcty": "15", "Charged": 0, "ParkingAcc": "Общедоступная", "Synonym": null, "ParkingTer": "9571222949986341", "Id": "9571205770117332", "X": 71.4614787, "Y": 51.12071894 }, "geometry": { "type": "Point", "coordinates": [ 71.461478698038377, 51.120718943351527 ] } },
{ "type": "Feature", "properties": { "Purpose": "Для автомобилей", "Name": null, "LevelCount": 0, "HouseId": null, "MinCpcty": "60", "MaxCpcty": "60", "Charged": 0, "ParkingAcc": "Общедоступная", "Synonym": null, "ParkingTer": "9571222949986344", "Id": "9571205770117333", "X": 71.45888302, "Y": 51.12086092 }, "geometry": { "type": "Point", "coordinates": [ 71.458883016024927, 51.120860922066257 ] } },
{ "type": "Feature", "properties": { "Purpose": "Для автомобилей", "Name": null, "LevelCount": 0, "HouseId": null, "MinCpcty": "45", "MaxCpcty": "45", "Charged": 0, "ParkingAcc": "Общедоступная", "Synonym": null, "ParkingTer": "9571222949986348", "Id": "9571205770117335", "X": 71.45446088, "Y": 51.12044637 }, "geometry": { "type": "Point", "coordinates": [ 71.454460879375787, 51.120446374572182 ] } },
{ "type": "Feature", "properties": { "Purpose": "Для автомобилей", "Name": "1204", "LevelCount": 0, "HouseId": null, "MinCpcty": "14", "MaxCpcty": "14", "Charged": 1, "ParkingAcc": "Общедоступная", "Synonym": null, "ParkingTer": "70030076129973698", "Id": "9571205770117354", "X": 71.46368388, "Y": 51.12017155 }, "geometry": { "type": "Point", "coordinates": [ 71.463683882397845, 51.120171548734113 ] } },
{ "type": "Feature", "properties": { "Purpose": "Для автомобилей", "Name": null, "LevelCount": 0, "HouseId": null, "MinCpcty": "10", "MaxCpcty": "10", "Charged": 0, "ParkingAcc": "Общедоступная", "Synonym": null, "ParkingTer": "70030076129973699", "Id": "9571205770117355", "X": 71.46200538, "Y": 51.1202691 }, "geometry": { "type": "Point", "coordinates": [ 71.462005380289455, 51.120269096869542 ] } },
{ "type": "Feature", "properties": { "Purpose": "Для автомобилей", "Name": null, "LevelCount": 0, "HouseId": null, "MinCpcty": "20", "MaxCpcty": "20", "Charged": 0, "ParkingAcc": "Общедоступная", "Synonym": null, "ParkingTer": "70030076129784208", "Id": "9571205770117356", "X": 71.46004921, "Y": 51.12039907 }, "geometry": { "type": "Point", "coordinates": [ 71.460049208926762, 51.120399066753066 ] } },
{ "type": "Feature", "properties": { "Purpose": "Для автомобилей", "Name": "Парковка ЦКЗ Qazaqstan", "LevelCount": 0, "HouseId": null, "MinCpcty": "230", "MaxCpcty": "230", "Charged": 0, "ParkingAcc": "Для резидентов", "Synonym": null, "ParkingTer": "70030076129972725", "Id": "9571205770117519", "X": 71.44069159, "Y": 51.12212264 }, "geometry": { "type": "Point", "coordinates": [ 71.440691592532332, 51.12212264145959 ] } },
{ "type": "Feature", "properties": { "Purpose": "Для автомобилей", "Name": null, "LevelCount": 0, "HouseId": null, "MinCpcty": "80", "MaxCpcty": "80", "Charged": 0, "ParkingAcc": "Общедоступная", "Synonym": null, "ParkingTer": "9571222949986419", "Id": "9571205770117679", "X": 71.4629443, "Y": 51.13351326 }, "geometry": { "type": "Point", "coordinates": [ 71.462944299424436, 51.133513262209824 ] } },
{ "type": "Feature", "properties": { "Purpose": "Для автомобилей", "Name": "3620", "LevelCount": 0, "HouseId": null, "MinCpcty": "41", "MaxCpcty": "41", "Charged": 1, "ParkingAcc": "Общедоступная", "Synonym": null, "ParkingTer": "9571222990300459", "Id": "9571205800864343", "X": 71.4654912, "Y": 51.12535056 }, "geometry": { "type": "Point", "coordinates": [ 71.465491202917974, 51.125350562396264 ] } },
{ "type": "Feature", "properties": { "Purpose": "Для автомобилей", "Name": "3619", "LevelCount": 0, "HouseId": null, "MinCpcty": "61", "MaxCpcty": "61", "Charged": 1, "ParkingAcc": "Общедоступная", "Synonym": null, "ParkingTer": "9571222990300478", "Id": "9571205800864348", "X": 71.46715237, "Y": 51.12491367 }, "geometry": { "type": "Point", "coordinates": [ 71.46715236754136, 51.12491367214669 ] } },
{ "type": "Feature", "properties": { "Purpose": "Для автомобилей", "Name": null, "LevelCount": 0, "HouseId": null, "MinCpcty": "40", "MaxCpcty": "40", "Charged": 0, "ParkingAcc": "Общедоступная", "Synonym": null, "ParkingTer": "70030076131990175", "Id": "9571205800885437", "X": 71.46793821, "Y": 51.12364611 }, "geometry": { "type": "Point", "coordinates": [ 71.467938213751907, 51.123646108872606 ] } },
{ "type": "Feature", "properties": { "Purpose": "Для автомобилей", "Name": "Парковка посольства США в РК", "LevelCount": 0, "HouseId": null, "MinCpcty": "100", "MaxCpcty": "100", "Charged": 0, "ParkingAcc": "Для резидентов", "Synonym": null, "ParkingTer": "9571222985589665", "Id": "9571205805720506", "X": 71.46746318, "Y": 51.12853569 }, "geometry": { "type": "Point", "coordinates": [ 71.467463184629665, 51.128535693867761 ] } },
{ "type": "Feature", "properties": { "Purpose": "Для автомобилей", "Name": null, "LevelCount": 0, "HouseId": null, "MinCpcty": "20", "MaxCpcty": "20", "Charged": 0, "ParkingAcc": "Общедоступная", "Synonym": null, "ParkingTer": "9571222990300438", "Id": "9571205810431259", "X": 71.4635592, "Y": 51.12587664 }, "geometry": { "type": "Point", "coordinates": [ 71.463559196236417, 51.125876640654639 ] } },
{ "type": "Feature", "properties": { "Purpose": "Для автомобилей", "Name": null, "LevelCount": 0, "HouseId": null, "MinCpcty": "640", "MaxCpcty": "640", "Charged": 0, "ParkingAcc": "Для резидентов", "Synonym": null, "ParkingTer": "70030076129972806", "Id": "70030076143464934", "X": 71.43887268, "Y": 51.1270916 }, "geometry": { "type": "Point", "coordinates": [ 71.438872683745046, 51.12709159862294 ] } },
{ "type": "Feature", "properties": { "Purpose": "Для автомобилей", "Name": null, "LevelCount": 0, "HouseId": null, "MinCpcty": "25", "MaxCpcty": "25", "Charged": 0, "ParkingAcc": "Для резидентов", "Synonym": null, "ParkingTer": "70030076138975669", "Id": "70030076143468627", "X": 71.46992169000001, "Y": 51.13036326 }, "geometry": { "type": "Point", "coordinates": [ 71.469921693899238, 51.13036325668358 ] } },
{ "type": "Feature", "properties": { "Purpose": "Для автомобилей", "Name": null, "LevelCount": 0, "HouseId": null, "MinCpcty": "30", "MaxCpcty": "30", "Charged": 0, "ParkingAcc": "Общедоступная", "Synonym": null, "ParkingTer": "70030076138976486", "Id": "70030076143468639", "X": 71.46802077, "Y": 51.13063272 }, "geometry": { "type": "Point", "coordinates": [ 71.468020768926507, 51.130632722780469 ] } },
{ "type": "Feature", "properties": { "Purpose": "Для автомобилей", "Name": null, "LevelCount": 0, "HouseId": null, "MinCpcty": "15", "MaxCpcty": "15", "Charged": 1, "ParkingAcc": "Общедоступная", "Synonym": null, "ParkingTer": "70030076139497426", "Id": "70030076143472149", "X": 71.46163941, "Y": 51.13438496 }, "geometry": { "type": "Point", "coordinates": [ 71.461639406642732, 51.134384959346875 ] } },
{ "type": "Feature", "properties": { "Purpose": "Для автомобилей", "Name": null, "LevelCount": 0, "HouseId": null, "MinCpcty": "80", "MaxCpcty": "80", "Charged": 0, "ParkingAcc": "Общедоступная", "Synonym": null, "ParkingTer": "70030076139076109", "Id": "70030076139076116", "X": 71.45919859, "Y": 51.12909071 }, "geometry": { "type": "Point", "coordinates": [ 71.459198594184258, 51.129090712801869 ] } },
{ "type": "Feature", "properties": { "Purpose": "Для автомобилей", "Name": null, "LevelCount": 0, "HouseId": null, "MinCpcty": "45", "MaxCpcty": "45", "Charged": 0, "ParkingAcc": "Общедоступная", "Synonym": null, "ParkingTer": "70030076139092307", "Id": "70030076139092311", "X": 71.45931618, "Y": 51.13128225 }, "geometry": { "type": "Point", "coordinates": [ 71.459316183654934, 51.131282253633202 ] } },
{ "type": "Feature", "properties": { "Purpose": "Для автомобилей", "Name": null, "LevelCount": 0, "HouseId": null, "MinCpcty": "10", "MaxCpcty": "10", "Charged": 0, "ParkingAcc": "Для резидентов", "Synonym": null, "ParkingTer": "70030076129621932", "Id": "70030076139092443", "X": 71.4612269, "Y": 51.13421828 }, "geometry": { "type": "Point", "coordinates": [ 71.461226900264251, 51.134218276162912 ] } },
{ "type": "Feature", "properties": { "Purpose": "Для автомобилей", "Name": null, "LevelCount": 0, "HouseId": null, "MinCpcty": "20", "MaxCpcty": "20", "Charged": 0, "ParkingAcc": "Для резидентов", "Synonym": null, "ParkingTer": "70030076139093671", "Id": "70030076139093688", "X": 71.46192327, "Y": 51.13505766 }, "geometry": { "type": "Point", "coordinates": [ 71.461923274272507, 51.135057661084197 ] } },
{ "type": "Feature", "properties": { "Purpose": "Для автомобилей", "Name": null, "LevelCount": 0, "HouseId": null, "MinCpcty": "35", "MaxCpcty": "35", "Charged": 0, "ParkingAcc": "Для резидентов", "Synonym": null, "ParkingTer": "70030076139094163", "Id": "70030076139094176", "X": 71.4650645, "Y": 51.13596991 }, "geometry": { "type": "Point", "coordinates": [ 71.465064503158004, 51.135969913310298 ] } },
{ "type": "Feature", "properties": { "Purpose": "Для автомобилей", "Name": null, "LevelCount": 0, "HouseId": null, "MinCpcty": "40", "MaxCpcty": "40", "Charged": 0, "ParkingAcc": "Общедоступная", "Synonym": null, "ParkingTer": "70030076139188053", "Id": "70030076139188160", "X": 71.46706379, "Y": 51.1214038 }, "geometry": { "type": "Point", "coordinates": [ 71.467063793654333, 51.121403797734736 ] } },
{ "type": "Feature", "properties": { "Purpose": "Для автомобилей", "Name": "1205", "LevelCount": 0, "HouseId": null, "MinCpcty": "12", "MaxCpcty": "12", "Charged": 1, "ParkingAcc": "Общедоступная", "Synonym": null, "ParkingTer": "70030076151014256", "Id": "70030076151014258", "X": 71.46591296, "Y": 51.12005494 }, "geometry": { "type": "Point", "coordinates": [ 71.465912961943857, 51.120054941790997 ] } },
{ "type": "Feature", "properties": { "Purpose": "Для автомобилей", "Name": null, "LevelCount": 0, "HouseId": null, "MinCpcty": "10", "MaxCpcty": "10", "Charged": 0, "ParkingAcc": "Общедоступная", "Synonym": null, "ParkingTer": null, "Id": "70030076151680639", "X": 71.46873843, "Y": 51.12834762 }, "geometry": { "type": "Point", "coordinates": [ 71.468738433007005, 51.128347622962778 ] } },
{ "type": "Feature", "properties": { "Purpose": "Для автомобилей", "Name": null, "LevelCount": 0, "HouseId": null, "MinCpcty": "25", "MaxCpcty": "25", "Charged": 0, "ParkingAcc": "Общедоступная", "Synonym": null, "ParkingTer": "70030076163869281", "Id": "70030076163869295", "X": 71.46841657, "Y": 51.12609398 }, "geometry": { "type": "Point", "coordinates": [ 71.468416566640698, 51.126093982350667 ] } },
{ "type": "Feature", "properties": { "Purpose": "Для автомобилей", "Name": null, "LevelCount": 0, "HouseId": null, "MinCpcty": "20", "MaxCpcty": "20", "Charged": 0, "ParkingAcc": "Для резидентов", "Synonym": null, "ParkingTer": "70030076163870667", "Id": "70030076163870695", "X": 71.46961797, "Y": 51.12695776 }, "geometry": { "type": "Point", "coordinates": [ 71.469617973501684, 51.12695775748788 ] } },
{ "type": "Feature", "properties": { "Purpose": "Для автомобилей", "Name": null, "LevelCount": 0, "HouseId": null, "MinCpcty": "100", "MaxCpcty": "100", "Charged": 0, "ParkingAcc": "Общедоступная", "Synonym": null, "ParkingTer": "70030076163874197", "Id": "70030076163874230", "X": 71.46687326, "Y": 51.12785157 }, "geometry": { "type": "Point", "coordinates": [ 71.466873260982581, 51.127851565364082 ] } },
{ "type": "Feature", "properties": { "Purpose": "Для автомобилей", "Name": null, "LevelCount": 0, "HouseId": null, "MinCpcty": "20", "MaxCpcty": "20", "Charged": 0, "ParkingAcc": "Общедоступная", "Synonym": null, "ParkingTer": "70030077109613030", "Id": "70030076163728595", "X": 71.45695101, "Y": 51.11930049 }, "geometry": { "type": "Point", "coordinates": [ 71.456951009343371, 51.119300485501036 ] } },
{ "type": "Feature", "properties": { "Purpose": "Для автомобилей", "Name": null, "LevelCount": 0, "HouseId": null, "MinCpcty": "15", "MaxCpcty": "15", "Charged": 0, "ParkingAcc": "Место высадки (без иконки на карте)", "Synonym": null, "ParkingTer": "70030076658577110", "Id": "70030076178064542", "X": 71.45550975, "Y": 51.11930641 }, "geometry": { "type": "Point", "coordinates": [ 71.455509752301509, 51.119306406170111 ] } },
{ "type": "Feature", "properties": { "Purpose": "Для автомобилей", "Name": null, "LevelCount": 0, "HouseId": null, "MinCpcty": "110", "MaxCpcty": "110", "Charged": 0, "ParkingAcc": "Для резидентов", "Synonym": null, "ParkingTer": "70030076172651470", "Id": "70030076172651521", "X": 71.46461831000001, "Y": 51.12950885 }, "geometry": { "type": "Point", "coordinates": [ 71.464618309956379, 51.129508847089738 ] } },
{ "type": "Feature", "properties": { "Purpose": "Для автомобилей", "Name": null, "LevelCount": 0, "HouseId": null, "MinCpcty": "40", "MaxCpcty": "40", "Charged": 0, "ParkingAcc": "Для резидентов", "Synonym": null, "ParkingTer": "70030076172651835", "Id": "70030076172651846", "X": 71.46049082, "Y": 51.13146592 }, "geometry": { "type": "Point", "coordinates": [ 71.460490820720437, 51.131465915534633 ] } },
{ "type": "Feature", "properties": { "Purpose": "Для автомобилей", "Name": null, "LevelCount": 0, "HouseId": null, "MinCpcty": "40", "MaxCpcty": "40", "Charged": 0, "ParkingAcc": "Для резидентов", "Synonym": null, "ParkingTer": "70030076172651866", "Id": "70030076172651878", "X": 71.46008595000001, "Y": 51.13012508 }, "geometry": { "type": "Point", "coordinates": [ 71.460085950021877, 51.130125076659155 ] } },
{ "type": "Feature", "properties": { "Purpose": "Для автомобилей", "Name": null, "LevelCount": 0, "HouseId": null, "MinCpcty": "18", "MaxCpcty": "18", "Charged": 0, "ParkingAcc": "Общедоступная", "Synonym": null, "ParkingTer": "70030076172771158", "Id": "70030076172771172", "X": 71.46199128000001, "Y": 51.13426117 }, "geometry": { "type": "Point", "coordinates": [ 71.461991276739511, 51.134261173042525 ] } },
{ "type": "Feature", "properties": { "Purpose": "Для автомобилей", "Name": null, "LevelCount": 0, "HouseId": null, "MinCpcty": "25", "MaxCpcty": "25", "Charged": 0, "ParkingAcc": "Для резидентов", "Synonym": null, "ParkingTer": "70030076353893704", "Id": "70030076172820038", "X": 71.4638242, "Y": 51.13544885 }, "geometry": { "type": "Point", "coordinates": [ 71.463824199245224, 51.135448854001375 ] } },
{ "type": "Feature", "properties": { "Purpose": "Для автомобилей", "Name": null, "LevelCount": 0, "HouseId": null, "MinCpcty": "30", "MaxCpcty": "30", "Charged": 0, "ParkingAcc": "Для резидентов", "Synonym": null, "ParkingTer": "70030076172820394", "Id": "70030076172820429", "X": 71.46697962, "Y": 51.13527823 }, "geometry": { "type": "Point", "coordinates": [ 71.466979621512223, 51.13527822891033 ] } },
{ "type": "Feature", "properties": { "Purpose": "Для автомобилей", "Name": null, "LevelCount": 0, "HouseId": null, "MinCpcty": "17", "MaxCpcty": "17", "Charged": 0, "ParkingAcc": "Для резидентов", "Synonym": null, "ParkingTer": "70030076172820475", "Id": "70030076172820498", "X": 71.46686742, "Y": 51.13492052 }, "geometry": { "type": "Point", "coordinates": [ 71.466867421933244, 51.134920517307158 ] } },
{ "type": "Feature", "properties": { "Purpose": "Для автомобилей", "Name": null, "LevelCount": 0, "HouseId": null, "MinCpcty": "10", "MaxCpcty": "10", "Charged": 0, "ParkingAcc": "Общедоступная", "Synonym": null, "ParkingTer": null, "Id": "70030076195673317", "X": 71.46596084, "Y": 51.1360313 }, "geometry": { "type": "Point", "coordinates": [ 71.465960842148505, 51.136031296911383 ] } },
{ "type": "Feature", "properties": { "Purpose": "Для автомобилей", "Name": null, "LevelCount": 0, "HouseId": null, "MinCpcty": "20", "MaxCpcty": "20", "Charged": 0, "ParkingAcc": "Общедоступная", "Synonym": null, "ParkingTer": "70030076334299271", "Id": "70030076191379722", "X": 71.46609496000001, "Y": 51.11830501 }, "geometry": { "type": "Point", "coordinates": [ 71.466094960620424, 51.11830501288587 ] } },
{ "type": "Feature", "properties": { "Purpose": "Для автомобилей", "Name": null, "LevelCount": 0, "HouseId": null, "MinCpcty": "15", "MaxCpcty": "15", "Charged": 0, "ParkingAcc": "Общедоступная", "Synonym": null, "ParkingTer": "70030076354863971", "Id": "70030076191379723", "X": 71.46641135, "Y": 51.11963858 }, "geometry": { "type": "Point", "coordinates": [ 71.466411347263502, 51.119638582683322 ] } },
{ "type": "Feature", "properties": { "Purpose": "Для автомобилей", "Name": null, "LevelCount": 0, "HouseId": null, "MinCpcty": "15", "MaxCpcty": "15", "Charged": 0, "ParkingAcc": "Общедоступная", "Synonym": null, "ParkingTer": "70030076307863864", "Id": "70030076191379725", "X": 71.46118845, "Y": 51.11894756 }, "geometry": { "type": "Point", "coordinates": [ 71.461188452370081, 51.118947555866292 ] } },
{ "type": "Feature", "properties": { "Purpose": "Для автомобилей", "Name": null, "LevelCount": 0, "HouseId": null, "MinCpcty": "5", "MaxCpcty": "5", "Charged": 0, "ParkingAcc": "Общедоступная", "Synonym": null, "ParkingTer": "70030076334299272", "Id": "70030076191379726", "X": 71.45454739, "Y": 51.11962533 }, "geometry": { "type": "Point", "coordinates": [ 71.454547387137652, 51.119625331756289 ] } },
{ "type": "Feature", "properties": { "Purpose": "Для автомобилей", "Name": null, "LevelCount": 0, "HouseId": null, "MinCpcty": "8", "MaxCpcty": "8", "Charged": 0, "ParkingAcc": "Общедоступная", "Synonym": null, "ParkingTer": null, "Id": "70030076167624922", "X": 71.46351203, "Y": 51.11816697 }, "geometry": { "type": "Point", "coordinates": [ 71.463512034684001, 51.118166973526165 ] } },
{ "type": "Feature", "properties": { "Purpose": "Для автомобилей", "Name": null, "LevelCount": 0, "HouseId": null, "MinCpcty": "40", "MaxCpcty": "40", "Charged": 0, "ParkingAcc": "Общедоступная", "Synonym": null, "ParkingTer": "70030076166891853", "Id": "70030076166891864", "X": 71.46226158, "Y": 51.12009419 }, "geometry": { "type": "Point", "coordinates": [ 71.462261579808498, 51.1200941867138 ] } },
{ "type": "Feature", "properties": { "Purpose": "Для автомобилей", "Name": null, "LevelCount": 0, "HouseId": null, "MinCpcty": "20", "MaxCpcty": "20", "Charged": 0, "ParkingAcc": "Для резидентов", "Synonym": null, "ParkingTer": "70030076334299285", "Id": "70030076192213077", "X": 71.46327254000001, "Y": 51.13529215 }, "geometry": { "type": "Point", "coordinates": [ 71.463272543829248, 51.135292151761007 ] } },
{ "type": "Feature", "properties": { "Purpose": "Для автомобилей", "Name": null, "LevelCount": 0, "HouseId": null, "MinCpcty": "10", "MaxCpcty": "10", "Charged": 0, "ParkingAcc": "Общедоступная", "Synonym": null, "ParkingTer": null, "Id": "70030076192213078", "X": 71.46424452, "Y": 51.1346181 }, "geometry": { "type": "Point", "coordinates": [ 71.464244520966673, 51.134618100592796 ] } },
{ "type": "Feature", "properties": { "Purpose": "Для автомобилей", "Name": null, "LevelCount": 0, "HouseId": null, "MinCpcty": "10", "MaxCpcty": "10", "Charged": 0, "ParkingAcc": "Общедоступная", "Synonym": null, "ParkingTer": "70030076288666038", "Id": "70030076192213079", "X": 71.46754457, "Y": 51.13403705 }, "geometry": { "type": "Point", "coordinates": [ 71.467544571994409, 51.134037049089763 ] } },
{ "type": "Feature", "properties": { "Purpose": "Для автомобилей", "Name": null, "LevelCount": 0, "HouseId": null, "MinCpcty": "15", "MaxCpcty": "15", "Charged": 0, "ParkingAcc": "Общедоступная", "Synonym": null, "ParkingTer": "70030076658598892", "Id": "70030076213309740", "X": 71.46525396, "Y": 51.11892201 }, "geometry": { "type": "Point", "coordinates": [ 71.465253957851417, 51.118922012204472 ] } },
{ "type": "Feature", "properties": { "Purpose": "Для автомобилей", "Name": null, "LevelCount": 0, "HouseId": null, "MinCpcty": "6", "MaxCpcty": "6", "Charged": 0, "ParkingAcc": "Общедоступная", "Synonym": null, "ParkingTer": null, "Id": "70030076213309741", "X": 71.46328799, "Y": 51.11918799 }, "geometry": { "type": "Point", "coordinates": [ 71.463287994852138, 51.119187992644484 ] } },
{ "type": "Feature", "properties": { "Purpose": "Для автомобилей", "Name": null, "LevelCount": 0, "HouseId": null, "MinCpcty": "20", "MaxCpcty": "20", "Charged": 0, "ParkingAcc": "Общедоступная", "Synonym": null, "ParkingTer": "70030076658608725", "Id": "70030076213309742", "X": 71.46288896, "Y": 51.11951402 }, "geometry": { "type": "Point", "coordinates": [ 71.462888963202928, 51.119514023819143 ] } },
{ "type": "Feature", "properties": { "Purpose": "Для автомобилей", "Name": null, "LevelCount": 0, "HouseId": null, "MinCpcty": "12", "MaxCpcty": "12", "Charged": 0, "ParkingAcc": "Общедоступная", "Synonym": null, "ParkingTer": "70030076658600677", "Id": "70030076213309743", "X": 71.46385304, "Y": 51.11908604 }, "geometry": { "type": "Point", "coordinates": [ 71.46385303516584, 51.119086043994514 ] } },
{ "type": "Feature", "properties": { "Purpose": "Для автомобилей", "Name": null, "LevelCount": 0, "HouseId": null, "MinCpcty": "10", "MaxCpcty": "10", "Charged": 0, "ParkingAcc": "Общедоступная", "Synonym": null, "ParkingTer": "70030076334300227", "Id": "70030076213309745", "X": 71.46607699, "Y": 51.11994403 }, "geometry": { "type": "Point", "coordinates": [ 71.466076994314733, 51.119944029594706 ] } },
{ "type": "Feature", "properties": { "Purpose": "Для автомобилей", "Name": null, "LevelCount": 0, "HouseId": null, "MinCpcty": "20", "MaxCpcty": "20", "Charged": 0, "ParkingAcc": "Для резидентов", "Synonym": null, "ParkingTer": "70030076658589415", "Id": "70030076213309754", "X": 71.456103, "Y": 51.11980904 }, "geometry": { "type": "Point", "coordinates": [ 71.456102999715156, 51.119809040014339 ] } },
{ "type": "Feature", "properties": { "Purpose": "Для автомобилей", "Name": null, "LevelCount": 0, "HouseId": null, "MinCpcty": "10", "MaxCpcty": "10", "Charged": 0, "ParkingAcc": "Общедоступная", "Synonym": null, "ParkingTer": "70030076371478524", "Id": "70030076201632013", "X": 71.46465155, "Y": 51.13191763 }, "geometry": { "type": "Point", "coordinates": [ 71.464651547621912, 51.13191762599871 ] } },
{ "type": "Feature", "properties": { "Purpose": "Для автомобилей", "Name": null, "LevelCount": 0, "HouseId": null, "MinCpcty": "15", "MaxCpcty": "15", "Charged": 0, "ParkingAcc": "Общедоступная", "Synonym": null, "ParkingTer": "70030076201721993", "Id": "70030076201722009", "X": 71.46477965, "Y": 51.13021251 }, "geometry": { "type": "Point", "coordinates": [ 71.464779647381405, 51.130212512829765 ] } },
{ "type": "Feature", "properties": { "Purpose": "Для автомобилей", "Name": null, "LevelCount": 0, "HouseId": null, "MinCpcty": "9", "MaxCpcty": "9", "Charged": 0, "ParkingAcc": "Общедоступная", "Synonym": null, "ParkingTer": "70030076201799787", "Id": "70030076201799794", "X": 71.46077065, "Y": 51.120342 }, "geometry": { "type": "Point", "coordinates": [ 71.460770645931433, 51.120342004098688 ] } },
{ "type": "Feature", "properties": { "Purpose": "Для автомобилей", "Name": null, "LevelCount": 0, "HouseId": null, "MinCpcty": "15", "MaxCpcty": "15", "Charged": 0, "ParkingAcc": "Для резидентов", "Synonym": null, "ParkingTer": null, "Id": "70030076242237199", "X": 71.46524857, "Y": 51.13562213 }, "geometry": { "type": "Point", "coordinates": [ 71.465248567959719, 51.135622127730066 ] } },
{ "type": "Feature", "properties": { "Purpose": "Для автомобилей", "Name": null, "LevelCount": 0, "HouseId": null, "MinCpcty": "12", "MaxCpcty": "12", "Charged": 0, "ParkingAcc": "Общедоступная", "Synonym": null, "ParkingTer": "70030076334300356", "Id": "70030076242237201", "X": 71.46706757, "Y": 51.13568712 }, "geometry": { "type": "Point", "coordinates": [ 71.467067566578535, 51.13568711930251 ] } },
{ "type": "Feature", "properties": { "Purpose": "Для автомобилей", "Name": null, "LevelCount": 0, "HouseId": null, "MinCpcty": "15", "MaxCpcty": "15", "Charged": 0, "ParkingAcc": "Общедоступная", "Synonym": null, "ParkingTer": "70030076266895500", "Id": "70030076266895720", "X": 71.46095282, "Y": 51.12747271 }, "geometry": { "type": "Point", "coordinates": [ 71.460952824271061, 51.127472711103671 ] } },
{ "type": "Feature", "properties": { "Purpose": "Для автомобилей", "Name": null, "LevelCount": 0, "HouseId": null, "MinCpcty": "4", "MaxCpcty": "4", "Charged": 0, "ParkingAcc": "Общедоступная", "Synonym": null, "ParkingTer": "70030077042401171", "Id": "70030076272382663", "X": 71.46412487000001, "Y": 51.13114335 }, "geometry": { "type": "Point", "coordinates": [ 71.464124865370835, 51.131143351083921 ] } },
{ "type": "Feature", "properties": { "Purpose": "Для автомобилей", "Name": null, "LevelCount": 0, "HouseId": null, "MinCpcty": "9", "MaxCpcty": "9", "Charged": 0, "ParkingAcc": "Общедоступная", "Synonym": null, "ParkingTer": null, "Id": "70030076321613366", "X": 71.46285653, "Y": 51.13532214 }, "geometry": { "type": "Point", "coordinates": [ 71.462856534021157, 51.135322139425135 ] } },
{ "type": "Feature", "properties": { "Purpose": "Для автомобилей", "Name": null, "LevelCount": 0, "HouseId": null, "MinCpcty": "25", "MaxCpcty": "25", "Charged": 0, "ParkingAcc": "Для резидентов", "Synonym": null, "ParkingTer": "70030076321629402", "Id": "70030076321629897", "X": 71.46416996000001, "Y": 51.13569603 }, "geometry": { "type": "Point", "coordinates": [ 71.464169960798074, 51.135696025339136 ] } },
{ "type": "Feature", "properties": { "Purpose": "Для автомобилей", "Name": null, "LevelCount": 0, "HouseId": null, "MinCpcty": "50", "MaxCpcty": "50", "Charged": 0, "ParkingAcc": "Общедоступная", "Synonym": null, "ParkingTer": "70030076324089675", "Id": "70030076324089806", "X": 71.45988374, "Y": 51.13315249 }, "geometry": { "type": "Point", "coordinates": [ 71.459883739251424, 51.133152492930918 ] } },
{ "type": "Feature", "properties": { "Purpose": "Для автомобилей", "Name": null, "LevelCount": 0, "HouseId": null, "MinCpcty": "4", "MaxCpcty": "4", "Charged": 0, "ParkingAcc": "Для такси", "Synonym": null, "ParkingTer": "70030076129972806", "Id": "70030076358626267", "X": 71.43853411000001, "Y": 51.12632959 }, "geometry": { "type": "Point", "coordinates": [ 71.438534108714464, 51.126329589742141 ] } },
{ "type": "Feature", "properties": { "Purpose": "Для автомобилей", "Name": null, "LevelCount": 0, "HouseId": null, "MinCpcty": "5", "MaxCpcty": "5", "Charged": 0, "ParkingAcc": "Для резидентов", "Synonym": null, "ParkingTer": "70030077042391356", "Id": "70030076370331053", "X": 71.46738674, "Y": 51.1306153 }, "geometry": { "type": "Point", "coordinates": [ 71.467386737998993, 51.130615303366937 ] } },
{ "type": "Feature", "properties": { "Purpose": "Для автомобилей", "Name": null, "LevelCount": 0, "HouseId": null, "MinCpcty": "10", "MaxCpcty": "10", "Charged": 0, "ParkingAcc": "Общедоступная", "Synonym": null, "ParkingTer": "70030076371494712", "Id": "70030076370331061", "X": 71.46805535, "Y": 51.13404083 }, "geometry": { "type": "Point", "coordinates": [ 71.468055354064958, 51.134040825835406 ] } },
{ "type": "Feature", "properties": { "Purpose": "Для автомобилей", "Name": null, "LevelCount": 0, "HouseId": "70030076307859610", "MinCpcty": "150", "MaxCpcty": "150", "Charged": 0, "ParkingAcc": "Общедоступная", "Synonym": null, "ParkingTer": null, "Id": "70030076453181372", "X": 71.46380084, "Y": 51.11815186 }, "geometry": { "type": "Point", "coordinates": [ 71.463800843047835, 51.118151861348991 ] } },
{ "type": "Feature", "properties": { "Purpose": "Для автомобилей", "Name": null, "LevelCount": 0, "HouseId": "9570784863363476", "MinCpcty": "70", "MaxCpcty": "70", "Charged": 0, "ParkingAcc": "Для резидентов", "Synonym": null, "ParkingTer": null, "Id": "70030076453181406", "X": 71.45567019000001, "Y": 51.1199402 }, "geometry": { "type": "Point", "coordinates": [ 71.455670191411272, 51.119940195309638 ] } },
{ "type": "Feature", "properties": { "Purpose": "Для автомобилей", "Name": null, "LevelCount": 0, "HouseId": "9570784863364485", "MinCpcty": "100", "MaxCpcty": "100", "Charged": 0, "ParkingAcc": "Общедоступная", "Synonym": null, "ParkingTer": null, "Id": "70030076453181440", "X": 71.46464499, "Y": 51.11916933 }, "geometry": { "type": "Point", "coordinates": [ 71.46464498992033, 51.119169328389667 ] } },
{ "type": "Feature", "properties": { "Purpose": "Для автомобилей", "Name": null, "LevelCount": 0, "HouseId": "9570784863334862", "MinCpcty": "90", "MaxCpcty": "90", "Charged": 0, "ParkingAcc": "Общедоступная", "Synonym": null, "ParkingTer": null, "Id": "70030076453182116", "X": 71.4596032, "Y": 51.13106279 }, "geometry": { "type": "Point", "coordinates": [ 71.459603195388212, 51.131062794178632 ] } },
{ "type": "Feature", "properties": { "Purpose": "Для автомобилей", "Name": null, "LevelCount": 0, "HouseId": null, "MinCpcty": "150", "MaxCpcty": "150", "Charged": 0, "ParkingAcc": "Для резидентов", "Synonym": null, "ParkingTer": null, "Id": "70030076453183132", "X": 71.45909798, "Y": 51.11972502 }, "geometry": { "type": "Point", "coordinates": [ 71.459097982872422, 51.119725023743868 ] } },
{ "type": "Feature", "properties": { "Purpose": "Для автомобилей", "Name": null, "LevelCount": 0, "HouseId": "9570784863344615", "MinCpcty": "70", "MaxCpcty": "70", "Charged": 0, "ParkingAcc": "Общедоступная", "Synonym": null, "ParkingTer": null, "Id": "70030076453184452", "X": 71.45977154000001, "Y": 51.12852645 }, "geometry": { "type": "Point", "coordinates": [ 71.459771539672445, 51.128526448193682 ] } },
{ "type": "Feature", "properties": { "Purpose": "Для автомобилей", "Name": null, "LevelCount": 0, "HouseId": null, "MinCpcty": "15", "MaxCpcty": "15", "Charged": 0, "ParkingAcc": "Общедоступная", "Synonym": null, "ParkingTer": "70030076459658564", "Id": "70030076459614579", "X": 71.46588754, "Y": 51.1353501 }, "geometry": { "type": "Point", "coordinates": [ 71.46588753962132, 51.135350097831278 ] } },
{ "type": "Feature", "properties": { "Purpose": "Для автомобилей", "Name": null, "LevelCount": 0, "HouseId": null, "MinCpcty": "5", "MaxCpcty": "5", "Charged": 0, "ParkingAcc": "Общедоступная", "Synonym": null, "ParkingTer": null, "Id": "70030076459614580", "X": 71.46614554, "Y": 51.13434212 }, "geometry": { "type": "Point", "coordinates": [ 71.46614553577092, 51.134342118951224 ] } },
{ "type": "Feature", "properties": { "Purpose": "Для автомобилей", "Name": null, "LevelCount": 0, "HouseId": null, "MinCpcty": "10", "MaxCpcty": "10", "Charged": 0, "ParkingAcc": "Общедоступная", "Synonym": null, "ParkingTer": null, "Id": "70030076459614582", "X": 71.46245553, "Y": 51.13519114 }, "geometry": { "type": "Point", "coordinates": [ 71.462455526078344, 51.135191140538531 ] } },
{ "type": "Feature", "properties": { "Purpose": "Для автомобилей", "Name": null, "LevelCount": 0, "HouseId": null, "MinCpcty": "5", "MaxCpcty": "5", "Charged": 0, "ParkingAcc": "Общедоступная", "Synonym": null, "ParkingTer": null, "Id": "70030076475602960", "X": 71.45544409, "Y": 51.12016969 }, "geometry": { "type": "Point", "coordinates": [ 71.455444085454261, 51.12016968798735 ] } },
{ "type": "Feature", "properties": { "Purpose": "Для автомобилей", "Name": null, "LevelCount": 0, "HouseId": null, "MinCpcty": "75", "MaxCpcty": "75", "Charged": 0, "ParkingAcc": "Общедоступная", "Synonym": null, "ParkingTer": "70030076475603333", "Id": "70030076475603351", "X": 71.45847204, "Y": 51.11873407 }, "geometry": { "type": "Point", "coordinates": [ 71.458472036782425, 51.118734071317974 ] } },
{ "type": "Feature", "properties": { "Purpose": "Для автомобилей", "Name": null, "LevelCount": 0, "HouseId": null, "MinCpcty": "30", "MaxCpcty": "30", "Charged": 0, "ParkingAcc": "Для резидентов", "Synonym": null, "ParkingTer": "70030076918565179", "Id": "70030076474408468", "X": 71.46169223, "Y": 51.13248179 }, "geometry": { "type": "Point", "coordinates": [ 71.461692227581437, 51.132481792802643 ] } },
{ "type": "Feature", "properties": { "Purpose": "Для автомобилей", "Name": null, "LevelCount": 0, "HouseId": null, "MinCpcty": "14", "MaxCpcty": "14", "Charged": 0, "ParkingAcc": "Общедоступная", "Synonym": null, "ParkingTer": "70030076918568126", "Id": "70030076474408471", "X": 71.46181772, "Y": 51.13213934 }, "geometry": { "type": "Point", "coordinates": [ 71.461817722226598, 51.132139336257239 ] } },
{ "type": "Feature", "properties": { "Purpose": "Для автомобилей", "Name": null, "LevelCount": 0, "HouseId": null, "MinCpcty": "16", "MaxCpcty": "16", "Charged": 0, "ParkingAcc": "Общедоступная", "Synonym": null, "ParkingTer": "70030076527613493", "Id": "70030076527613667", "X": 71.46381117, "Y": 51.12657895 }, "geometry": { "type": "Point", "coordinates": [ 71.463811173673605, 51.126578952274265 ] } },
{ "type": "Feature", "properties": { "Purpose": "Для автомобилей", "Name": null, "LevelCount": 0, "HouseId": null, "MinCpcty": "7", "MaxCpcty": "7", "Charged": 0, "ParkingAcc": "Общедоступная", "Synonym": null, "ParkingTer": null, "Id": "70030076527613922", "X": 71.46401842, "Y": 51.12683739 }, "geometry": { "type": "Point", "coordinates": [ 71.464018415009662, 51.126837390339723 ] } },
{ "type": "Feature", "properties": { "Purpose": "Для автомобилей", "Name": null, "LevelCount": 0, "HouseId": null, "MinCpcty": "13", "MaxCpcty": "13", "Charged": 0, "ParkingAcc": "Для резидентов", "Synonym": null, "ParkingTer": "70030076535420553", "Id": "70030076535420597", "X": 71.46858931, "Y": 51.12727477 }, "geometry": { "type": "Point", "coordinates": [ 71.468589312669849, 51.127274769792066 ] } },
{ "type": "Feature", "properties": { "Purpose": "Для автомобилей", "Name": null, "LevelCount": 0, "HouseId": null, "MinCpcty": "20", "MaxCpcty": "20", "Charged": 0, "ParkingAcc": "Общедоступная", "Synonym": null, "ParkingTer": "70030076535423388", "Id": "70030076535423584", "X": 71.46838584, "Y": 51.12596014 }, "geometry": { "type": "Point", "coordinates": [ 71.46838584425798, 51.125960138324722 ] } },
{ "type": "Feature", "properties": { "Purpose": "Для автомобилей", "Name": null, "LevelCount": 0, "HouseId": null, "MinCpcty": "10", "MaxCpcty": "10", "Charged": 0, "ParkingAcc": "Общедоступная", "Synonym": null, "ParkingTer": "70030076537963239", "Id": "70030076537929057", "X": 71.46604843, "Y": 51.13233675 }, "geometry": { "type": "Point", "coordinates": [ 71.466048427888694, 51.132336749377487 ] } },
{ "type": "Feature", "properties": { "Purpose": "Для автомобилей", "Name": null, "LevelCount": 0, "HouseId": "9570784863349889", "MinCpcty": "5", "MaxCpcty": "5", "Charged": 0, "ParkingAcc": "Общедоступная", "Synonym": null, "ParkingTer": null, "Id": "70030076655114148", "X": 71.46524102, "Y": 51.11807201 }, "geometry": { "type": "Point", "coordinates": [ 71.465241022111343, 51.118072014838305 ] } },
{ "type": "Feature", "properties": { "Purpose": "Для автомобилей", "Name": null, "LevelCount": 0, "HouseId": null, "MinCpcty": "15", "MaxCpcty": "15", "Charged": 0, "ParkingAcc": "Общедоступная", "Synonym": null, "ParkingTer": "70030076658600828", "Id": "70030076655114152", "X": 71.46425701, "Y": 51.11880495 }, "geometry": { "type": "Point", "coordinates": [ 71.464257007549122, 51.11880495100403 ] } },
{ "type": "Feature", "properties": { "Purpose": "Для автомобилей", "Name": null, "LevelCount": 0, "HouseId": null, "MinCpcty": "16", "MaxCpcty": "16", "Charged": 0, "ParkingAcc": "Для резидентов", "Synonym": null, "ParkingTer": "70030076894606682", "Id": "70030076655114153", "X": 71.45707498, "Y": 51.11927703 }, "geometry": { "type": "Point", "coordinates": [ 71.457074976852581, 51.119277028366589 ] } },
{ "type": "Feature", "properties": { "Purpose": "Для автомобилей", "Name": null, "LevelCount": 0, "HouseId": null, "MinCpcty": "8", "MaxCpcty": "8", "Charged": 0, "ParkingAcc": "Общедоступная", "Synonym": null, "ParkingTer": "70030076658600557", "Id": "70030076655114162", "X": 71.46466897000001, "Y": 51.11899199 }, "geometry": { "type": "Point", "coordinates": [ 71.464668974938405, 51.118991989398914 ] } },
{ "type": "Feature", "properties": { "Purpose": "Для автомобилей", "Name": null, "LevelCount": 0, "HouseId": null, "MinCpcty": "6", "MaxCpcty": "6", "Charged": 0, "ParkingAcc": "Общедоступная", "Synonym": null, "ParkingTer": null, "Id": "70030076655114163", "X": 71.46577103, "Y": 51.11887803 }, "geometry": { "type": "Point", "coordinates": [ 71.46577102812897, 51.118878029707304 ] } },
{ "type": "Feature", "properties": { "Purpose": "Для автомобилей", "Name": null, "LevelCount": 0, "HouseId": null, "MinCpcty": "2", "MaxCpcty": "2", "Charged": 0, "ParkingAcc": "Общедоступная", "Synonym": null, "ParkingTer": null, "Id": "70030076675851099", "X": 71.46182158000001, "Y": 51.13475412 }, "geometry": { "type": "Point", "coordinates": [ 71.461821584982332, 51.134754117898773 ] } },
{ "type": "Feature", "properties": { "Purpose": "Для автомобилей", "Name": null, "LevelCount": 0, "HouseId": null, "MinCpcty": "5", "MaxCpcty": "5", "Charged": 0, "ParkingAcc": "Общедоступная", "Synonym": null, "ParkingTer": null, "Id": "70030076675851102", "X": 71.46532457000001, "Y": 51.13491313 }, "geometry": { "type": "Point", "coordinates": [ 71.465324565432752, 51.134913133064273 ] } },
{ "type": "Feature", "properties": { "Purpose": "Для автомобилей", "Name": null, "LevelCount": 0, "HouseId": null, "MinCpcty": "20", "MaxCpcty": "20", "Charged": 0, "ParkingAcc": "Общедоступная", "Synonym": null, "ParkingTer": "70030076787102867", "Id": "70030076786396018", "X": 71.46196639, "Y": 51.13353694 }, "geometry": { "type": "Point", "coordinates": [ 71.461966393406144, 51.133536937595203 ] } },
{ "type": "Feature", "properties": { "Purpose": "Для автомобилей", "Name": null, "LevelCount": 0, "HouseId": null, "MinCpcty": "30", "MaxCpcty": "30", "Charged": 0, "ParkingAcc": "Общедоступная", "Synonym": null, "ParkingTer": "70030076787076170", "Id": "70030076786396019", "X": 71.46389984, "Y": 51.13089937 }, "geometry": { "type": "Point", "coordinates": [ 71.463899837392162, 51.13089936864661 ] } },
{ "type": "Feature", "properties": { "Purpose": "Для автомобилей", "Name": null, "LevelCount": 0, "HouseId": null, "MinCpcty": "2", "MaxCpcty": "2", "Charged": 0, "ParkingAcc": "Для электроавтомобилей", "Synonym": null, "ParkingTer": null, "Id": "70030076823479365", "X": 71.4411023, "Y": 51.12210826 }, "geometry": { "type": "Point", "coordinates": [ 71.441102302280228, 51.122108263567029 ] } },
{ "type": "Feature", "properties": { "Purpose": "Для автомобилей", "Name": null, "LevelCount": 0, "HouseId": null, "MinCpcty": "2", "MaxCpcty": "2", "Charged": 1, "ParkingAcc": "Для электроавтомобилей", "Synonym": null, "ParkingTer": "70030076823479187", "Id": "70030076823484413", "X": 71.44094438, "Y": 51.1219708 }, "geometry": { "type": "Point", "coordinates": [ 71.440944378453295, 51.121970799411507 ] } },
{ "type": "Feature", "properties": { "Purpose": "Для автомобилей", "Name": null, "LevelCount": 0, "HouseId": null, "MinCpcty": "20", "MaxCpcty": "20", "Charged": 0, "ParkingAcc": "Для резидентов", "Synonym": null, "ParkingTer": "70030076894607140", "Id": "70030076893003411", "X": 71.45716804, "Y": 51.11954498 }, "geometry": { "type": "Point", "coordinates": [ 71.457168042316013, 51.119544980308831 ] } },
{ "type": "Feature", "properties": { "Purpose": "Для автомобилей", "Name": null, "LevelCount": 0, "HouseId": null, "MinCpcty": "15", "MaxCpcty": "15", "Charged": 0, "ParkingAcc": "Для резидентов", "Synonym": null, "ParkingTer": "70030076894605436", "Id": "70030076893003423", "X": 71.46068198, "Y": 51.11917299 }, "geometry": { "type": "Point", "coordinates": [ 71.460681982212904, 51.119172993576235 ] } },
{ "type": "Feature", "properties": { "Purpose": "Для автомобилей", "Name": null, "LevelCount": 0, "HouseId": null, "MinCpcty": "9", "MaxCpcty": "9", "Charged": 0, "ParkingAcc": "Для резидентов", "Synonym": null, "ParkingTer": null, "Id": "70030076893003433", "X": 71.45784501, "Y": 51.11965804 }, "geometry": { "type": "Point", "coordinates": [ 71.457845012714131, 51.119658036165063 ] } },
{ "type": "Feature", "properties": { "Purpose": "Для автомобилей", "Name": null, "LevelCount": 0, "HouseId": null, "MinCpcty": "6", "MaxCpcty": "6", "Charged": 0, "ParkingAcc": "Общедоступная", "Synonym": null, "ParkingTer": null, "Id": "70030076893003435", "X": 71.46113554, "Y": 51.12034206 }, "geometry": { "type": "Point", "coordinates": [ 71.461135541599859, 51.120342060484759 ] } },
{ "type": "Feature", "properties": { "Purpose": "Для автомобилей", "Name": null, "LevelCount": 0, "HouseId": null, "MinCpcty": "3", "MaxCpcty": "3", "Charged": 0, "ParkingAcc": "Общедоступная", "Synonym": null, "ParkingTer": null, "Id": "70030076893003479", "X": 71.46268199, "Y": 51.11896701 }, "geometry": { "type": "Point", "coordinates": [ 71.462681991361464, 51.118967009639015 ] } },
{ "type": "Feature", "properties": { "Purpose": "Для автомобилей", "Name": null, "LevelCount": 0, "HouseId": null, "MinCpcty": "20", "MaxCpcty": "20", "Charged": 0, "ParkingAcc": "Общедоступная", "Synonym": null, "ParkingTer": "70030076894614308", "Id": "70030076893003484", "X": 71.46345104, "Y": 51.11880901 }, "geometry": { "type": "Point", "coordinates": [ 71.463451039076205, 51.118809010935024 ] } },
{ "type": "Feature", "properties": { "Purpose": "Для автомобилей", "Name": null, "LevelCount": 0, "HouseId": null, "MinCpcty": "20", "MaxCpcty": "20", "Charged": 0, "ParkingAcc": "Общедоступная", "Synonym": null, "ParkingTer": "70030076894611404", "Id": "70030076893003454", "X": 71.46196648, "Y": 51.11821333 }, "geometry": { "type": "Point", "coordinates": [ 71.46196648323766, 51.118213325023824 ] } },
{ "type": "Feature", "properties": { "Purpose": "Для автомобилей", "Name": null, "LevelCount": 0, "HouseId": "70030076143969950", "MinCpcty": "150", "MaxCpcty": "150", "Charged": 0, "ParkingAcc": "Для резидентов", "Synonym": null, "ParkingTer": null, "Id": "70030076911391527", "X": 71.45996333, "Y": 51.12013157 }, "geometry": { "type": "Point", "coordinates": [ 71.459963329985612, 51.120131570854944 ] } },
{ "type": "Feature", "properties": { "Purpose": "Для автомобилей", "Name": null, "LevelCount": 0, "HouseId": "70030076261391675", "MinCpcty": "100", "MaxCpcty": "100", "Charged": 0, "ParkingAcc": "Для резидентов", "Synonym": null, "ParkingTer": null, "Id": "70030076916022418", "X": 71.46154266000001, "Y": 51.13298682 }, "geometry": { "type": "Point", "coordinates": [ 71.461542658086614, 51.13298681996924 ] } },
{ "type": "Feature", "properties": { "Purpose": "Для автомобилей", "Name": null, "LevelCount": 0, "HouseId": null, "MinCpcty": "8", "MaxCpcty": "8", "Charged": 0, "ParkingAcc": "Общедоступная", "Synonym": null, "ParkingTer": "70030077042405481", "Id": "70030076916022424", "X": 71.46232258000001, "Y": 51.13351991 }, "geometry": { "type": "Point", "coordinates": [ 71.46232257541628, 51.133519913866941 ] } },
{ "type": "Feature", "properties": { "Purpose": "Для автомобилей", "Name": null, "LevelCount": 0, "HouseId": "70030076471828010", "MinCpcty": "80", "MaxCpcty": "80", "Charged": 0, "ParkingAcc": "Для резидентов", "Synonym": null, "ParkingTer": null, "Id": "70030076949204635", "X": 71.46619836000001, "Y": 51.13266359 }, "geometry": { "type": "Point", "coordinates": [ 71.466198356709626, 51.132663589689855 ] } },
{ "type": "Feature", "properties": { "Purpose": "Для автомобилей", "Name": null, "LevelCount": 0, "HouseId": null, "MinCpcty": "15", "MaxCpcty": "15", "Charged": 0, "ParkingAcc": "Для резидентов", "Synonym": null, "ParkingTer": "70030076982659325", "Id": "70030076982659396", "X": 71.45934376, "Y": 51.1300815 }, "geometry": { "type": "Point", "coordinates": [ 71.45934376193415, 51.130081499447193 ] } },
{ "type": "Feature", "properties": { "Purpose": "Для автомобилей", "Name": null, "LevelCount": 0, "HouseId": null, "MinCpcty": "40", "MaxCpcty": "40", "Charged": 0, "ParkingAcc": "Общедоступная", "Synonym": null, "ParkingTer": "70030077033937937", "Id": "70030077033924007", "X": 71.46596201, "Y": 51.13333603 }, "geometry": { "type": "Point", "coordinates": [ 71.465962009958375, 51.133336034653773 ] } },
{ "type": "Feature", "properties": { "Purpose": "Для автомобилей", "Name": null, "LevelCount": 0, "HouseId": null, "MinCpcty": "18", "MaxCpcty": "18", "Charged": 0, "ParkingAcc": "Общедоступная", "Synonym": null, "ParkingTer": "70030077045589367", "Id": "70030077045491729", "X": 71.46157203, "Y": 51.13350999 }, "geometry": { "type": "Point", "coordinates": [ 71.461572032996401, 51.133509992750881 ] } },
{ "type": "Feature", "properties": { "Purpose": "Для автомобилей", "Name": null, "LevelCount": 0, "HouseId": null, "MinCpcty": "3", "MaxCpcty": "3", "Charged": 0, "ParkingAcc": "Для резидентов", "Synonym": null, "ParkingTer": null, "Id": "70030077045491732", "X": 71.45996504, "Y": 51.130338 }, "geometry": { "type": "Point", "coordinates": [ 71.459965036784652, 51.130338001203121 ] } },
{ "type": "Feature", "properties": { "Purpose": "Для автомобилей", "Name": null, "LevelCount": 0, "HouseId": null, "MinCpcty": "30", "MaxCpcty": "30", "Charged": 0, "ParkingAcc": "Для резидентов", "Synonym": null, "ParkingTer": "70030077045595135", "Id": "70030077045491733", "X": 71.46048202, "Y": 51.13059298 }, "geometry": { "type": "Point", "coordinates": [ 71.460482017230646, 51.130592979448714 ] } },
{ "type": "Feature", "properties": { "Purpose": "Для автомобилей", "Name": null, "LevelCount": 0, "HouseId": null, "MinCpcty": "30", "MaxCpcty": "30", "Charged": 0, "ParkingAcc": "Общедоступная", "Synonym": null, "ParkingTer": "70030077112436440", "Id": "70030077045491735", "X": 71.46454402000001, "Y": 51.130307 }, "geometry": { "type": "Point", "coordinates": [ 71.464544019282386, 51.130306995572063 ] } },
{ "type": "Feature", "properties": { "Purpose": "Для автомобилей", "Name": null, "LevelCount": 0, "HouseId": null, "MinCpcty": "8", "MaxCpcty": "8", "Charged": 0, "ParkingAcc": "Для резидентов", "Synonym": null, "ParkingTer": null, "Id": "70030077065459915", "X": 71.464712, "Y": 51.13562596 }, "geometry": { "type": "Point", "coordinates": [ 71.464712004240525, 51.135625960713462 ] } },
{ "type": "Feature", "properties": { "Purpose": "Для автомобилей", "Name": null, "LevelCount": 0, "HouseId": null, "MinCpcty": "4", "MaxCpcty": "4", "Charged": 0, "ParkingAcc": "Общедоступная", "Synonym": null, "ParkingTer": null, "Id": "70030077069148959", "X": 71.45926202, "Y": 51.12742197 }, "geometry": { "type": "Point", "coordinates": [ 71.459262015243297, 51.127421971457835 ] } },
{ "type": "Feature", "properties": { "Purpose": "Для автомобилей", "Name": null, "LevelCount": 0, "HouseId": null, "MinCpcty": "4", "MaxCpcty": "4", "Charged": 0, "ParkingAcc": "Общедоступная", "Synonym": null, "ParkingTer": null, "Id": "70030077069148963", "X": 71.461635, "Y": 51.126761 }, "geometry": { "type": "Point", "coordinates": [ 71.461635004897829, 51.126760997912022 ] } },
{ "type": "Feature", "properties": { "Purpose": "Для автомобилей", "Name": "3679", "LevelCount": 0, "HouseId": null, "MinCpcty": "40", "MaxCpcty": "40", "Charged": 1, "ParkingAcc": "Общедоступная", "Synonym": null, "ParkingTer": "70030076915043885", "Id": "70030077076879061", "X": 71.45639235, "Y": 51.12098728 }, "geometry": { "type": "Point", "coordinates": [ 71.456392347068174, 51.120987281627698 ] } },
{ "type": "Feature", "properties": { "Purpose": "Для автомобилей", "Name": null, "LevelCount": 0, "HouseId": null, "MinCpcty": "10", "MaxCpcty": "10", "Charged": 0, "ParkingAcc": "Общедоступная", "Synonym": null, "ParkingTer": null, "Id": "70030077101150630", "X": 71.46680903, "Y": 51.13255998 }, "geometry": { "type": "Point", "coordinates": [ 71.466809031439766, 51.13255997964464 ] } },
{ "type": "Feature", "properties": { "Purpose": "Для автомобилей", "Name": null, "LevelCount": 0, "HouseId": null, "MinCpcty": "16", "MaxCpcty": "16", "Charged": 0, "ParkingAcc": "Для резидентов", "Synonym": null, "ParkingTer": "70030077112427408", "Id": "70030077112232339", "X": 71.46026301000001, "Y": 51.13078397 }, "geometry": { "type": "Point", "coordinates": [ 71.460263007964386, 51.130783972622474 ] } },
{ "type": "Feature", "properties": { "Purpose": "Для автомобилей", "Name": null, "LevelCount": 0, "HouseId": null, "MinCpcty": "20", "MaxCpcty": "20", "Charged": 0, "ParkingAcc": "Общедоступная", "Synonym": null, "ParkingTer": "70030077112436045", "Id": "70030077112232340", "X": 71.46166402, "Y": 51.13397899 }, "geometry": { "type": "Point", "coordinates": [ 71.461664020481507, 51.133978988632855 ] } },
{ "type": "Feature", "properties": { "Purpose": "Для автомобилей", "Name": null, "LevelCount": 0, "HouseId": null, "MinCpcty": "10", "MaxCpcty": "10", "Charged": 0, "ParkingAcc": "Общедоступная", "Synonym": null, "ParkingTer": "70030077112436094", "Id": "70030077112232341", "X": 71.46341699, "Y": 51.13178199 }, "geometry": { "type": "Point", "coordinates": [ 71.463416992926938, 51.131781994942031 ] } },
{ "type": "Feature", "properties": { "Purpose": "Для автомобилей", "Name": "Место высадки Пирамида", "LevelCount": 0, "HouseId": null, "MinCpcty": "1", "MaxCpcty": "1", "Charged": 0, "ParkingAcc": "Место высадки (без иконки на карте)", "Synonym": null, "ParkingTer": null, "Id": "70030077119075208", "X": 71.46795061, "Y": 51.12251468 }, "geometry": { "type": "Point", "coordinates": [ 71.467950610502825, 51.122514676938735 ] } },
{ "type": "Feature", "properties": { "Purpose": "Для автомобилей", "Name": null, "LevelCount": 0, "HouseId": null, "MinCpcty": "10", "MaxCpcty": "10", "Charged": 0, "ParkingAcc": "Общедоступная", "Synonym": null, "ParkingTer": null, "Id": "70030077147162019", "X": 71.46191088, "Y": 51.12874417 }, "geometry": { "type": "Point", "coordinates": [ 71.461910877521575, 51.128744172051469 ] } },
{ "type": "Feature", "properties": { "Purpose": "Для автомобилей", "Name": null, "LevelCount": 0, "HouseId": null, "MinCpcty": "1", "MaxCpcty": "1", "Charged": 0, "ParkingAcc": "Для резидентов", "Synonym": null, "ParkingTer": null, "Id": "70030077148635402", "X": 71.45896404, "Y": 51.130242 }, "geometry": { "type": "Point", "coordinates": [ 71.458964044063563, 51.130241996427017 ] } },
{ "type": "Feature", "properties": { "Purpose": "Для автомобилей", "Name": null, "LevelCount": 0, "HouseId": null, "MinCpcty": "3", "MaxCpcty": "3", "Charged": 0, "ParkingAcc": "Общедоступная", "Synonym": null, "ParkingTer": null, "Id": "70030077148635407", "X": 71.46191303000001, "Y": 51.13328705 }, "geometry": { "type": "Point", "coordinates": [ 71.461913033478268, 51.133287048927492 ] } },
{ "type": "Feature", "properties": { "Purpose": "Для автомобилей", "Name": null, "LevelCount": 0, "HouseId": null, "MinCpcty": "4", "MaxCpcty": "4", "Charged": 0, "ParkingAcc": "Общедоступная", "Synonym": null, "ParkingTer": null, "Id": "70030077148635415", "X": 71.46106925, "Y": 51.13299088 }, "geometry": { "type": "Point", "coordinates": [ 71.461069245931881, 51.132990878653878 ] } },
{ "type": "Feature", "properties": { "Purpose": "Для автомобилей", "Name": null, "LevelCount": 0, "HouseId": null, "MinCpcty": "6", "MaxCpcty": "6", "Charged": 0, "ParkingAcc": "Общедоступная", "Synonym": null, "ParkingTer": "70030077148818845", "Id": "70030077148635418", "X": 71.46161039, "Y": 51.13029617 }, "geometry": { "type": "Point", "coordinates": [ 71.461610391059054, 51.130296171783222 ] } },
{ "type": "Feature", "properties": { "Purpose": "Для автомобилей", "Name": null, "LevelCount": 0, "HouseId": null, "MinCpcty": "15", "MaxCpcty": "15", "Charged": 0, "ParkingAcc": "Общедоступная", "Synonym": null, "ParkingTer": "70030077148819023", "Id": "70030077148635422", "X": 71.46403926000001, "Y": 51.12927585 }, "geometry": { "type": "Point", "coordinates": [ 71.464039255924234, 51.129275849173069 ] } },
{ "type": "Feature", "properties": { "Purpose": "Для автомобилей", "Name": null, "LevelCount": 0, "HouseId": null, "MinCpcty": "40", "MaxCpcty": "40", "Charged": 0, "ParkingAcc": "Общедоступная", "Synonym": null, "ParkingTer": "70030077148746029", "Id": "70030077148635438", "X": 71.46224038, "Y": 51.12914731 }, "geometry": { "type": "Point", "coordinates": [ 71.462240379567788, 51.129147313646982 ] } },
{ "type": "Feature", "properties": { "Purpose": "Для автомобилей", "Name": null, "LevelCount": 0, "HouseId": null, "MinCpcty": "5", "MaxCpcty": "5", "Charged": 0, "ParkingAcc": "Общедоступная", "Synonym": null, "ParkingTer": null, "Id": "70030077148635442", "X": 71.46349604, "Y": 51.12896404 }, "geometry": { "type": "Point", "coordinates": [ 71.463496044671928, 51.12896403715316 ] } },
{ "type": "Feature", "properties": { "Purpose": "Для автомобилей", "Name": null, "LevelCount": 0, "HouseId": null, "MinCpcty": "8", "MaxCpcty": "8", "Charged": 0, "ParkingAcc": "Общедоступная", "Synonym": null, "ParkingTer": "70030077148819203", "Id": "70030077148635451", "X": 71.46307006000001, "Y": 51.13000241 }, "geometry": { "type": "Point", "coordinates": [ 71.463070063564217, 51.130002406420594 ] } },
{ "type": "Feature", "properties": { "Purpose": "Для автомобилей", "Name": null, "LevelCount": 0, "HouseId": null, "MinCpcty": "15", "MaxCpcty": "15", "Charged": 0, "ParkingAcc": "Общедоступная", "Synonym": null, "ParkingTer": null, "Id": "70030077150537385", "X": 71.466243, "Y": 51.11913798 }, "geometry": { "type": "Point", "coordinates": [ 71.46624300297924, 51.119137976935583 ] } },
{ "type": "Feature", "properties": { "Purpose": "Для автомобилей", "Name": null, "LevelCount": 0, "HouseId": null, "MinCpcty": "20", "MaxCpcty": "20", "Charged": 0, "ParkingAcc": "Общедоступная", "Synonym": null, "ParkingTer": null, "Id": "70030077150537632", "X": 71.45668098, "Y": 51.11929299 }, "geometry": { "type": "Point", "coordinates": [ 71.456680975768961, 51.119292985985794 ] } },
{ "type": "Feature", "properties": { "Purpose": "Для автомобилей", "Name": null, "LevelCount": 0, "HouseId": null, "MinCpcty": "10", "MaxCpcty": "10", "Charged": 0, "ParkingAcc": "Общедоступная", "Synonym": null, "ParkingTer": null, "Id": "70030077150537633", "X": 71.45686801, "Y": 51.11949902 }, "geometry": { "type": "Point", "coordinates": [ 71.456868005011117, 51.119499024856751 ] } },
{ "type": "Feature", "properties": { "Purpose": "Для автомобилей", "Name": null, "LevelCount": 0, "HouseId": null, "MinCpcty": "15", "MaxCpcty": "15", "Charged": 0, "ParkingAcc": "Для резидентов", "Synonym": null, "ParkingTer": null, "Id": "70030077150537835", "X": 71.45867901, "Y": 51.11936302 }, "geometry": { "type": "Point", "coordinates": [ 71.458679008623903, 51.119363019005604 ] } },
{ "type": "Feature", "properties": { "Purpose": "Для автомобилей", "Name": null, "LevelCount": 0, "HouseId": null, "MinCpcty": null, "MaxCpcty": null, "Charged": 1, "ParkingAcc": "Для электроавтомобилей", "Synonym": null, "ParkingTer": "70030077155144824", "Id": "70030077155145414", "X": 71.45610201, "Y": 51.12102692 }, "geometry": { "type": "Point", "coordinates": [ 71.456102011568348, 51.121026920455051 ] } },
{ "type": "Feature", "properties": { "Purpose": "Для автомобилей", "Name": null, "LevelCount": 0, "HouseId": "9570784863343890", "MinCpcty": null, "MaxCpcty": null, "Charged": 1, "ParkingAcc": "Для электроавтомобилей", "Synonym": null, "ParkingTer": null, "Id": "70030077157993431", "X": 71.46162809, "Y": 51.12803992 }, "geometry": { "type": "Point", "coordinates": [ 71.461628087870139, 51.128039920172377 ] } },
{ "type": "Feature", "properties": { "Purpose": "Для автомобилей", "Name": null, "LevelCount": 0, "HouseId": null, "MinCpcty": "50", "MaxCpcty": "50", "Charged": 0, "ParkingAcc": "Общедоступная", "Synonym": null, "ParkingTer": "70030077159383662", "Id": "70030077159034646", "X": 71.46401599, "Y": 51.13515997 }, "geometry": { "type": "Point", "coordinates": [ 71.464015989558391, 51.135159969061981 ] } },
{ "type": "Feature", "properties": { "Purpose": "Для автомобилей", "Name": null, "LevelCount": 0, "HouseId": null, "MinCpcty": null, "MaxCpcty": null, "Charged": 1, "ParkingAcc": "Для электроавтомобилей", "Synonym": null, "ParkingTer": "70030077165368578", "Id": "70030077165368615", "X": 71.4597012, "Y": 51.12992546 }, "geometry": { "type": "Point", "coordinates": [ 71.459701201585702, 51.129925455484226 ] } },
{ "type": "Feature", "properties": { "Purpose": "Для автомобилей", "Name": null, "LevelCount": 0, "HouseId": null, "MinCpcty": "2", "MaxCpcty": "2", "Charged": 1, "ParkingAcc": "Для электроавтомобилей", "Synonym": null, "ParkingTer": "70030077165403826", "Id": "70030077165403786", "X": 71.46894873, "Y": 51.12755158 }, "geometry": { "type": "Point", "coordinates": [ 71.468948728615004, 51.127551582953615 ] } },
{ "type": "Feature", "properties": { "Purpose": "Для автомобилей", "Name": null, "LevelCount": 0, "HouseId": "70030077130539499", "MinCpcty": null, "MaxCpcty": null, "Charged": 1, "ParkingAcc": "Для электроавтомобилей", "Synonym": null, "ParkingTer": null, "Id": "70030077166767133", "X": 71.46116725, "Y": 51.11886472 }, "geometry": { "type": "Point", "coordinates": [ 71.461167252129385, 51.118864722174258 ] } },
{ "type": "Feature", "properties": { "Purpose": "Для велосипедов", "Name": null, "LevelCount": 0, "HouseId": null, "MinCpcty": "10", "MaxCpcty": "10", "Charged": 0, "ParkingAcc": "Общедоступная", "Synonym": null, "ParkingTer": null, "Id": "70030077112232337", "X": 71.45930001000001, "Y": 51.13103399 }, "geometry": { "type": "Point", "coordinates": [ 71.459300013979814, 51.131033987581496 ] } },
{ "type": "Feature", "properties": { "Purpose": "Для велосипедов", "Name": null, "LevelCount": 0, "HouseId": null, "MinCpcty": "10", "MaxCpcty": "10", "Charged": 0, "ParkingAcc": "Общедоступная", "Synonym": null, "ParkingTer": null, "Id": "70030077112232338", "X": 71.459362, "Y": 51.13116004 }, "geometry": { "type": "Point", "coordinates": [ 71.459361997734419, 51.131160037451203 ] } },
{ "type": "Feature", "properties": { "Purpose": "Для велосипедов", "Name": null, "LevelCount": 0, "HouseId": null, "MinCpcty": "12", "MaxCpcty": "12", "Charged": 0, "ParkingAcc": "Общедоступная", "Synonym": null, "ParkingTer": null, "Id": "70030077122271153", "X": 71.46270301, "Y": 51.13521701 }, "geometry": { "type": "Point", "coordinates": [ 71.462703011939112, 51.135217013411769 ] } },
{ "type": "Feature", "properties": { "Purpose": "Для велосипедов", "Name": null, "LevelCount": 0, "HouseId": null, "MinCpcty": "5", "MaxCpcty": "5", "Charged": 0, "ParkingAcc": "Общедоступная", "Synonym": null, "ParkingTer": null, "Id": "70030077018902040", "X": 71.45516399, "Y": 51.11983701 }, "geometry": { "type": "Point", "coordinates": [ 71.455163990748673, 51.119837007812762 ] } },
{ "type": "Feature", "properties": { "Purpose": "Для велосипедов", "Name": null, "LevelCount": 0, "HouseId": null, "MinCpcty": "10", "MaxCpcty": "10", "Charged": 0, "ParkingAcc": "Общедоступная", "Synonym": null, "ParkingTer": null, "Id": "70030077018902053", "X": 71.46425737, "Y": 51.11985742 }, "geometry": { "type": "Point", "coordinates": [ 71.464257366875216, 51.119857419783983 ] } },
{ "type": "Feature", "properties": { "Purpose": "Для велосипедов", "Name": null, "LevelCount": 0, "HouseId": null, "MinCpcty": "15", "MaxCpcty": "15", "Charged": 0, "ParkingAcc": "Общедоступная", "Synonym": null, "ParkingTer": null, "Id": "70030077018902061", "X": 71.46427821, "Y": 51.11939967 }, "geometry": { "type": "Point", "coordinates": [ 71.464278207789818, 51.119399670704738 ] } },
{ "type": "Feature", "properties": { "Purpose": "Для велосипедов", "Name": null, "LevelCount": 0, "HouseId": null, "MinCpcty": "5", "MaxCpcty": "5", "Charged": 0, "ParkingAcc": "Для резидентов", "Synonym": null, "ParkingTer": null, "Id": "70030076955838069", "X": 71.46534954000001, "Y": 51.12613114 }, "geometry": { "type": "Point", "coordinates": [ 71.465349538597664, 51.126131136120577 ] } },
{ "type": "Feature", "properties": { "Purpose": "Для велосипедов", "Name": null, "LevelCount": 0, "HouseId": null, "MinCpcty": "5", "MaxCpcty": "5", "Charged": 0, "ParkingAcc": "Для резидентов", "Synonym": null, "ParkingTer": null, "Id": "70030076955838071", "X": 71.46550854, "Y": 51.12608214 }, "geometry": { "type": "Point", "coordinates": [ 71.465508540402951, 51.126082142751535 ] } },
{ "type": "Feature", "properties": { "Purpose": "Для велосипедов", "Name": null, "LevelCount": 0, "HouseId": null, "MinCpcty": "10", "MaxCpcty": "10", "Charged": 0, "ParkingAcc": "Для резидентов", "Synonym": null, "ParkingTer": null, "Id": "70030076955838072", "X": 71.46483759, "Y": 51.12626013 }, "geometry": { "type": "Point", "coordinates": [ 71.464837588717245, 51.126260131071597 ] } },
{ "type": "Feature", "properties": { "Purpose": "Для велосипедов", "Name": null, "LevelCount": 0, "HouseId": null, "MinCpcty": "12", "MaxCpcty": "12", "Charged": 0, "ParkingAcc": "Общедоступная", "Synonym": null, "ParkingTer": null, "Id": "70030076930603773", "X": 71.46732961, "Y": 51.13518218 }, "geometry": { "type": "Point", "coordinates": [ 71.467329605146915, 51.135182178036587 ] } },
{ "type": "Feature", "properties": { "Purpose": "Для велосипедов", "Name": null, "LevelCount": 0, "HouseId": null, "MinCpcty": "10", "MaxCpcty": "10", "Charged": 0, "ParkingAcc": "Общедоступная", "Synonym": null, "ParkingTer": null, "Id": "70030076893003469", "X": 71.46523985, "Y": 51.11833496 }, "geometry": { "type": "Point", "coordinates": [ 71.465239854301473, 51.118334955192559 ] } },
{ "type": "Feature", "properties": { "Purpose": "Для велосипедов", "Name": null, "LevelCount": 0, "HouseId": null, "MinCpcty": "12", "MaxCpcty": "12", "Charged": 0, "ParkingAcc": "Общедоступная", "Synonym": null, "ParkingTer": null, "Id": "70030076893003451", "X": 71.4657642, "Y": 51.1197659 }, "geometry": { "type": "Point", "coordinates": [ 71.46576420093281, 51.119765904163017 ] } },
{ "type": "Feature", "properties": { "Purpose": "Для велосипедов", "Name": null, "LevelCount": 0, "HouseId": null, "MinCpcty": "5", "MaxCpcty": "5", "Charged": 0, "ParkingAcc": "Для резидентов", "Synonym": null, "ParkingTer": null, "Id": "70030076893003392", "X": 71.45514297, "Y": 51.11966102 }, "geometry": { "type": "Point", "coordinates": [ 71.455142970171011, 51.119661024670236 ] } },
{ "type": "Feature", "properties": { "Purpose": "Для велосипедов", "Name": null, "LevelCount": 0, "HouseId": null, "MinCpcty": "10", "MaxCpcty": "10", "Charged": 0, "ParkingAcc": "Для резидентов", "Synonym": null, "ParkingTer": null, "Id": "70030076893003405", "X": 71.4562143, "Y": 51.11951075 }, "geometry": { "type": "Point", "coordinates": [ 71.456214300978871, 51.119510753369127 ] } },
{ "type": "Feature", "properties": { "Purpose": "Для велосипедов", "Name": null, "LevelCount": 0, "HouseId": null, "MinCpcty": "10", "MaxCpcty": "10", "Charged": 0, "ParkingAcc": "Для резидентов", "Synonym": null, "ParkingTer": "9571222985589665", "Id": "70030076892561218", "X": 71.46820304000001, "Y": 51.128526 }, "geometry": { "type": "Point", "coordinates": [ 71.468203037097666, 51.128525997185143 ] } },
{ "type": "Feature", "properties": { "Purpose": "Для велосипедов", "Name": null, "LevelCount": 0, "HouseId": null, "MinCpcty": "5", "MaxCpcty": "5", "Charged": 0, "ParkingAcc": "Общедоступная", "Synonym": null, "ParkingTer": null, "Id": "70030076892561219", "X": 71.46518802, "Y": 51.12896703 }, "geometry": { "type": "Point", "coordinates": [ 71.465188021509562, 51.128967025056298 ] } },
{ "type": "Feature", "properties": { "Purpose": "Для велосипедов", "Name": null, "LevelCount": 0, "HouseId": null, "MinCpcty": "5", "MaxCpcty": "5", "Charged": 0, "ParkingAcc": "Общедоступная", "Synonym": null, "ParkingTer": null, "Id": "70030076816302916", "X": 71.46552561, "Y": 51.13604313 }, "geometry": { "type": "Point", "coordinates": [ 71.465525608393349, 51.136043133960051 ] } },
{ "type": "Feature", "properties": { "Purpose": "Для велосипедов", "Name": null, "LevelCount": 0, "HouseId": null, "MinCpcty": "6", "MaxCpcty": "6", "Charged": 0, "ParkingAcc": "Общедоступная", "Synonym": null, "ParkingTer": null, "Id": "70030076786396012", "X": 71.46052801, "Y": 51.13253202 }, "geometry": { "type": "Point", "coordinates": [ 71.460528010973206, 51.132532019549089 ] } },
{ "type": "Feature", "properties": { "Purpose": "Для велосипедов", "Name": null, "LevelCount": 0, "HouseId": null, "MinCpcty": "6", "MaxCpcty": "6", "Charged": 0, "ParkingAcc": "Общедоступная", "Synonym": null, "ParkingTer": null, "Id": "70030076786396013", "X": 71.46062197000001, "Y": 51.13283 }, "geometry": { "type": "Point", "coordinates": [ 71.460621974751916, 51.132829996631791 ] } },
{ "type": "Feature", "properties": { "Purpose": "Для велосипедов", "Name": null, "LevelCount": 0, "HouseId": null, "MinCpcty": "10", "MaxCpcty": "10", "Charged": 0, "ParkingAcc": "Общедоступная", "Synonym": null, "ParkingTer": null, "Id": "70030076738329177", "X": 71.45787403, "Y": 51.12779502 }, "geometry": { "type": "Point", "coordinates": [ 71.457874028297809, 51.127795019307925 ] } },
{ "type": "Feature", "properties": { "Purpose": "Для велосипедов", "Name": null, "LevelCount": 0, "HouseId": null, "MinCpcty": "10", "MaxCpcty": "10", "Charged": 0, "ParkingAcc": "Общедоступная", "Synonym": null, "ParkingTer": null, "Id": "70030076738329178", "X": 71.45779902, "Y": 51.127813 }, "geometry": { "type": "Point", "coordinates": [ 71.457799018971571, 51.127813003554628 ] } },
{ "type": "Feature", "properties": { "Purpose": "Для велосипедов", "Name": null, "LevelCount": 0, "HouseId": null, "MinCpcty": "5", "MaxCpcty": "5", "Charged": 0, "ParkingAcc": "Общедоступная", "Synonym": null, "ParkingTer": null, "Id": "70030076738329179", "X": 71.45781797, "Y": 51.12785495 }, "geometry": { "type": "Point", "coordinates": [ 71.457817973424071, 51.127854947977404 ] } },
{ "type": "Feature", "properties": { "Purpose": "Для велосипедов", "Name": null, "LevelCount": 0, "HouseId": null, "MinCpcty": "10", "MaxCpcty": "10", "Charged": 0, "ParkingAcc": "Общедоступная", "Synonym": null, "ParkingTer": null, "Id": "70030077150537590", "X": 71.46445203, "Y": 51.119305 }, "geometry": { "type": "Point", "coordinates": [ 71.464452031797293, 51.119304996487074 ] } },
{ "type": "Feature", "properties": { "Purpose": "Для велосипедов", "Name": null, "LevelCount": 0, "HouseId": null, "MinCpcty": "10", "MaxCpcty": "10", "Charged": 0, "ParkingAcc": "Общедоступная", "Synonym": null, "ParkingTer": null, "Id": "70030077150537617", "X": 71.46564401000001, "Y": 51.11919498 }, "geometry": { "type": "Point", "coordinates": [ 71.465644006347802, 51.11919498468967 ] } },
{ "type": "Feature", "properties": { "Purpose": "Для велосипедов", "Name": null, "LevelCount": 0, "HouseId": null, "MinCpcty": "12", "MaxCpcty": "12", "Charged": 0, "ParkingAcc": "Общедоступная", "Synonym": null, "ParkingTer": null, "Id": "70030077150537620", "X": 71.46513996, "Y": 51.11775798 }, "geometry": { "type": "Point", "coordinates": [ 71.465139961641881, 51.117757984390956 ] } },
{ "type": "Feature", "properties": { "Purpose": "Для велосипедов", "Name": null, "LevelCount": 0, "HouseId": null, "MinCpcty": "10", "MaxCpcty": "10", "Charged": 0, "ParkingAcc": "Общедоступная", "Synonym": null, "ParkingTer": null, "Id": "70030077150537624", "X": 71.46504501, "Y": 51.11828201 }, "geometry": { "type": "Point", "coordinates": [ 71.465045009716334, 51.118282006354555 ] } },
{ "type": "Feature", "properties": { "Purpose": "Для велосипедов", "Name": null, "LevelCount": 0, "HouseId": null, "MinCpcty": "10", "MaxCpcty": "10", "Charged": 0, "ParkingAcc": "Общедоступная", "Synonym": null, "ParkingTer": null, "Id": "70030077150537626", "X": 71.46474003, "Y": 51.11816804 }, "geometry": { "type": "Point", "coordinates": [ 71.46474003167738, 51.118168044911663 ] } },
{ "type": "Feature", "properties": { "Purpose": "Для велосипедов", "Name": null, "LevelCount": 0, "HouseId": null, "MinCpcty": "10", "MaxCpcty": "10", "Charged": 0, "ParkingAcc": "Общедоступная", "Synonym": null, "ParkingTer": null, "Id": "70030077150537628", "X": 71.46285096, "Y": 51.11848297 }, "geometry": { "type": "Point", "coordinates": [ 71.462850964466412, 51.118482974785124 ] } },
{ "type": "Feature", "properties": { "Purpose": "Для велосипедов", "Name": null, "LevelCount": 0, "HouseId": null, "MinCpcty": "10", "MaxCpcty": "10", "Charged": 0, "ParkingAcc": "Общедоступная", "Synonym": null, "ParkingTer": null, "Id": "70030077150537631", "X": 71.46238698000001, "Y": 51.11856699 }, "geometry": { "type": "Point", "coordinates": [ 71.462386984622171, 51.11856699331431 ] } },
{ "type": "Feature", "properties": { "Purpose": "Для велосипедов", "Name": null, "LevelCount": 0, "HouseId": null, "MinCpcty": "10", "MaxCpcty": "10", "Charged": 0, "ParkingAcc": "Общедоступная", "Synonym": null, "ParkingTer": null, "Id": "70030076222718889", "X": 71.44465945, "Y": 51.13134624 }, "geometry": { "type": "Point", "coordinates": [ 71.444659451142286, 51.131346236606888 ] } },
{ "type": "Feature", "properties": { "Purpose": "Для велосипедов", "Name": null, "LevelCount": 0, "HouseId": null, "MinCpcty": "6", "MaxCpcty": "6", "Charged": 0, "ParkingAcc": "Общедоступная", "Synonym": null, "ParkingTer": null, "Id": "70030076221193991", "X": 71.46499066, "Y": 51.12902261 }, "geometry": { "type": "Point", "coordinates": [ 71.46499066164165, 51.129022611294708 ] } },
{ "type": "Feature", "properties": { "Purpose": "Для велосипедов", "Name": null, "LevelCount": 0, "HouseId": "9570784863324136", "MinCpcty": "10", "MaxCpcty": "10", "Charged": 0, "ParkingAcc": "Общедоступная", "Synonym": null, "ParkingTer": null, "Id": "70030076168394951", "X": 71.44100367, "Y": 51.1260491 }, "geometry": { "type": "Point", "coordinates": [ 71.441003667262038, 51.12604910461603 ] } },
{ "type": "Feature", "properties": { "Purpose": "Для велосипедов", "Name": null, "LevelCount": 0, "HouseId": null, "MinCpcty": "5", "MaxCpcty": "5", "Charged": 0, "ParkingAcc": "Общедоступная", "Synonym": null, "ParkingTer": null, "Id": "70030076167271455", "X": 71.44206997000001, "Y": 51.13074801 }, "geometry": { "type": "Point", "coordinates": [ 71.442069967504281, 51.130748006435837 ] } },
{ "type": "Feature", "properties": { "Purpose": "Для велосипедов", "Name": null, "LevelCount": 0, "HouseId": null, "MinCpcty": "5", "MaxCpcty": "5", "Charged": 0, "ParkingAcc": "Общедоступная", "Synonym": null, "ParkingTer": null, "Id": "70030076167271528", "X": 71.44055604, "Y": 51.12343998 }, "geometry": { "type": "Point", "coordinates": [ 71.440556036755964, 51.123439975732545 ] } },
{ "type": "Feature", "properties": { "Purpose": "Для велосипедов", "Name": null, "LevelCount": 0, "HouseId": null, "MinCpcty": "5", "MaxCpcty": "5", "Charged": 0, "ParkingAcc": "Общедоступная", "Synonym": null, "ParkingTer": null, "Id": "70030076167271535", "X": 71.44000402, "Y": 51.12329902 }, "geometry": { "type": "Point", "coordinates": [ 71.440004022013866, 51.123299019828224 ] } },
{ "type": "Feature", "properties": { "Purpose": "Для велосипедов", "Name": null, "LevelCount": 0, "HouseId": null, "MinCpcty": "4", "MaxCpcty": "4", "Charged": 0, "ParkingAcc": "Общедоступная", "Synonym": null, "ParkingTer": null, "Id": "70030076167271604", "X": 71.44496596, "Y": 51.12876402 }, "geometry": { "type": "Point", "coordinates": [ 71.444965956317233, 51.128764016329264 ] } },
{ "type": "Feature", "properties": { "Purpose": "Для велосипедов", "Name": null, "LevelCount": 0, "HouseId": null, "MinCpcty": "10", "MaxCpcty": "10", "Charged": 0, "ParkingAcc": "Общедоступная", "Synonym": null, "ParkingTer": null, "Id": "70030076163844334", "X": 71.43877719, "Y": 51.12275397 }, "geometry": { "type": "Point", "coordinates": [ 71.438777192830344, 51.122753967490191 ] } },
{ "type": "Feature", "properties": { "Purpose": "Для велосипедов", "Name": null, "LevelCount": 0, "HouseId": null, "MinCpcty": "10", "MaxCpcty": "10", "Charged": 0, "ParkingAcc": "Общедоступная", "Synonym": null, "ParkingTer": null, "Id": "70030076163844426", "X": 71.44192318, "Y": 51.12917584 }, "geometry": { "type": "Point", "coordinates": [ 71.441923182786866, 51.129175839544629 ] } },
{ "type": "Feature", "properties": { "Purpose": "Для велосипедов", "Name": null, "LevelCount": 0, "HouseId": null, "MinCpcty": "4", "MaxCpcty": "4", "Charged": 0, "ParkingAcc": "Общедоступная", "Synonym": null, "ParkingTer": null, "Id": "70030076321630120", "X": 71.4645018, "Y": 51.13587837 }, "geometry": { "type": "Point", "coordinates": [ 71.464501798464042, 51.135878373243031 ] } },
{ "type": "Feature", "properties": { "Purpose": "Для велосипедов", "Name": null, "LevelCount": 0, "HouseId": null, "MinCpcty": "8", "MaxCpcty": "8", "Charged": 0, "ParkingAcc": "Общедоступная", "Synonym": null, "ParkingTer": "70030076172651470", "Id": "70030076316090321", "X": 71.46485699, "Y": 51.12949701 }, "geometry": { "type": "Point", "coordinates": [ 71.46485699232737, 51.129497008365952 ] } },
{ "type": "Feature", "properties": { "Purpose": "Для велосипедов", "Name": null, "LevelCount": 0, "HouseId": null, "MinCpcty": "8", "MaxCpcty": "8", "Charged": 0, "ParkingAcc": "Общедоступная", "Synonym": null, "ParkingTer": null, "Id": "70030076316090324", "X": 71.46503504, "Y": 51.12924101 }, "geometry": { "type": "Point", "coordinates": [ 71.465035038416687, 51.12924100931582 ] } },
{ "type": "Feature", "properties": { "Purpose": "Для велосипедов", "Name": null, "LevelCount": 0, "HouseId": null, "MinCpcty": "8", "MaxCpcty": "8", "Charged": 0, "ParkingAcc": "Общедоступная", "Synonym": null, "ParkingTer": null, "Id": "70030076475165501", "X": 71.46481801, "Y": 51.12925302 }, "geometry": { "type": "Point", "coordinates": [ 71.464818005444045, 51.129253017230745 ] } },
{ "type": "Feature", "properties": { "Purpose": "Для велосипедов", "Name": null, "LevelCount": 0, "HouseId": null, "MinCpcty": "12", "MaxCpcty": "12", "Charged": 0, "ParkingAcc": "Общедоступная", "Synonym": null, "ParkingTer": null, "Id": "70030076655114154", "X": 71.46547045, "Y": 51.11925791 }, "geometry": { "type": "Point", "coordinates": [ 71.465470451834904, 51.119257913048699 ] } },
{ "type": "Feature", "properties": { "Purpose": "Для велосипедов", "Name": null, "LevelCount": 0, "HouseId": null, "MinCpcty": "6", "MaxCpcty": "6", "Charged": 0, "ParkingAcc": "Общедоступная", "Synonym": null, "ParkingTer": null, "Id": "70030076631554122", "X": 71.44859497, "Y": 51.13125897 }, "geometry": { "type": "Point", "coordinates": [ 71.448594970402013, 51.131258971700959 ] } },
{ "type": "Feature", "properties": { "Purpose": "Для автомобилей", "Name": null, "LevelCount": 0, "HouseId": null, "MinCpcty": "20", "MaxCpcty": "20", "Charged": 0, "ParkingAcc": "Общедоступная", "Synonym": null, "ParkingTer": "70030076129805331", "Id": "9571205800840824", "X": 71.40552596000001, "Y": 51.19457328 }, "geometry": { "type": "Point", "coordinates": [ 71.405525962757125, 51.194573280254595 ] } },
{ "type": "Feature", "properties": { "Purpose": "Для автомобилей", "Name": "2270", "LevelCount": 0, "HouseId": null, "MinCpcty": "18", "MaxCpcty": "18", "Charged": 1, "ParkingAcc": "Общедоступная", "Synonym": null, "ParkingTer": "70030076129917728", "Id": "9571205804164905", "X": 71.40644413, "Y": 51.19550113 }, "geometry": { "type": "Point", "coordinates": [ 71.406444130809035, 51.195501131838078 ] } },
{ "type": "Feature", "properties": { "Purpose": "Для автомобилей", "Name": null, "LevelCount": 0, "HouseId": null, "MinCpcty": "13", "MaxCpcty": "13", "Charged": 0, "ParkingAcc": "Общедоступная", "Synonym": null, "ParkingTer": "70030076129920136", "Id": "9571205804333254", "X": 71.40863943, "Y": 51.19386812 }, "geometry": { "type": "Point", "coordinates": [ 71.408639433700358, 51.193868118569483 ] } },
{ "type": "Feature", "properties": { "Purpose": "Для автомобилей", "Name": null, "LevelCount": 0, "HouseId": null, "MinCpcty": "20", "MaxCpcty": "20", "Charged": 1, "ParkingAcc": "Общедоступная", "Synonym": null, "ParkingTer": "70030076129920182", "Id": "9571205804333970", "X": 71.40758957, "Y": 51.1957347 }, "geometry": { "type": "Point", "coordinates": [ 71.407589572627799, 51.195734696193185 ] } },
{ "type": "Feature", "properties": { "Purpose": "Для автомобилей", "Name": "2271", "LevelCount": 0, "HouseId": null, "MinCpcty": "25", "MaxCpcty": "25", "Charged": 1, "ParkingAcc": "Общедоступная", "Synonym": null, "ParkingTer": "70030076134310055", "Id": "70030076134310070", "X": 71.408168, "Y": 51.19481664 }, "geometry": { "type": "Point", "coordinates": [ 71.408167997839257, 51.194816644663625 ] } },
{ "type": "Feature", "properties": { "Purpose": "Для автомобилей", "Name": null, "LevelCount": 0, "HouseId": null, "MinCpcty": "10", "MaxCpcty": "10", "Charged": 0, "ParkingAcc": "Для резидентов", "Synonym": null, "ParkingTer": "70030076147117460", "Id": "70030076147117467", "X": 71.40267606, "Y": 51.19563765 }, "geometry": { "type": "Point", "coordinates": [ 71.402676057518264, 51.195637645252795 ] } },
{ "type": "Feature", "properties": { "Purpose": "Для автомобилей", "Name": null, "LevelCount": 0, "HouseId": null, "MinCpcty": "30", "MaxCpcty": "30", "Charged": 0, "ParkingAcc": "Общедоступная", "Synonym": null, "ParkingTer": "70030076178610917", "Id": "70030076178610919", "X": 71.40797217, "Y": 51.1943325 }, "geometry": { "type": "Point", "coordinates": [ 71.40797216510731, 51.194332504162553 ] } },
{ "type": "Feature", "properties": { "Purpose": "Для автомобилей", "Name": null, "LevelCount": 0, "HouseId": null, "MinCpcty": "5", "MaxCpcty": "5", "Charged": 0, "ParkingAcc": "Общедоступная", "Synonym": null, "ParkingTer": null, "Id": "70030076169927256", "X": 71.40593209, "Y": 51.19548053 }, "geometry": { "type": "Point", "coordinates": [ 71.405932091097085, 51.195480528128805 ] } },
{ "type": "Feature", "properties": { "Purpose": "Для автомобилей", "Name": null, "LevelCount": 0, "HouseId": null, "MinCpcty": "10", "MaxCpcty": "10", "Charged": 0, "ParkingAcc": "Общедоступная", "Synonym": null, "ParkingTer": "70030076169927301", "Id": "70030076169927303", "X": 71.40489014000001, "Y": 51.19628812 }, "geometry": { "type": "Point", "coordinates": [ 71.404890135199025, 51.196288119081721 ] } },
{ "type": "Feature", "properties": { "Purpose": "Для автомобилей", "Name": null, "LevelCount": 0, "HouseId": null, "MinCpcty": "4", "MaxCpcty": "4", "Charged": 0, "ParkingAcc": "Для резидентов", "Synonym": null, "ParkingTer": null, "Id": "70030076320648058", "X": 71.40614266, "Y": 51.19631379 }, "geometry": { "type": "Point", "coordinates": [ 71.406142656199691, 51.196313788825528 ] } },
{ "type": "Feature", "properties": { "Purpose": "Для автомобилей", "Name": null, "LevelCount": 0, "HouseId": null, "MinCpcty": "7", "MaxCpcty": "7", "Charged": 0, "ParkingAcc": "Общедоступная", "Synonym": null, "ParkingTer": null, "Id": "70030076320648071", "X": 71.40605866, "Y": 51.19687379 }, "geometry": { "type": "Point", "coordinates": [ 71.406058663720614, 51.196873790992598 ] } },
{ "type": "Feature", "properties": { "Purpose": "Для автомобилей", "Name": null, "LevelCount": 0, "HouseId": null, "MinCpcty": "15", "MaxCpcty": "15", "Charged": 0, "ParkingAcc": "Общедоступная", "Synonym": null, "ParkingTer": "70030076320973039", "Id": "70030076320973057", "X": 71.4045715, "Y": 51.19529729 }, "geometry": { "type": "Point", "coordinates": [ 71.404571502767752, 51.195297289817269 ] } },
{ "type": "Feature", "properties": { "Purpose": "Для автомобилей", "Name": null, "LevelCount": 0, "HouseId": null, "MinCpcty": "15", "MaxCpcty": "15", "Charged": 0, "ParkingAcc": "Общедоступная", "Synonym": null, "ParkingTer": "70030076320973476", "Id": "70030076320973505", "X": 71.404113, "Y": 51.19512238 }, "geometry": { "type": "Point", "coordinates": [ 71.404113002646753, 51.195122382398942 ] } },
{ "type": "Feature", "properties": { "Purpose": "Для автомобилей", "Name": null, "LevelCount": 0, "HouseId": null, "MinCpcty": "20", "MaxCpcty": "20", "Charged": 0, "ParkingAcc": "Общедоступная", "Synonym": null, "ParkingTer": "70030076320974847", "Id": "70030076320974870", "X": 71.40524479, "Y": 51.19706338 }, "geometry": { "type": "Point", "coordinates": [ 71.405244790073212, 51.197063384072159 ] } },
{ "type": "Feature", "properties": { "Purpose": "Для автомобилей", "Name": null, "LevelCount": 0, "HouseId": null, "MinCpcty": "30", "MaxCpcty": "30", "Charged": 0, "ParkingAcc": "Для резидентов", "Synonym": null, "ParkingTer": "70030076320974966", "Id": "70030076320974999", "X": 71.40281134, "Y": 51.19586958 }, "geometry": { "type": "Point", "coordinates": [ 71.402811343800053, 51.195869576394969 ] } },
{ "type": "Feature", "properties": { "Purpose": "Для автомобилей", "Name": null, "LevelCount": 0, "HouseId": null, "MinCpcty": "3", "MaxCpcty": "3", "Charged": 0, "ParkingAcc": "Общедоступная", "Synonym": null, "ParkingTer": null, "Id": "70030076750659504", "X": 71.40542562, "Y": 51.19612881 }, "geometry": { "type": "Point", "coordinates": [ 71.40542562093988, 51.196128808729163 ] } },
{ "type": "Feature", "properties": { "Purpose": "Для автомобилей", "Name": null, "LevelCount": 0, "HouseId": null, "MinCpcty": "3", "MaxCpcty": "3", "Charged": 0, "ParkingAcc": "Общедоступная", "Synonym": null, "ParkingTer": null, "Id": "70030076750659509", "X": 71.40601662, "Y": 51.19572777 }, "geometry": { "type": "Point", "coordinates": [ 71.406016622565318, 51.19572777203193 ] } },
{ "type": "Feature", "properties": { "Purpose": "Для автомобилей", "Name": null, "LevelCount": 0, "HouseId": null, "MinCpcty": "8", "MaxCpcty": "8", "Charged": 0, "ParkingAcc": "Общедоступная", "Synonym": null, "ParkingTer": null, "Id": "70030076750659517", "X": 71.40592302, "Y": 51.19466296 }, "geometry": { "type": "Point", "coordinates": [ 71.405923018112716, 51.194662958753369 ] } },
{ "type": "Feature", "properties": { "Purpose": "Для автомобилей", "Name": null, "LevelCount": 0, "HouseId": null, "MinCpcty": "4", "MaxCpcty": "4", "Charged": 0, "ParkingAcc": "Общедоступная", "Synonym": null, "ParkingTer": null, "Id": "70030076750659523", "X": 71.40669701, "Y": 51.19483196 }, "geometry": { "type": "Point", "coordinates": [ 71.406697006561515, 51.194831956931374 ] } },
{ "type": "Feature", "properties": { "Purpose": "Для автомобилей", "Name": null, "LevelCount": 0, "HouseId": null, "MinCpcty": "30", "MaxCpcty": "30", "Charged": 0, "ParkingAcc": "Общедоступная", "Synonym": null, "ParkingTer": "70030076131821345", "Id": "70030076952943840", "X": 71.40739769, "Y": 51.19606897 }, "geometry": { "type": "Point", "coordinates": [ 71.407397692483116, 51.196068968691165 ] } },
{ "type": "Feature", "properties": { "Purpose": "Для автомобилей", "Name": null, "LevelCount": 0, "HouseId": null, "MinCpcty": "4", "MaxCpcty": "4", "Charged": 0, "ParkingAcc": "Общедоступная", "Synonym": null, "ParkingTer": null, "Id": "70030076952378094", "X": 71.40674264, "Y": 51.19399281 }, "geometry": { "type": "Point", "coordinates": [ 71.406742640977953, 51.193992814639344 ] } },
{ "type": "Feature", "properties": { "Purpose": "Для автомобилей", "Name": null, "LevelCount": 0, "HouseId": null, "MinCpcty": "6", "MaxCpcty": "6", "Charged": 0, "ParkingAcc": "Общедоступная", "Synonym": null, "ParkingTer": "70030077039955938", "Id": "70030077039956489", "X": 71.40810691, "Y": 51.19451102 }, "geometry": { "type": "Point", "coordinates": [ 71.40810691239993, 51.194511017490527 ] } },
{ "type": "Feature", "properties": { "Purpose": "Для автомобилей", "Name": null, "LevelCount": 0, "HouseId": null, "MinCpcty": "6", "MaxCpcty": "6", "Charged": 0, "ParkingAcc": "Для резидентов", "Synonym": null, "ParkingTer": null, "Id": "70030077093621945", "X": 71.40446397, "Y": 51.19686602 }, "geometry": { "type": "Point", "coordinates": [ 71.404463974428253, 51.19686602261342 ] } },
{ "type": "Feature", "properties": { "Purpose": "Для автомобилей", "Name": null, "LevelCount": 0, "HouseId": null, "MinCpcty": "4", "MaxCpcty": "4", "Charged": 0, "ParkingAcc": "Общедоступная", "Synonym": null, "ParkingTer": null, "Id": "70030077093621946", "X": 71.40659199, "Y": 51.19462603 }, "geometry": { "type": "Point", "coordinates": [ 71.406591993504804, 51.194626029022338 ] } }
]
}
