{
"type": "FeatureCollection",
"name": "PedestrianCrossingSigns",
"crs": { "type": "name", "properties": { "name": "urn:ogc:def:crs:OGC:1.3:CRS84" } },
"xy_coordinate_resolution": 1e-15,
"features": [
{ "type": "Feature", "properties": { "SysCode": "70030076304501400" }, "geometry": { "type": "MultiLineString", "coordinates": [ [ [ 71.466446022233455, 51.133838121259672 ], [ 71.466299057852964, 51.133795618574503 ] ] ] } },
{ "type": "Feature", "properties": { "SysCode": "70030076322754913" }, "geometry": { "type": "MultiLineString", "coordinates": [ [ [ 71.470695135295969, 51.127741543150485 ], [ 71.470502364898891, 51.127772412141489 ] ] ] } },
{ "type": "Feature", "properties": { "SysCode": "70030076322760718" }, "geometry": { "type": "MultiLineString", "coordinates": [ [ [ 71.460604277940831, 51.13452199197711 ], [ 71.460527463304061, 51.13455349170961 ] ] ] } },
{ "type": "Feature", "properties": { "SysCode": "70030076419509183" }, "geometry": { "type": "MultiLineString", "coordinates": [ [ [ 71.46502282132883, 51.129833621561566 ], [ 71.464960029090463, 51.129921734776353 ] ] ] } },
{ "type": "Feature", "properties": { "SysCode": "70030076419509247" }, "geometry": { "type": "MultiLineString", "coordinates": [ [ [ 71.464960029090463, 51.129921734776353 ], [ 71.464829054722031, 51.12988452768122 ] ] ] } },
{ "type": "Feature", "properties": { "SysCode": "70030076537996013" }, "geometry": { "type": "MultiLineString", "coordinates": [ [ [ 71.463824917897455, 51.131547993790953 ], [ 71.463757005261968, 51.131637174807928 ] ] ] } },
{ "type": "Feature", "properties": { "SysCode": "70030076699725381" }, "geometry": { "type": "MultiLineString", "coordinates": [ [ [ 71.46439660574427, 51.130788256993945 ], [ 71.464330310076306, 51.130877890463665 ] ] ] } },
{ "type": "Feature", "properties": { "SysCode": "70030076699732690" }, "geometry": { "type": "MultiLineString", "coordinates": [ [ [ 71.463706430111486, 51.131705216087482 ], [ 71.463562520002966, 51.131665304561999 ] ] ] } },
{ "type": "Feature", "properties": { "SysCode": "70030076699733093" }, "geometry": { "type": "MultiLineString", "coordinates": [ [ [ 71.466952222896055, 51.132490417601375 ], [ 71.466884310260582, 51.132579596798365 ] ] ] } },
{ "type": "Feature", "properties": { "SysCode": "70030076699733170" }, "geometry": { "type": "MultiLineString", "coordinates": [ [ [ 71.46304751585059, 51.132666746466697 ], [ 71.462983196476245, 51.132757052741219 ] ] ] } },
{ "type": "Feature", "properties": { "SysCode": "70030076911031805" }, "geometry": { "type": "MultiLineString", "coordinates": [ [ [ 71.438341240422957, 51.121906577912362 ], [ 71.438281951614201, 51.121758456519913 ] ] ] } },
{ "type": "Feature", "properties": { "SysCode": "70030076911037100" }, "geometry": { "type": "MultiLineString", "coordinates": [ [ [ 71.438265422612972, 51.121731222881394 ], [ 71.438219850196688, 51.121614913256941 ] ] ] } },
{ "type": "Feature", "properties": { "SysCode": "70030076934162729" }, "geometry": { "type": "MultiLineString", "coordinates": [ [ [ 71.468315596002768, 51.134112414836139 ], [ 71.468251276628422, 51.134202661914308 ] ] ] } },
{ "type": "Feature", "properties": { "SysCode": "70030076946277866" }, "geometry": { "type": "MultiLineString", "coordinates": [ [ [ 71.463113003034792, 51.132560768840641 ], [ 71.462968913263211, 51.132521252652921 ] ] ] } },
{ "type": "Feature", "properties": { "SysCode": "70030076979274066" }, "geometry": { "type": "MultiLineString", "coordinates": [ [ [ 71.454321191349109, 51.119199608460903 ], [ 71.454274928111971, 51.11908175853749 ] ] ] } },
{ "type": "Feature", "properties": { "SysCode": "70030076979274397" }, "geometry": { "type": "MultiLineString", "coordinates": [ [ [ 71.454397278653673, 51.11939296062662 ], [ 71.454338708497161, 51.119244605625084 ] ] ] } },
{ "type": "Feature", "properties": { "SysCode": "70030076979277360" }, "geometry": { "type": "MultiLineString", "coordinates": [ [ [ 71.45419165428514, 51.119054241382912 ], [ 71.45395485837625, 51.119088186722884 ] ] ] } },
{ "type": "Feature", "properties": { "SysCode": "70030076979279740" }, "geometry": { "type": "MultiLineString", "coordinates": [ [ [ 71.453803851576978, 51.119089596412557 ], [ 71.453803563352963, 51.119089250989227 ] ] ] } },
{ "type": "Feature", "properties": { "SysCode": "70030076993287778" }, "geometry": { "type": "MultiLineString", "coordinates": [ [ [ 71.439609302278029, 51.129494696995735 ], [ 71.439422273035873, 51.129524124676394 ] ] ] } },
{ "type": "Feature", "properties": { "SysCode": "70030076993287986" }, "geometry": { "type": "MultiLineString", "coordinates": [ [ [ 71.439498450171968, 51.129150076037057 ], [ 71.439262732241417, 51.129187058222861 ] ] ] } },
{ "type": "Feature", "properties": { "SysCode": "70030076993288204" }, "geometry": { "type": "MultiLineString", "coordinates": [ [ [ 71.437656095355763, 51.124506885214437 ], [ 71.437420557088274, 51.12454387111822 ] ] ] } },
{ "type": "Feature", "properties": { "SysCode": "70030076993302689" }, "geometry": { "type": "MultiLineString", "coordinates": [ [ [ 71.439439520689319, 51.129521305933856 ], [ 71.439268648916482, 51.129548114080535 ] ] ] } },
{ "type": "Feature", "properties": { "SysCode": "70030076993303075" }, "geometry": { "type": "MultiLineString", "coordinates": [ [ [ 71.439280069726394, 51.129184295834996 ], [ 71.439137432585781, 51.129206674403122 ] ] ] } },
{ "type": "Feature", "properties": { "SysCode": "70030076993414222" }, "geometry": { "type": "MultiLineString", "coordinates": [ [ [ 71.437778266234417, 51.124879392803997 ], [ 71.4375910573292, 51.124908767044943 ] ] ] } },
{ "type": "Feature", "properties": { "SysCode": "70030076993414727" }, "geometry": { "type": "MultiLineString", "coordinates": [ [ [ 71.437608304982646, 51.124906004401183 ], [ 71.437491707832606, 51.124924313161607 ] ] ] } },
{ "type": "Feature", "properties": { "SysCode": "70030076993446742" }, "geometry": { "type": "MultiLineString", "coordinates": [ [ [ 71.438566268401644, 51.121965893997263 ], [ 71.438490809917781, 51.121924508067735 ] ] ] } },
{ "type": "Feature", "properties": { "SysCode": "70030077011479545" }, "geometry": { "type": "MultiLineString", "coordinates": [ [ [ 71.457857229801988, 51.12968546921303 ], [ 71.45780925976581, 51.129567927913477 ] ] ] } },
{ "type": "Feature", "properties": { "SysCode": "70030077011479546" }, "geometry": { "type": "MultiLineString", "coordinates": [ [ [ 71.457804498694799, 51.129554228836078 ], [ 71.457744670896886, 51.129406131966235 ] ] ] } },
{ "type": "Feature", "properties": { "SysCode": "70030077011863209" }, "geometry": { "type": "MultiLineString", "coordinates": [ [ [ 71.460718094487319, 51.127034431479586 ], [ 71.460643893644857, 51.126922408479714 ] ] ] } },
{ "type": "Feature", "properties": { "SysCode": "70030077011863213" }, "geometry": { "type": "MultiLineString", "coordinates": [ [ [ 71.460657637868721, 51.126943042832259 ], [ 71.46058343702623, 51.126830963232592 ] ] ] } },
{ "type": "Feature", "properties": { "SysCode": "70030077011863783" }, "geometry": { "type": "MultiLineString", "coordinates": [ [ [ 71.466789537998096, 51.137011676093515 ], [ 71.466614905506873, 51.136960157806897 ] ] ] } },
{ "type": "Feature", "properties": { "SysCode": "70030077011863785" }, "geometry": { "type": "MultiLineString", "coordinates": [ [ [ 71.466648143172378, 51.136961566951186 ], [ 71.466355651715887, 51.136895675319018 ] ] ] } },
{ "type": "Feature", "properties": { "SysCode": "70030077011863787" }, "geometry": { "type": "MultiLineString", "coordinates": [ [ [ 71.466328702257357, 51.136660516392091 ], [ 71.466257555686852, 51.13677330489552 ] ] ] } },
{ "type": "Feature", "properties": { "SysCode": "70030077011863791" }, "geometry": { "type": "MultiLineString", "coordinates": [ [ [ 71.466404609898859, 51.136556182553633 ], [ 71.466315137696569, 51.136698281688794 ] ] ] } },
{ "type": "Feature", "properties": { "SysCode": "70030077011863794" }, "geometry": { "type": "MultiLineString", "coordinates": [ [ [ 71.466840472474701, 51.136561988278565 ], [ 71.466611941066432, 51.136510244024883 ] ] ] } },
{ "type": "Feature", "properties": { "SysCode": "70030077011863796" }, "geometry": { "type": "MultiLineString", "coordinates": [ [ [ 71.46712254347392, 51.136653019695189 ], [ 71.466841011463885, 51.136570048652707 ] ] ] } },
{ "type": "Feature", "properties": { "SysCode": "70030077011863800" }, "geometry": { "type": "MultiLineString", "coordinates": [ [ [ 71.470492573262291, 51.127778106216873 ], [ 71.470257214657863, 51.127815766024504 ] ] ] } },
{ "type": "Feature", "properties": { "SysCode": "70030077011863805" }, "geometry": { "type": "MultiLineString", "coordinates": [ [ [ 71.470304106715673, 51.12733227490309 ], [ 71.470070365078769, 51.127373768742643 ] ] ] } },
{ "type": "Feature", "properties": { "SysCode": "70030077011863806" }, "geometry": { "type": "MultiLineString", "coordinates": [ [ [ 71.470506022259713, 51.127297054965545 ], [ 71.470346417365576, 51.127325058579352 ] ] ] } },
{ "type": "Feature", "properties": { "SysCode": "70030077011863811" }, "geometry": { "type": "MultiLineString", "coordinates": [ [ [ 71.467227107372992, 51.119911663707867 ], [ 71.466991569105517, 51.11994899161018 ] ] ] } },
{ "type": "Feature", "properties": { "SysCode": "70030077011863812" }, "geometry": { "type": "MultiLineString", "coordinates": [ [ [ 71.467356628711201, 51.119894771919284 ], [ 71.467271034990389, 51.119908111353048 ] ] ] } },
{ "type": "Feature", "properties": { "SysCode": "70030077011863814" }, "geometry": { "type": "MultiLineString", "coordinates": [ [ [ 71.466370455307555, 51.117576886093332 ], [ 71.466359334808544, 51.117578609963424 ] ] ] } },
{ "type": "Feature", "properties": { "SysCode": "70030077011863815" }, "geometry": { "type": "MultiLineString", "coordinates": [ [ [ 71.466306783364416, 51.117586673651168 ], [ 71.466071065433866, 51.117623213980757 ] ] ] } },
{ "type": "Feature", "properties": { "SysCode": "70030077011863816" }, "geometry": { "type": "MultiLineString", "coordinates": [ [ [ 71.465962279452953, 51.117566993739466 ], [ 71.46591556705819, 51.117449308820312 ] ] ] } },
{ "type": "Feature", "properties": { "SysCode": "70030077011863817" }, "geometry": { "type": "MultiLineString", "coordinates": [ [ [ 71.465905236432405, 51.117424215447073 ], [ 71.465847205265064, 51.117275854123697 ] ] ] } },
{ "type": "Feature", "properties": { "SysCode": "70030077011863818" }, "geometry": { "type": "MultiLineString", "coordinates": [ [ [ 71.466136552618067, 51.117153036977896 ], [ 71.465900834687517, 51.117189803210046 ] ] ] } },
{ "type": "Feature", "properties": { "SysCode": "70030077011864086" }, "geometry": { "type": "MultiLineString", "coordinates": [ [ [ 71.458275844724398, 51.129274778045165 ], [ 71.458040306456894, 51.12931209838176 ] ] ] } },
{ "type": "Feature", "properties": { "SysCode": "70030077011864092" }, "geometry": { "type": "MultiLineString", "coordinates": [ [ [ 71.458100313917882, 51.129299583106089 ], [ 71.45780818178747, 51.129339496676145 ] ] ] } },
{ "type": "Feature", "properties": { "SysCode": "70030077011864094" }, "geometry": { "type": "MultiLineString", "coordinates": [ [ [ 71.460754655919388, 51.134445894104331 ], [ 71.460604277940831, 51.13452199197711 ] ] ] } },
{ "type": "Feature", "properties": { "SysCode": "70030077011864096" }, "geometry": { "type": "MultiLineString", "coordinates": [ [ [ 71.46110760399452, 51.134712179741889 ], [ 71.46096010062486, 51.134790419175864 ] ] ] } },
{ "type": "Feature", "properties": { "SysCode": "70030077011864100" }, "geometry": { "type": "MultiLineString", "coordinates": [ [ [ 71.460985612778941, 51.134775199699817 ], [ 71.460838468735389, 51.134853777237062 ] ] ] } },
{ "type": "Feature", "properties": { "SysCode": "70030077011864136" }, "geometry": { "type": "MultiLineString", "coordinates": [ [ [ 71.464312253939099, 51.12037171954114 ], [ 71.464295006285624, 51.12025082775466 ] ] ] } },
{ "type": "Feature", "properties": { "SysCode": "70030077011864344" }, "geometry": { "type": "MultiLineString", "coordinates": [ [ [ 71.469474535644039, 51.124872665707741 ], [ 71.469275356052307, 51.124904538508524 ] ] ] } },
{ "type": "Feature", "properties": { "SysCode": "70030077011864346" }, "geometry": { "type": "MultiLineString", "coordinates": [ [ [ 71.469219660504706, 51.124912262634744 ], [ 71.468985739204726, 51.124953420365827 ] ] ] } },
{ "type": "Feature", "properties": { "SysCode": "70030077011870058" }, "geometry": { "type": "MultiLineString", "coordinates": [ [ [ 71.464891487634276, 51.129796583518988 ], [ 71.464829054722031, 51.12988452768122 ] ] ] } },
{ "type": "Feature", "properties": { "SysCode": "70030077011870767" }, "geometry": { "type": "MultiLineString", "coordinates": [ [ [ 71.459398199840365, 51.132146551828747 ], [ 71.459366131139717, 51.132151645642445 ] ] ] } },
{ "type": "Feature", "properties": { "SysCode": "70030077011870795" }, "geometry": { "type": "MultiLineString", "coordinates": [ [ [ 71.468447558518008, 51.134397867826713 ], [ 71.468227650936456, 51.134332987177551 ] ] ] } },
{ "type": "Feature", "properties": { "SysCode": "70030077011870797" }, "geometry": { "type": "MultiLineString", "coordinates": [ [ [ 71.468705644499124, 51.134474022147465 ], [ 71.468485736917586, 51.134409254343062 ] ] ] } },
{ "type": "Feature", "properties": { "SysCode": "70030077011870847" }, "geometry": { "type": "MultiLineString", "coordinates": [ [ [ 71.464298958872874, 51.120280204938958 ], [ 71.464280992567197, 51.12015942568555 ] ] ] } },
{ "type": "Feature", "properties": { "SysCode": "70030077012059739" }, "geometry": { "type": "MultiLineString", "coordinates": [ [ [ 71.46489544022154, 51.133188400874509 ], [ 71.464831031015663, 51.133278593388354 ] ] ] } },
{ "type": "Feature", "properties": { "SysCode": "70030077012059938" }, "geometry": { "type": "MultiLineString", "coordinates": [ [ [ 71.470566684273251, 51.131597037734373 ], [ 71.470285331926249, 51.131514170351352 ] ] ] } },
{ "type": "Feature", "properties": { "SysCode": "70030077012059999" }, "geometry": { "type": "MultiLineString", "coordinates": [ [ [ 71.470795036018458, 51.131664177117273 ], [ 71.470574948773844, 51.131599405371702 ] ] ] } },
{ "type": "Feature", "properties": { "SysCode": "70030077012251806" }, "geometry": { "type": "MultiLineString", "coordinates": [ [ [ 71.46715937440058, 51.136764962726794 ], [ 71.46708463456892, 51.13687684912113 ] ] ] } },
{ "type": "Feature", "properties": { "SysCode": "70030077012252370" }, "geometry": { "type": "MultiLineString", "coordinates": [ [ [ 71.467102241548503, 51.136840493118441 ], [ 71.467007738780623, 51.13698135133221 ] ] ] } },
{ "type": "Feature", "properties": { "SysCode": "70030077013806406" }, "geometry": { "type": "MultiLineString", "coordinates": [ [ [ 71.466494441427272, 51.125414328068516 ], [ 71.466420330416341, 51.125302301139271 ] ] ] } },
{ "type": "Feature", "properties": { "SysCode": "70030077023331872" }, "geometry": { "type": "MultiLineString", "coordinates": [ [ [ 71.454333408436966, 51.119500716469283 ], [ 71.454155362347649, 51.119547292176996 ] ] ] } },
{ "type": "Feature", "properties": { "SysCode": "70030077023331873" }, "geometry": { "type": "MultiLineString", "coordinates": [ [ [ 71.454208093454852, 51.119529248324852 ], [ 71.454021064212682, 51.11955890790307 ] ] ] } },
{ "type": "Feature", "properties": { "SysCode": "70030077024545780" }, "geometry": { "type": "MultiLineString", "coordinates": [ [ [ 71.457952810548221, 51.120655735054186 ], [ 71.457936461210053, 51.120534900396741 ] ] ] } },
{ "type": "Feature", "properties": { "SysCode": "70030077024545781" }, "geometry": { "type": "MultiLineString", "coordinates": [ [ [ 71.457965207299139, 51.120745388188872 ], [ 71.45794867829791, 51.12062438460881 ] ] ] } },
{ "type": "Feature", "properties": { "SysCode": "70030077032821480" }, "geometry": { "type": "MultiLineString", "coordinates": [ [ [ 71.459838104835001, 51.118152368847568 ], [ 71.459822816451975, 51.118113706824658 ] ] ] } },
{ "type": "Feature", "properties": { "SysCode": "70030077032821884" }, "geometry": { "type": "MultiLineString", "coordinates": [ [ [ 71.459971145328581, 51.118487429462654 ], [ 71.459936470358613, 51.118400196648558 ] ] ] } },
{ "type": "Feature", "properties": { "SysCode": "70030077032825472" }, "geometry": { "type": "MultiLineString", "coordinates": [ [ [ 71.459908892079383, 51.118331402716485 ], [ 71.459862898336837, 51.118213606967096 ] ] ] } },
{ "type": "Feature", "properties": { "SysCode": "70030077040334925" }, "geometry": { "type": "MultiLineString", "coordinates": [ [ [ 71.439494497584718, 51.124529268455476 ], [ 71.439443473276569, 51.124412277844108 ] ] ] } },
{ "type": "Feature", "properties": { "SysCode": "70030077040335916" }, "geometry": { "type": "MultiLineString", "coordinates": [ [ [ 71.439467009137019, 51.124462626129073 ], [ 71.439421554383642, 51.124344733250183 ] ] ] } },
{ "type": "Feature", "properties": { "SysCode": "70030077040345739" }, "geometry": { "type": "MultiLineString", "coordinates": [ [ [ 71.437861270566657, 51.124684428558645 ], [ 71.43782785323809, 51.124596981922153 ] ] ] } },
{ "type": "Feature", "properties": { "SysCode": "70030077040346017" }, "geometry": { "type": "MultiLineString", "coordinates": [ [ [ 71.437903132058892, 51.124785575525493 ], [ 71.437856599327162, 51.124667796232394 ] ] ] } },
{ "type": "Feature", "properties": { "SysCode": "70030077041262389" }, "geometry": { "type": "MultiLineString", "coordinates": [ [ [ 71.439676675924332, 51.129319652645627 ], [ 71.439637868704068, 51.129233173163072 ] ] ] } },
{ "type": "Feature", "properties": { "SysCode": "70030077041264914" }, "geometry": { "type": "MultiLineString", "coordinates": [ [ [ 71.439712518704169, 51.129414419089514 ], [ 71.439664728331067, 51.12929682072496 ] ] ] } },
{ "type": "Feature", "properties": { "SysCode": "70030077041266267" }, "geometry": { "type": "MultiLineString", "coordinates": [ [ [ 71.441302806251642, 51.129144269380198 ], [ 71.441267771955566, 51.129057113064206 ] ] ] } },
{ "type": "Feature", "properties": { "SysCode": "70030077041266360" }, "geometry": { "type": "MultiLineString", "coordinates": [ [ [ 71.441274958477848, 51.1290842860083 ], [ 71.441244056432055, 51.128996453073206 ] ] ] } },
{ "type": "Feature", "properties": { "SysCode": "70030077042369796" }, "geometry": { "type": "MultiLineString", "coordinates": [ [ [ 71.469060748530936, 51.134094320303909 ], [ 71.468994273199911, 51.134183890987543 ] ] ] } },
{ "type": "Feature", "properties": { "SysCode": "70030077060387427" }, "geometry": { "type": "MultiLineString", "coordinates": [ [ [ 71.462370545452458, 51.133719575874352 ], [ 71.462224659050307, 51.133682822797212 ] ] ] } },
{ "type": "Feature", "properties": { "SysCode": "70030077063640713" }, "geometry": { "type": "MultiLineString", "coordinates": [ [ [ 71.461558198941034, 51.134871871471674 ], [ 71.461419858387274, 51.134824973004726 ] ] ] } },
{ "type": "Feature", "properties": { "SysCode": "70030077069151406" }, "geometry": { "type": "MultiLineString", "coordinates": [ [ [ 71.460438808265494, 51.128780027047185 ], [ 71.460355624270193, 51.128793162596814 ] ] ] } },
{ "type": "Feature", "properties": { "SysCode": "70030077100671697" }, "geometry": { "type": "MultiLineString", "coordinates": [ [ [ 71.463755208631412, 51.126131869047462 ], [ 71.463681187451996, 51.126019787479393 ] ] ] } },
{ "type": "Feature", "properties": { "SysCode": "70030077100671723" }, "geometry": { "type": "MultiLineString", "coordinates": [ [ [ 71.463815575418508, 51.126223146542053 ], [ 71.463741554239093, 51.126111121574496 ] ] ] } },
{ "type": "Feature", "properties": { "SysCode": "70030077101776854" }, "geometry": { "type": "MultiLineString", "coordinates": [ [ [ 71.466554808214369, 51.125505494221606 ], [ 71.466480607371892, 51.125393467513454 ] ] ] } },
{ "type": "Feature", "properties": { "SysCode": "70030077107000915" }, "geometry": { "type": "MultiLineString", "coordinates": [ [ [ 71.46690533083823, 51.120217221586181 ], [ 71.466887184869492, 51.120096329395402 ] ] ] } },
{ "type": "Feature", "properties": { "SysCode": "70030077107000916" }, "geometry": { "type": "MultiLineString", "coordinates": [ [ [ 71.46689374257106, 51.12012412786094 ], [ 71.466871105025902, 51.120003630131841 ] ] ] } },
{ "type": "Feature", "properties": { "SysCode": "70030077107030204" }, "geometry": { "type": "MultiLineString", "coordinates": [ [ [ 71.468791972597927, 51.124919873998742 ], [ 71.468719748049082, 51.124807338444811 ] ] ] } },
{ "type": "Feature", "properties": { "SysCode": "70030077107030205" }, "geometry": { "type": "MultiLineString", "coordinates": [ [ [ 71.468735738061156, 51.124831920382803 ], [ 71.468664411827589, 51.124719102711026 ] ] ] } },
{ "type": "Feature", "properties": { "SysCode": "70030077107034329" }, "geometry": { "type": "MultiLineString", "coordinates": [ [ [ 71.469993199795852, 51.127797161632351 ], [ 71.469947385716381, 51.127679220887167 ] ] ] } },
{ "type": "Feature", "properties": { "SysCode": "70030077107034887" }, "geometry": { "type": "MultiLineString", "coordinates": [ [ [ 71.469938582226575, 51.12765779758373 ], [ 71.46989204949486, 51.127540025614479 ] ] ] } },
{ "type": "Feature", "properties": { "SysCode": "70030077107041358" }, "geometry": { "type": "MultiLineString", "coordinates": [ [ [ 71.458474192739118, 51.129437363701939 ], [ 71.458428288828102, 51.129319427145226 ] ] ] } },
{ "type": "Feature", "properties": { "SysCode": "70030077107041930" }, "geometry": { "type": "MultiLineString", "coordinates": [ [ [ 71.458528450982286, 51.129577117004246 ], [ 71.458482636902801, 51.129459237179347 ] ] ] } },
{ "type": "Feature", "properties": { "SysCode": "70030077107042724" }, "geometry": { "type": "MultiLineString", "coordinates": [ [ [ 71.457988922822636, 51.129725664322613 ], [ 71.457959098755211, 51.129785703236003 ] ] ] } },
{ "type": "Feature", "properties": { "SysCode": "70030077107046389" }, "geometry": { "type": "MultiLineString", "coordinates": [ [ [ 71.463663400809367, 51.12878713039207 ], [ 71.463617586729882, 51.128669248550779 ] ] ] } },
{ "type": "Feature", "properties": { "SysCode": "70030077107046476" }, "geometry": { "type": "MultiLineString", "coordinates": [ [ [ 71.463609142566199, 51.128647487451055 ], [ 71.463563328486728, 51.128529548877268 ] ] ] } },
{ "type": "Feature", "properties": { "SysCode": "70030077107054249" }, "geometry": { "type": "MultiLineString", "coordinates": [ [ [ 71.464105731255273, 51.12871857743059 ], [ 71.464059198523543, 51.128600808166276 ] ] ] } },
{ "type": "Feature", "properties": { "SysCode": "70030077107054607" }, "geometry": { "type": "MultiLineString", "coordinates": [ [ [ 71.464051473012105, 51.128578934282295 ], [ 71.464004940280404, 51.128461277414175 ] ] ] } },
{ "type": "Feature", "properties": { "SysCode": "70030077107057192" }, "geometry": { "type": "MultiLineString", "coordinates": [ [ [ 71.458293811030074, 51.129725044201969 ], [ 71.458058272762585, 51.129762364174717 ] ] ] } },
{ "type": "Feature", "properties": { "SysCode": "70030077107057193" }, "geometry": { "type": "MultiLineString", "coordinates": [ [ [ 71.458422000621098, 51.129705087587858 ], [ 71.458234971378971, 51.129734740632841 ] ] ] } },
{ "type": "Feature", "properties": { "SysCode": "70030077107078245" }, "geometry": { "type": "MultiLineString", "coordinates": [ [ [ 71.471601184154437, 51.130153827449199 ], [ 71.471567407499748, 51.13025050889614 ] ] ] } },
{ "type": "Feature", "properties": { "SysCode": "70030077107078787" }, "geometry": { "type": "MultiLineString", "coordinates": [ [ [ 71.470317581444959, 51.131326393438627 ], [ 71.470253262070614, 51.131416645961806 ] ] ] } },
{ "type": "Feature", "properties": { "SysCode": "70030077107078883" }, "geometry": { "type": "MultiLineString", "coordinates": [ [ [ 71.470707540109785, 51.131345841998503 ], [ 71.470485117245445, 51.13128450854127 ] ] ] } },
{ "type": "Feature", "properties": { "SysCode": "70030077107078929" }, "geometry": { "type": "MultiLineString", "coordinates": [ [ [ 71.471001199376175, 51.131427525860552 ], [ 71.470717511409447, 51.13134781504035 ] ] ] } },
{ "type": "Feature", "properties": { "SysCode": "70030077110276686" }, "geometry": { "type": "MultiLineString", "coordinates": [ [ [ 71.437374563345713, 51.124534624645058 ], [ 71.43734853738637, 51.124551767528622 ] ] ] } },
{ "type": "Feature", "properties": { "SysCode": "70030077125346612" }, "geometry": { "type": "MultiLineString", "coordinates": [ [ [ 71.461677315547718, 51.12873041635391 ], [ 71.461594131552403, 51.12874315728704 ] ] ] } },
{ "type": "Feature", "properties": { "SysCode": "70030076304202439" }, "geometry": { "type": "MultiLineString", "coordinates": [ [ [ 71.408002707826981, 51.195581013345091 ], [ 71.407891676057872, 51.195515036521918 ] ] ] } },
{ "type": "Feature", "properties": { "SysCode": "70030076304202514" }, "geometry": { "type": "MultiLineString", "coordinates": [ [ [ 71.406842803132122, 51.195693601562404 ], [ 71.406706349040476, 51.195735202839074 ] ] ] } },
{ "type": "Feature", "properties": { "SysCode": "70030076304202517" }, "geometry": { "type": "MultiLineString", "coordinates": [ [ [ 71.406685777620453, 51.195084439730053 ], [ 71.406629183757573, 51.195013902311523 ] ] ] } },
{ "type": "Feature", "properties": { "SysCode": "70030076304243288" }, "geometry": { "type": "MultiLineString", "coordinates": [ [ [ 71.407318730569642, 51.194908687078744 ], [ 71.40723078550333, 51.194797673207212 ] ] ] } },
{ "type": "Feature", "properties": { "SysCode": "70030076304275153" }, "geometry": { "type": "MultiLineString", "coordinates": [ [ [ 71.405249371481148, 51.194484108240957 ], [ 71.405130468594706, 51.194335080118591 ] ] ] } },
{ "type": "Feature", "properties": { "SysCode": "70030077011863011" }, "geometry": { "type": "MultiLineString", "coordinates": [ [ [ 71.408748129849741, 51.194187429907878 ], [ 71.408531635866268, 51.194256955267377 ] ] ] } },
{ "type": "Feature", "properties": { "SysCode": "70030077011863012" }, "geometry": { "type": "MultiLineString", "coordinates": [ [ [ 71.408857634482871, 51.194158719000079 ], [ 71.408685517274449, 51.194213888963944 ] ] ] } },
{ "type": "Feature", "properties": { "SysCode": "70030077011863015" }, "geometry": { "type": "MultiLineString", "coordinates": [ [ [ 71.409085896396562, 51.194352095062982 ], [ 71.408999658129304, 51.194243500570366 ] ] ] } },
{ "type": "Feature", "properties": { "SysCode": "70030077011863021" }, "geometry": { "type": "MultiLineString", "coordinates": [ [ [ 71.408906592665858, 51.194880201800501 ], [ 71.408861676901651, 51.194823963027531 ] ] ] } },
{ "type": "Feature", "properties": { "SysCode": "70030077011863023" }, "geometry": { "type": "MultiLineString", "coordinates": [ [ [ 71.408631798020451, 51.194535674906255 ], [ 71.408508010174302, 51.194380411780791 ] ] ] } },
{ "type": "Feature", "properties": { "SysCode": "70030077011863046" }, "geometry": { "type": "MultiLineString", "coordinates": [ [ [ 71.4093186498867, 51.194642692441221 ], [ 71.409213097840805, 51.194511467854404 ] ] ] } },
{ "type": "Feature", "properties": { "SysCode": "70030077011863049" }, "geometry": { "type": "MultiLineString", "coordinates": [ [ [ 71.408861676901651, 51.194823963027531 ], [ 71.408732948321443, 51.194662564686261 ] ] ] } },
{ "type": "Feature", "properties": { "SysCode": "70030077011864252" }, "geometry": { "type": "MultiLineString", "coordinates": [ [ [ 71.408371645914173, 51.193469257768477 ], [ 71.40826115313422, 51.193333132007595 ] ] ] } },
{ "type": "Feature", "properties": { "SysCode": "70030077011864254" }, "geometry": { "type": "MultiLineString", "coordinates": [ [ [ 71.408373173050151, 51.193527581172397 ], [ 71.408156499403617, 51.193596994934317 ] ] ] } },
{ "type": "Feature", "properties": { "SysCode": "70030077011864258" }, "geometry": { "type": "MultiLineString", "coordinates": [ [ [ 71.40824570211133, 51.193568396251898 ], [ 71.408029028464796, 51.193637809952328 ] ] ] } },
{ "type": "Feature", "properties": { "SysCode": "70030077011864268" }, "geometry": { "type": "MultiLineString", "coordinates": [ [ [ 71.407923476418915, 51.193612870573205 ], [ 71.407812983638976, 51.193476745236623 ] ] ] } },
{ "type": "Feature", "properties": { "SysCode": "70030077011870745" }, "geometry": { "type": "MultiLineString", "coordinates": [ [ [ 71.409386652353689, 51.194729049387114 ], [ 71.409341736589496, 51.194672810429651 ] ] ] } }
]
}
