{
"type": "FeatureCollection",
"name": "Place",
"crs": { "type": "name", "properties": { "name": "urn:ogc:def:crs:OGC:1.3:CRS84" } },
"xy_coordinate_resolution": 1e-15,
"features": [
{ "type": "Feature", "properties": { "Name": "Президентский парк", "Id": "9570836402929672" }, "geometry": { "type": "MultiPolygon", "coordinates": [ [ [ [ 71.443089204228215, 51.120825733963009 ], [ 71.443102311428802, 51.120852464251954 ], [ 71.444829592057104, 51.120586324237337 ], [ 71.444808160334645, 51.120547141657418 ], [ 71.443089204228215, 51.120825733963009 ] ] ], [ [ [ 71.453480188580116, 51.124627202055088 ], [ 71.453433745679931, 51.124708333993297 ], [ 71.453535345138548, 51.124766518867496 ], [ 71.453606491709067, 51.124790706162834 ], [ 71.453625356330036, 51.12479335605223 ], [ 71.45367099074646, 51.124913503005253 ], [ 71.45415437420084, 51.126182271837003 ], [ 71.452140351333853, 51.128404562975874 ], [ 71.451221464629739, 51.128535130107196 ], [ 71.450965714268335, 51.128837135654244 ], [ 71.450923583281522, 51.128858614786296 ], [ 71.450869414869885, 51.128870510049353 ], [ 71.450753622029751, 51.128883645573275 ], [ 71.450672055001945, 51.128898303235005 ], [ 71.450611957709441, 51.128925476272556 ], [ 71.45055635199337, 51.128972437106803 ], [ 71.45043022852748, 51.129112191816013 ], [ 71.45027302335275, 51.12912870979121 ], [ 71.450018620464306, 51.129454445310202 ], [ 71.449768170163082, 51.129492836624472 ], [ 71.449714361077554, 51.129500165359268 ], [ 71.449657677383129, 51.129525703172149 ], [ 71.449622014266353, 51.129564827299603 ], [ 71.449521313123, 51.129711345171181 ], [ 71.449337877141971, 51.129725720697223 ], [ 71.449130905300521, 51.129999474958701 ], [ 71.449100721906973, 51.130026534599871 ], [ 71.449050685745647, 51.130053425102581 ], [ 71.448992295252197, 51.130068195141448 ], [ 71.448813530510648, 51.130101004905505 ], [ 71.448743641581544, 51.130117240656425 ], [ 71.448689024012268, 51.130147231681306 ], [ 71.448652732074791, 51.130182803717524 ], [ 71.448557690317728, 51.130323174876693 ], [ 71.44839168165322, 51.130335069762531 ], [ 71.448154526418222, 51.130659669303682 ], [ 71.447972258247077, 51.130718523161633 ], [ 71.448031277561242, 51.13097406303708 ], [ 71.448351167633916, 51.130925413044018 ], [ 71.448420697236898, 51.130914082041755 ], [ 71.45268077780878, 51.13022463324009 ], [ 71.453181678411198, 51.130144525724965 ], [ 71.453264862406513, 51.13013122143736 ], [ 71.453753815415652, 51.130053086857366 ], [ 71.453796934549288, 51.130046096455608 ], [ 71.457497724025288, 51.129476544279129 ], [ 71.457651246107346, 51.129453430561369 ], [ 71.457710355253042, 51.12943787107654 ], [ 71.457748892978728, 51.129419943837533 ], [ 71.457788868008876, 51.129388035589855 ], [ 71.45780925976581, 51.129353026692073 ], [ 71.457815368309753, 51.12931976539582 ], [ 71.457814200499882, 51.129312718507947 ], [ 71.457914003327943, 51.129273086790519 ], [ 71.457826776913862, 51.12900423289063 ], [ 71.457629686540528, 51.129023569677543 ], [ 71.457587016564531, 51.129027121331397 ], [ 71.457515690330965, 51.129032928002985 ], [ 71.457462150740028, 51.129032871627544 ], [ 71.457405646708651, 51.129018495885838 ], [ 71.457366839488387, 51.128985347099679 ], [ 71.457357317346379, 51.128951860036445 ], [ 71.457342135818067, 51.12873272776239 ], [ 71.457349412171865, 51.128581414826357 ], [ 71.45737986506002, 51.128430665156436 ], [ 71.457428733411462, 51.128286341899944 ], [ 71.457491435818298, 51.128142130945548 ], [ 71.457510120776206, 51.128114224551702 ], [ 71.457548568670362, 51.128085641621759 ], [ 71.457550814458557, 51.128084175829997 ], [ 71.457614145686094, 51.128076564987438 ], [ 71.457637861209605, 51.128079045558493 ], [ 71.457664631005073, 51.12808197714228 ], [ 71.457734609765708, 51.128100581419709 ], [ 71.457774045806673, 51.128111067463678 ], [ 71.45796529713067, 51.128122286400561 ], [ 71.458137144844528, 51.127892720476069 ], [ 71.458367023725742, 51.127676796671743 ], [ 71.458192570897538, 51.127646014762597 ], [ 71.458161848514834, 51.127627128416258 ], [ 71.458088006998466, 51.127582026662381 ], [ 71.4580643813065, 51.12756184361325 ], [ 71.458052074387098, 51.127530215968257 ], [ 71.458065459284853, 51.127499264829446 ], [ 71.458142624567756, 51.127438771924517 ], [ 71.458298392438039, 51.127338758317975 ], [ 71.458462694303478, 51.127249681755515 ], [ 71.458626367348259, 51.127171936944457 ], [ 71.458793453991092, 51.127102423162825 ], [ 71.458947155736197, 51.127044241231111 ], [ 71.459146581729286, 51.126979068360107 ], [ 71.459179190574091, 51.126969935130361 ], [ 71.459228508083186, 51.126969991508325 ], [ 71.459270639070013, 51.12698448064355 ], [ 71.459294264761994, 51.127004945834607 ], [ 71.459335677096604, 51.127063578838651 ], [ 71.459353194244642, 51.12708827233152 ], [ 71.459497284016209, 51.127132472523279 ], [ 71.460553702790321, 51.126855713227947 ], [ 71.460632934198387, 51.126834966080118 ], [ 71.460620986605122, 51.126822675645762 ], [ 71.460582628542468, 51.126764549739875 ], [ 71.460566099541253, 51.126739630560927 ], [ 71.460538431430493, 51.126697741503556 ], [ 71.460528370299315, 51.126672258505259 ], [ 71.460533580527965, 51.126641194034775 ], [ 71.460561158807195, 51.126613906896473 ], [ 71.460599966027459, 51.126599925050748 ], [ 71.461965225596259, 51.126242315356791 ], [ 71.462003763321945, 51.126234929726174 ], [ 71.462059728364167, 51.126239327277375 ], [ 71.462098625415962, 51.126261540542423 ], [ 71.462115783237877, 51.126283922933169 ], [ 71.462143900506277, 51.126326319774599 ], [ 71.462160429507506, 51.126351351933998 ], [ 71.462198967233206, 51.126409478359882 ], [ 71.464432179029515, 51.1258243206332 ], [ 71.4645256936506, 51.125799908361529 ], [ 71.465952308153305, 51.125426280598532 ], [ 71.466044834627553, 51.125402037256144 ], [ 71.466390686011962, 51.125311378318798 ], [ 71.466443417119123, 51.125297565218816 ], [ 71.466668085771701, 51.125254265352112 ], [ 71.468024092693057, 51.124899125981365 ], [ 71.468598655148796, 51.124748702576603 ], [ 71.468640247146453, 51.124737764723719 ], [ 71.468694146063498, 51.124720512228862 ], [ 71.468638450515883, 51.124713126354905 ], [ 71.468693068085159, 51.124684484939387 ], [ 71.468715076809602, 51.124668078136295 ], [ 71.468731965136953, 51.124649077810638 ], [ 71.468739870311467, 51.124626469104342 ], [ 71.468738612670052, 51.124602563627299 ], [ 71.468721365016592, 51.124560221584531 ], [ 71.468632970792655, 51.124342647146797 ], [ 71.468616082465303, 51.124317501136375 ], [ 71.468589043175257, 51.124295117792734 ], [ 71.468554907194473, 51.124277583226274 ], [ 71.468474777471116, 51.124245389519388 ], [ 71.468407852982438, 51.124235240885604 ], [ 71.468387820551612, 51.124232252676343 ], [ 71.46827624979332, 51.12423789080686 ], [ 71.468247863030342, 51.124239413101982 ], [ 71.46818408264518, 51.12423805995077 ], [ 71.468107815677556, 51.124216014856593 ], [ 71.468058318505385, 51.12417192463667 ], [ 71.467674827710596, 51.12319149837522 ], [ 71.467680846423022, 51.123143629540849 ], [ 71.467708514533754, 51.123105514862225 ], [ 71.467756304906871, 51.123082397956033 ], [ 71.46790066417303, 51.123028665200103 ], [ 71.467938303583438, 51.123006901442764 ], [ 71.467788015436398, 51.122619324420064 ], [ 71.467666922536097, 51.122307580227606 ], [ 71.467520047987151, 51.121929300718136 ], [ 71.467496422295184, 51.121923098464571 ], [ 71.467317208395997, 51.12191469722886 ], [ 71.467226837878414, 51.121906295991629 ], [ 71.467167369406596, 51.121874269784655 ], [ 71.46712371128379, 51.121824708057922 ], [ 71.466761151235119, 51.120927062120778 ], [ 71.466753695218273, 51.120853479189755 ], [ 71.466808672113658, 51.120783561200355 ], [ 71.466931471812998, 51.120722213716029 ], [ 71.467007648949092, 51.120693005969677 ], [ 71.467015284628999, 51.120690243073803 ], [ 71.467032891608568, 51.120670733641042 ], [ 71.467092899069556, 51.120564559329331 ], [ 71.467091641428155, 51.120516969702031 ], [ 71.467086251536443, 51.1204719737771 ], [ 71.467048342631443, 51.120334899454967 ], [ 71.467033610260799, 51.120296895231107 ], [ 71.467016182944292, 51.120270901226192 ], [ 71.466990760621755, 51.120247275425925 ], [ 71.466955905988726, 51.120228104123278 ], [ 71.466913954664946, 51.120216263020609 ], [ 71.466863828672118, 51.120209214743781 ], [ 71.466811906048676, 51.120207805088285 ], [ 71.46670096411107, 51.120214289503217 ], [ 71.46605669238933, 51.120252237408835 ], [ 71.465957159055833, 51.120258157955945 ], [ 71.464055695093947, 51.120370253504575 ], [ 71.463956251591995, 51.120376061264523 ], [ 71.462444656463404, 51.120464981925181 ], [ 71.462344314646174, 51.120471127988615 ], [ 71.461718009230069, 51.120508004352068 ], [ 71.461618386065055, 51.12051392486638 ], [ 71.459699404955131, 51.120627091122905 ], [ 71.459599961453179, 51.120632955236282 ], [ 71.457904660848996, 51.120732306736045 ], [ 71.456973467225481, 51.120784068669991 ], [ 71.456886420474433, 51.120788974209759 ], [ 71.456786527814842, 51.120792752038867 ], [ 71.456488915961216, 51.120798559745694 ], [ 71.456057185635686, 51.120772114938767 ], [ 71.455635875767399, 51.120694359224757 ], [ 71.455623119690372, 51.120690694158853 ], [ 71.455554308739622, 51.120670902798011 ], [ 71.455308799172471, 51.120600251517629 ], [ 71.455035082505404, 51.12050027948937 ], [ 71.454953605309115, 51.120463515891579 ], [ 71.454772684610901, 51.120367998063614 ], [ 71.454471479496135, 51.120164218519086 ], [ 71.454281395982022, 51.120007351638719 ], [ 71.454118261926439, 51.119802555542528 ], [ 71.454036874561695, 51.119684030514847 ], [ 71.45394910915843, 51.119555693843218 ], [ 71.453916140987502, 51.119529191937815 ], [ 71.45387338117996, 51.1195054529841 ], [ 71.453826848448259, 51.119489326276977 ], [ 71.453776363129293, 51.119484195050809 ], [ 71.453754174741775, 51.119486224986503 ], [ 71.453723093032934, 51.119489213502767 ], [ 71.45177877943199, 51.119793533667192 ], [ 71.449477924494786, 51.120165797334735 ], [ 71.446986177559694, 51.12056923934928 ], [ 71.446862120218952, 51.120588128581581 ], [ 71.446917725935037, 51.12079895444419 ], [ 71.446927248077046, 51.120834477295034 ], [ 71.446994082734179, 51.120860922066257 ], [ 71.452958087737002, 51.123216532233506 ], [ 71.453032019084873, 51.123263442489986 ], [ 71.453537501095241, 51.124578094329024 ], [ 71.453524834849745, 51.124585029177553 ], [ 71.453480188580116, 51.124627202055088 ] ] ], [ [ [ 71.44647305986939, 51.130814583320387 ], [ 71.446492104153421, 51.130721454577888 ], [ 71.446540703010299, 51.130637796394836 ], [ 71.446548698016315, 51.130621560826917 ], [ 71.44762380174835, 51.128953889556115 ], [ 71.44763080860757, 51.128927844046842 ], [ 71.447631706922863, 51.128898472361847 ], [ 71.447544660171829, 51.128674660636165 ], [ 71.447564782434199, 51.128670601572196 ], [ 71.447640061255001, 51.12865391430541 ], [ 71.447714890918164, 51.128636494145475 ], [ 71.447789271423687, 51.128618284715621 ], [ 71.447863202771572, 51.128599173262934 ], [ 71.447936415467225, 51.12857938529033 ], [ 71.448009268836771, 51.128558920796905 ], [ 71.448081403554085, 51.128537554277564 ], [ 71.448152999282229, 51.128515398483223 ], [ 71.448224145852734, 51.128492509788849 ], [ 71.448294483939478, 51.128468944569491 ], [ 71.448364283037051, 51.128444533695607 ], [ 71.448433363482394, 51.128419446294465 ], [ 71.448501815107065, 51.128393625988714 ], [ 71.448569548079476, 51.128367072777138 ], [ 71.44863656239967, 51.128339786658458 ], [ 71.448702858067648, 51.128311824007717 ], [ 71.44876834525185, 51.128283184823687 ], [ 71.448833023952304, 51.128253756352294 ], [ 71.448896984000541, 51.128223764097804 ], [ 71.448959955901955, 51.128192982553188 ], [ 71.4490223888142, 51.128161580846438 ], [ 71.449083653916588, 51.128129502599734 ], [ 71.449144290198262, 51.128096804188232 ], [ 71.449203938333127, 51.128063485610618 ], [ 71.4492626881527, 51.128029546865591 ], [ 71.449320539657009, 51.127994875198297 ], [ 71.449377403014481, 51.127959639737412 ], [ 71.449433457888219, 51.127923896858412 ], [ 71.449488434783603, 51.127887477429596 ], [ 71.449542333700649, 51.127850494203145 ], [ 71.449595334302401, 51.127813003554628 ], [ 71.449647346757359, 51.127774892728873 ], [ 71.449698191402433, 51.127736274478366 ], [ 71.449748137732243, 51.127697092424796 ], [ 71.44979709591523, 51.127657402943832 ], [ 71.449844886288346, 51.127617149656992 ], [ 71.449891419020062, 51.127576445317267 ], [ 71.449937143268016, 51.127535177168902 ], [ 71.449981520043053, 51.127493570719693 ], [ 71.450018081475122, 51.127457883857375 ], [ 71.450033712161058, 51.127461943027939 ], [ 71.450087161920479, 51.127461886650565 ], [ 71.450136659092621, 51.127448976231832 ], [ 71.45017447816609, 51.127425184970384 ], [ 71.450194780091493, 51.127394008251407 ], [ 71.450194690259977, 51.12736035090186 ], [ 71.450174208671498, 51.127329230516651 ], [ 71.450153367756911, 51.127316150928188 ], [ 71.450186785085478, 51.127278321580413 ], [ 71.450224334664355, 51.127234008772938 ], [ 71.450260716433377, 51.127189357656768 ], [ 71.450295750729438, 51.127144255475407 ], [ 71.450329796878705, 51.127098758605335 ], [ 71.450362405723524, 51.127053036178992 ], [ 71.450394026421534, 51.127006862683999 ], [ 71.450424119983538, 51.126960350874967 ], [ 71.450453045735685, 51.126913613506964 ], [ 71.450480893509507, 51.126866537823119 ], [ 71.450507214147322, 51.126819123822379 ], [ 71.450532456806812, 51.126771484260118 ], [ 71.45055635199337, 51.126723506379129 ], [ 71.450578989538528, 51.126675415691651 ], [ 71.450600279610754, 51.126627043062165 ], [ 71.450620312041593, 51.126578444868258 ], [ 71.450638996999501, 51.126529621109178 ], [ 71.450656244652947, 51.126480628162817 ], [ 71.450672414328068, 51.126431466028585 ], [ 71.45068705686721, 51.12638207832731 ], [ 71.450700621427984, 51.126332634194462 ], [ 71.450712658852808, 51.126283020872293 ], [ 71.450723348804672, 51.126233181981348 ], [ 71.450732691283648, 51.126183343036637 ], [ 71.450740776121194, 51.126133391280163 ], [ 71.450747603317367, 51.126083270332536 ], [ 71.450752903377534, 51.126033262088718 ], [ 71.4507569457963, 51.125983141032428 ], [ 71.450759730573694, 51.125932907163289 ], [ 71.450761078046625, 51.125882729618809 ], [ 71.45076098821508, 51.125832552019816 ], [ 71.450759820405224, 51.125782261607462 ], [ 71.450757035627831, 51.125732196658291 ], [ 71.450753083040595, 51.125681962516218 ], [ 71.450747513485823, 51.125631897458327 ], [ 71.450740865952724, 51.125581888725833 ], [ 71.450732781115164, 51.125531879939182 ], [ 71.450723438636217, 51.125482040237742 ], [ 71.450712658852808, 51.125432256862375 ], [ 71.450700621427984, 51.125382642573051 ], [ 71.450687146698741, 51.125333140990385 ], [ 71.450672324496551, 51.125283808494729 ], [ 71.450664509153583, 51.125259959737946 ], [ 71.450676995736018, 51.125257873675885 ], [ 71.450714365651834, 51.12524501902115 ], [ 71.450745716855252, 51.125226921014331 ], [ 71.450769252715702, 51.125204650871609 ], [ 71.450783625760266, 51.12517956171061 ], [ 71.450788027505141, 51.125152950271016 ], [ 71.450782098624273, 51.125126395196318 ], [ 71.450766378106792, 51.125101587894058 ], [ 71.450741584604941, 51.125079768733087 ], [ 71.450709335086245, 51.125062347225082 ], [ 71.450671336349728, 51.125050394600905 ], [ 71.450629834183601, 51.125044418287658 ], [ 71.450587433702196, 51.125044925710498 ], [ 71.45058159465286, 51.12504582779556 ], [ 71.450578989538528, 51.125039851481716 ], [ 71.450556441824901, 51.124991646280478 ], [ 71.45055006378638, 51.124979017073237 ], [ 71.450532456806812, 51.124943779311558 ], [ 71.450507303978853, 51.124896137815036 ], [ 71.450480803677976, 51.124848665411044 ], [ 71.450453135567216, 51.124801587622564 ], [ 71.450424299646599, 51.124754848070133 ], [ 71.450393936590004, 51.124708333993297 ], [ 71.450362495555055, 51.124662270915927 ], [ 71.450329886710236, 51.124616376935116 ], [ 71.4502959303925, 51.124570990336778 ], [ 71.450260806264893, 51.124525941979542 ], [ 71.4502244244959, 51.124481175483382 ], [ 71.450186874916994, 51.124436916373384 ], [ 71.450148157528261, 51.124393051888774 ], [ 71.450108272329643, 51.1243495256495 ], [ 71.450067219321156, 51.124306506800174 ], [ 71.450024908671281, 51.124263882579676 ], [ 71.449981699706115, 51.124221709370431 ], [ 71.449937233099533, 51.124179987173648 ], [ 71.44989168851464, 51.124138772371992 ], [ 71.449844976119863, 51.124098064966802 ], [ 71.449797275578277, 51.124057808577938 ], [ 71.449748407226835, 51.124018172351242 ], [ 71.449698460897025, 51.123978874380271 ], [ 71.449647526420421, 51.123940365719164 ], [ 71.449595513965477, 51.123902195316234 ], [ 71.449542603195241, 51.123864645081078 ], [ 71.449488614446651, 51.123827715015253 ], [ 71.449433547719764, 51.123791292356515 ], [ 71.449377672509058, 51.123755489869858 ], [ 71.449320719320042, 51.123720251174802 ], [ 71.449262867815762, 51.123685689036563 ], [ 71.449204207827719, 51.123651747074668 ], [ 71.449144559692854, 51.12361836890841 ], [ 71.449083923411166, 51.123585610921133 ], [ 71.449022658308778, 51.123553585878376 ], [ 71.448960405059609, 51.123522181017385 ], [ 71.448897343326649, 51.123491452721581 ], [ 71.448872280330221, 51.123479612455355 ], [ 71.448865363302545, 51.123475891228203 ], [ 71.448853236046205, 51.123470704062591 ], [ 71.448833383278412, 51.123461344610099 ], [ 71.448768704577958, 51.123432082213284 ], [ 71.448703127562226, 51.123403270856471 ], [ 71.448636921725793, 51.123375361599393 ], [ 71.448599641641493, 51.12336013836115 ], [ 71.448601977261234, 51.123357713919063 ], [ 71.448610601087964, 51.123332285460414 ], [ 71.448607097658353, 51.12330640592829 ], [ 71.448591556803947, 51.1232822742382 ], [ 71.448565325997649, 51.123262089310188 ], [ 71.448530830690743, 51.123247711772265 ], [ 71.448491125155172, 51.123240269280316 ], [ 71.448449892483652, 51.123240607575418 ], [ 71.448410366611128, 51.123248501127406 ], [ 71.448376500124922, 51.123263442489986 ], [ 71.448370032254871, 51.123268516913917 ], [ 71.448306162038179, 51.123250079837646 ], [ 71.448294933097131, 51.123246189444458 ], [ 71.448224505178842, 51.12322256516579 ], [ 71.448153538271413, 51.123199673848454 ], [ 71.448081942543268, 51.123177628258702 ], [ 71.448009628162879, 51.123156202867278 ], [ 71.447936954456409, 51.123135679588287 ], [ 71.44786356209768, 51.123115832892246 ], [ 71.447789720581341, 51.123096831928095 ], [ 71.447715429907348, 51.123078620314175 ], [ 71.447640600244171, 51.123061085285926 ], [ 71.447565231591824, 51.123044565140688 ], [ 71.447489503613383, 51.123028665200103 ], [ 71.447413416308819, 51.123013610995997 ], [ 71.447336879846603, 51.122999346146372 ], [ 71.447260073889822, 51.122985983417628 ], [ 71.447182728943858, 51.122973353662019 ], [ 71.447105204334832, 51.122961626028719 ], [ 71.447027320399698, 51.122950744135537 ], [ 71.446949256801503, 51.122940595217315 ], [ 71.446870833877213, 51.122931348423215 ], [ 71.446792231289834, 51.122922834605049 ], [ 71.446713359207905, 51.122915166529083 ], [ 71.446634217631356, 51.122908513344463 ], [ 71.446555076054835, 51.12290259313702 ], [ 71.446475575152192, 51.122897575055838 ], [ 71.446396074249549, 51.122893233569435 ], [ 71.44631657334692, 51.122889850592728 ], [ 71.446236802949684, 51.122887313360046 ], [ 71.446157122383966, 51.122885565488545 ], [ 71.446077351986744, 51.122884719744256 ], [ 71.445997581589509, 51.122884776127201 ], [ 71.445917721360757, 51.122885565488545 ], [ 71.445838040795053, 51.122887313360046 ], [ 71.445758360229362, 51.122889794209797 ], [ 71.445678769495174, 51.122893233569435 ], [ 71.445599268592531, 51.12289746228997 ], [ 71.445519857521418, 51.122902536754111 ], [ 71.445440626113367, 51.122908400578638 ], [ 71.445361484536832, 51.122915166529083 ], [ 71.445328606197435, 51.122918211206454 ], [ 71.444805966365138, 51.121532298426295 ], [ 71.444740838507045, 51.121386938688126 ], [ 71.444851510950045, 51.121323562150188 ], [ 71.444889419855031, 51.121283303343368 ], [ 71.444904062394158, 51.121236221921166 ], [ 71.444838215883834, 51.120896388484084 ], [ 71.443421842175354, 51.121112174830486 ], [ 71.443324554630095, 51.121127004113866 ], [ 71.443208761789961, 51.121144539876262 ], [ 71.443231489166649, 51.121214964784272 ], [ 71.443226099274952, 51.121273266828652 ], [ 71.443192502283324, 51.121323618535037 ], [ 71.44310940811954, 51.121372053103393 ], [ 71.443010952764396, 51.121396749639068 ], [ 71.442904053245599, 51.121404136043303 ], [ 71.442813952222593, 51.121395734713211 ], [ 71.442804250417524, 51.121393253783232 ], [ 71.442821767565576, 51.121440447814827 ], [ 71.442836949093859, 51.121481721408685 ], [ 71.443039429358905, 51.122027578134031 ], [ 71.443029188564665, 51.122060675529966 ], [ 71.442474928034358, 51.122142150279203 ], [ 71.442364525085964, 51.122158388827955 ], [ 71.442477173822567, 51.122321055919876 ], [ 71.44252927610907, 51.122493138472969 ], [ 71.442542122017628, 51.12267615872868 ], [ 71.442503584291927, 51.122842206977793 ], [ 71.442421837601074, 51.123014513120729 ], [ 71.442288617444447, 51.123227752359284 ], [ 71.442273166421543, 51.123268911591303 ], [ 71.442275232546706, 51.123319768564336 ], [ 71.442508435194455, 51.123889904101482 ], [ 71.442575898672303, 51.12401822873283 ], [ 71.440876465817809, 51.124284405357407 ], [ 71.442611292294501, 51.128655041823627 ], [ 71.442698339045521, 51.128778053895623 ], [ 71.444362917266986, 51.128519570312989 ], [ 71.444421128097417, 51.128649573360015 ], [ 71.444579321418956, 51.129054801671963 ], [ 71.444936491575916, 51.12996920196634 ], [ 71.44495346973477, 51.130012835658505 ], [ 71.445282792117936, 51.130855679418815 ], [ 71.445330851985645, 51.131029252248737 ], [ 71.4453490877859, 51.131239692222771 ], [ 71.445349896269661, 51.131382202327615 ], [ 71.446452847775504, 51.131214324476026 ], [ 71.44647305986939, 51.130814583320387 ] ] ] ] } },
{ "type": "Feature", "properties": { "Name": "Парк им. Б. Момышұлы", "Id": "9570836402929693" }, "geometry": { "type": "MultiPolygon", "coordinates": [ [ [ [ 71.458188208907302, 51.129958753512213 ], [ 71.458099235939514, 51.129736262746803 ], [ 71.458054320175322, 51.129682594105688 ], [ 71.458028448695131, 51.129669120560983 ], [ 71.457893791234056, 51.129673235911874 ], [ 71.457840790632275, 51.129673574159881 ], [ 71.45766076824934, 51.129702325230994 ], [ 71.453682309519053, 51.130362692945333 ], [ 71.453339781901207, 51.13041760101882 ], [ 71.4533774213116, 51.130542243230806 ], [ 71.453385775643753, 51.130568795191799 ], [ 71.453415091907104, 51.130664311194792 ], [ 71.458188208907302, 51.129958753512213 ] ] ], [ [ [ 71.460572682207271, 51.134647012623084 ], [ 71.460584065846945, 51.134638787875694 ], [ 71.460558906800912, 51.134618522578094 ], [ 71.460572682207271, 51.134647012623084 ] ] ] ] } },
{ "type": "Feature", "properties": { "Name": "Набережная в Президентском парке", "Id": "9570836438571629" }, "geometry": { "type": "MultiPolygon", "coordinates": [ [ [ [ 71.444277581224043, 51.12063313295014 ], [ 71.444293028337896, 51.120668478214768 ], [ 71.444805966365138, 51.120589989311497 ], [ 71.444828603910295, 51.120586493394605 ], [ 71.444807380864574, 51.120547267986623 ], [ 71.444277581224043, 51.12063313295014 ] ] ] ] } },
{ "type": "Feature", "properties": { "Name": "Мост Аркар", "Id": "9570836402929684" }, "geometry": { "type": "MultiPolygon", "coordinates": [ [ [ [ 71.440368479738297, 51.132409997803514 ], [ 71.440513007453845, 51.132387370881148 ], [ 71.442876924124008, 51.132019884561934 ], [ 71.443284849094525, 51.132000830888707 ], [ 71.443790331104907, 51.131921459289615 ], [ 71.443894356014809, 51.131905393288825 ], [ 71.44843992118399, 51.131203444527046 ], [ 71.452793067219304, 51.130505149382884 ], [ 71.453682309519053, 51.130362692945333 ], [ 71.453572804885908, 51.130082119563056 ], [ 71.45268077780878, 51.13022463324009 ], [ 71.448351167633916, 51.130925469417164 ], [ 71.445349896269661, 51.131382202327615 ], [ 71.443949782067847, 51.131595233820128 ], [ 71.44315252725319, 51.131717730711252 ], [ 71.442785924785724, 51.131815085348784 ], [ 71.442144437841336, 51.13191717502329 ], [ 71.441572390668412, 51.131992826088734 ], [ 71.441262651558461, 51.132053313028798 ], [ 71.440537621292634, 51.132166000043213 ], [ 71.440289556292399, 51.132204630104496 ], [ 71.440368479738297, 51.132409997803514 ] ] ] ] } },
{ "type": "Feature", "properties": { "Name": "Мост Арыс", "Id": "9570836402929685" }, "geometry": { "type": "MultiPolygon", "coordinates": [ [ [ [ 71.443208761789961, 51.121144539876262 ], [ 71.444838215883834, 51.120896388484084 ], [ 71.446862120218952, 51.120588128581581 ], [ 71.446986177559694, 51.12056923934928 ], [ 71.449477924494786, 51.120165797334735 ], [ 71.449359526540334, 51.119861084915975 ], [ 71.446867060953011, 51.120272423652033 ], [ 71.441864702461856, 51.121043159395839 ], [ 71.441977800356142, 51.121333260344898 ], [ 71.443208761789961, 51.121144539876262 ] ] ] ] } },
{ "type": "Feature", "properties": { "Name": "Жилой комплекс Виктория", "Id": "9570836402929772" }, "geometry": { "type": "MultiPolygon", "coordinates": [ [ [ [ 71.459415603429065, 51.132253963331785 ], [ 71.459560884738309, 51.132237422835942 ], [ 71.460474471382284, 51.132102751037472 ], [ 71.460561248638712, 51.132078060225616 ], [ 71.460632934198387, 51.132028058472592 ], [ 71.460655122585905, 51.131961370593721 ], [ 71.460647576737529, 51.131848795823956 ], [ 71.460035374871396, 51.130349726963622 ], [ 71.458737848275021, 51.130559831792667 ], [ 71.459405004190558, 51.132232042179403 ], [ 71.459415603429065, 51.132253963331785 ] ] ] ] } },
{ "type": "Feature", "properties": { "Name": "Жилой комплекс Highvill", "Id": "9570836402929773" }, "geometry": { "type": "MultiPolygon", "coordinates": [ [ [ [ 71.458227605193613, 51.129259556751187 ], [ 71.458249434255052, 51.129280641060767 ], [ 71.45830243485679, 51.129307193747103 ], [ 71.458368011872537, 51.129328503535284 ], [ 71.458437990633172, 51.129331942415533 ], [ 71.458521713617642, 51.12932123114836 ], [ 71.463827253517195, 51.128505081659327 ], [ 71.469927353285541, 51.127551977594401 ], [ 71.469961399434794, 51.127541096782615 ], [ 71.47000155412799, 51.127528130008734 ], [ 71.470031198532368, 51.12750743954026 ], [ 71.470063987040248, 51.127477785065196 ], [ 71.47008437879721, 51.127452358874642 ], [ 71.470093721276143, 51.127415149790082 ], [ 71.470090128015016, 51.127386679182401 ], [ 71.469013856473111, 51.124985500818447 ], [ 71.468986547688473, 51.124937126419141 ], [ 71.468955016821994, 51.124912995580964 ], [ 71.468908753584856, 51.124898787698385 ], [ 71.468855663151572, 51.124897603707971 ], [ 71.468801494739964, 51.124902114147481 ], [ 71.468748494138183, 51.124913841288127 ], [ 71.459576784918852, 51.127316263683277 ], [ 71.459260847433427, 51.127419321719231 ], [ 71.458928291115242, 51.127577009089528 ], [ 71.458625828359089, 51.127773032288339 ], [ 71.458398734255255, 51.127986024053065 ], [ 71.458225269573887, 51.128218408336018 ], [ 71.458128071860159, 51.128441207501638 ], [ 71.45808683918861, 51.128686725074239 ], [ 71.45810184105386, 51.128907661585835 ], [ 71.458206764279041, 51.129231143655659 ], [ 71.458227605193613, 51.129259556751187 ] ] ] ] } },
{ "type": "Feature", "properties": { "Name": "Жилой комплекс Гранд Астана", "Id": "9570836402929786" }, "geometry": { "type": "MultiPolygon", "coordinates": [ [ [ [ 71.466462281740107, 51.119912509506591 ], [ 71.466473870007277, 51.119859731636481 ], [ 71.46628998486861, 51.119376439169592 ], [ 71.466037019284613, 51.118712249149297 ], [ 71.465817650692216, 51.118138553606791 ], [ 71.465021114529776, 51.117801347673655 ], [ 71.463247121506697, 51.118082390381396 ], [ 71.46214542764227, 51.118256857044976 ], [ 71.460897488049554, 51.118454611448492 ], [ 71.46112530080562, 51.119029430819623 ], [ 71.461129433055916, 51.11903941143418 ], [ 71.461152250264149, 51.119063432565461 ], [ 71.461209293284682, 51.119084972630311 ], [ 71.46132077421143, 51.119089201699452 ], [ 71.462799670663685, 51.118856827873188 ], [ 71.463032783479917, 51.118864722174258 ], [ 71.46327622692192, 51.118900528451462 ], [ 71.463276765911075, 51.118985335649299 ], [ 71.463256553817175, 51.119056384112753 ], [ 71.463216129629402, 51.119090836939421 ], [ 71.463048773491963, 51.119173839388502 ], [ 71.463011044250024, 51.119206149404782 ], [ 71.462984184623039, 51.119244549237685 ], [ 71.462940436668717, 51.119573624911041 ], [ 71.462861654418305, 51.120165684562188 ], [ 71.466340380356058, 51.119961001940922 ], [ 71.466417365975886, 51.119940815561648 ], [ 71.466462281740107, 51.119912509506591 ] ] ] ] } },
{ "type": "Feature", "properties": { "Name": "Жилой комплекс Akbulak town", "Id": "9570836402930078" }, "geometry": { "type": "MultiPolygon", "coordinates": [ [ [ [ 71.466195212606124, 51.135129361244474 ], [ 71.466466324158873, 51.135207881811098 ], [ 71.466839663990953, 51.134697523925404 ], [ 71.467772474581992, 51.134967528413483 ], [ 71.468336077591246, 51.134206833230344 ], [ 71.466360592449945, 51.133698831809873 ], [ 71.465549323916846, 51.134942331819282 ], [ 71.46233290604205, 51.134010104537289 ], [ 71.461927855680457, 51.134552092878856 ], [ 71.465817111703046, 51.135650480526166 ], [ 71.466195212606124, 51.135129361244474 ] ] ] ] } },
{ "type": "Feature", "properties": { "Name": "Жилой комплекс \"Highvill Gold Ishim\"", "Id": "9570836443198715" }, "geometry": { "type": "MultiPolygon", "coordinates": [ [ [ [ 71.457182864518188, 51.119619072806451 ], [ 71.456572549114156, 51.119728068631524 ], [ 71.456409325227057, 51.119770640650614 ], [ 71.456174325948709, 51.119854318518207 ], [ 71.455955316682449, 51.119948314971744 ], [ 71.455769634913224, 51.120050092559708 ], [ 71.455596888884088, 51.120346796913282 ], [ 71.456120606694739, 51.12046295203249 ], [ 71.456704601460942, 51.120511500274901 ], [ 71.457694814398607, 51.12046064021014 ], [ 71.457580728357527, 51.119668411351981 ], [ 71.457931969633634, 51.119604186652097 ], [ 71.457909332088462, 51.119491130664066 ], [ 71.460924886665737, 51.119071552381655 ], [ 71.460726538651002, 51.118518724969896 ], [ 71.456980563916204, 51.119118072134455 ], [ 71.457182864518188, 51.119619072806451 ] ] ] ] } },
{ "type": "Feature", "properties": { "Name": "Жилой комплекс Хайвил Астана блок F", "Id": "70030076139045684" }, "geometry": { "type": "MultiPolygon", "coordinates": [ [ [ [ 71.466301123978113, 51.126500473413167 ], [ 71.469087967484072, 51.125770478307878 ], [ 71.468624077471318, 51.125069225620621 ], [ 71.465837233965402, 51.125799231808791 ], [ 71.466301123978113, 51.126500473413167 ] ] ] ] } },
{ "type": "Feature", "properties": { "Name": "Футбольное поле", "Id": "70030076129655285" }, "geometry": { "type": "MultiPolygon", "coordinates": [ [ [ [ 71.465503150511239, 51.134554178521128 ], [ 71.465866608875203, 51.134055932814874 ], [ 71.465321331497734, 51.133898436674151 ], [ 71.464957783302253, 51.134396740448707 ], [ 71.465503150511239, 51.134554178521128 ] ] ] ] } },
{ "type": "Feature", "properties": { "Name": "Футбольное поле", "Id": "70030076129678521" }, "geometry": { "type": "MultiPolygon", "coordinates": [ [ [ [ 71.462938011217446, 51.134471034600615 ], [ 71.463021644370372, 51.134350236081879 ], [ 71.462635728124326, 51.134242571246808 ], [ 71.462550118677754, 51.13436342641613 ], [ 71.462938011217446, 51.134471034600615 ] ] ] ] } },
{ "type": "Feature", "properties": { "Name": "Баскетбольная площадка", "Id": "70030076129678549" }, "geometry": { "type": "MultiPolygon", "coordinates": [ [ [ [ 71.46411282794601, 51.13487158963008 ], [ 71.464201222169962, 51.134748819262782 ], [ 71.463810724515966, 51.134637660503572 ], [ 71.463722330292001, 51.134760431166413 ], [ 71.46411282794601, 51.13487158963008 ] ] ] ] } },
{ "type": "Feature", "properties": { "Name": "Футбольное поле", "Id": "70030076129678570" }, "geometry": { "type": "MultiPolygon", "coordinates": [ [ [ [ 71.4653920289106, 51.135233190996161 ], [ 71.46548033330302, 51.135110365222282 ], [ 71.46508983564901, 51.134999207333443 ], [ 71.465001531256604, 51.135122033403015 ], [ 71.4653920289106, 51.135233190996161 ] ] ] ] } },
{ "type": "Feature", "properties": { "Name": "Футбольное поле", "Id": "70030076129696423" }, "geometry": { "type": "MultiPolygon", "coordinates": [ [ [ [ 71.462959121626611, 51.118707061448774 ], [ 71.46290755832932, 51.118576184593792 ], [ 71.46249172818429, 51.118641030992229 ], [ 71.46254329148158, 51.118771907663522 ], [ 71.462959121626611, 51.118707061448774 ] ] ] ] } },
{ "type": "Feature", "properties": { "Name": "Футбольное поле", "Id": "70030076163853066" }, "geometry": { "type": "MultiPolygon", "coordinates": [ [ [ [ 71.465492730053938, 51.119899202271526 ], [ 71.465452575360757, 51.119630688514484 ], [ 71.465196645336292, 51.11964585659485 ], [ 71.465236800029516, 51.119914370263729 ], [ 71.465492730053938, 51.119899202271526 ] ] ] ] } },
{ "type": "Feature", "properties": { "Name": "Футбольное поле", "Id": "70030076167487577" }, "geometry": { "type": "MultiPolygon", "coordinates": [ [ [ [ 71.462343146836304, 51.119677151317411 ], [ 71.462699149183379, 51.119660122480028 ], [ 71.462651538473338, 51.119265694506488 ], [ 71.462295536126248, 51.11928266710192 ], [ 71.462302722648502, 51.11934209933046 ], [ 71.462343146836304, 51.119677151317411 ] ] ] ] } },
{ "type": "Feature", "properties": { "Name": "Баскетбольная площадка", "Id": "70030076167627676" }, "geometry": { "type": "MultiPolygon", "coordinates": [ [ [ [ 71.462134019038146, 51.119349373288657 ], [ 71.462095930470099, 51.119095573496232 ], [ 71.461882580590128, 51.119108260699591 ], [ 71.46192013016902, 51.119358733574273 ], [ 71.462134019038146, 51.119349373288657 ] ] ] ] } },
{ "type": "Feature", "properties": { "Name": "Футбольное поле", "Id": "70030076179843130" }, "geometry": { "type": "MultiPolygon", "coordinates": [ [ [ [ 71.463512663504687, 51.132742509046011 ], [ 71.463598542445851, 51.132618943822919 ], [ 71.463205799003617, 51.13251088035269 ], [ 71.463119920062482, 51.132634445864944 ], [ 71.463512663504687, 51.132742509046011 ] ] ] ] } },
{ "type": "Feature", "properties": { "Name": "Баскетбольная площадка", "Id": "70030076215812595" }, "geometry": { "type": "MultiPolygon", "coordinates": [ [ [ [ 71.449754156444641, 51.1310943630316 ], [ 71.450621210356886, 51.130950950068794 ], [ 71.450582403136593, 51.130855172059817 ], [ 71.449715259392832, 51.130998585320064 ], [ 71.449754156444641, 51.1310943630316 ] ] ] ] } },
{ "type": "Feature", "properties": { "Name": "Футбольное поле", "Id": "70030076261393372" }, "geometry": { "type": "MultiPolygon", "coordinates": [ [ [ [ 71.461156562177493, 51.132104780418679 ], [ 71.46106682048061, 51.131896599264977 ], [ 71.460915095029122, 51.131922473984226 ], [ 71.46100492655755, 51.132130655021278 ], [ 71.461156562177493, 51.132104780418679 ] ] ] ] } },
{ "type": "Feature", "properties": { "Name": "Баскетбольная площадка", "Id": "70030076316605829" }, "geometry": { "type": "MultiPolygon", "coordinates": [ [ [ [ 71.469492299193448, 51.13007789150025 ], [ 71.46958662229828, 51.12994552475179 ], [ 71.469130547628524, 51.129816934715024 ], [ 71.469036224523691, 51.129949301832063 ], [ 71.469492299193448, 51.13007789150025 ] ] ] ] } },
{ "type": "Feature", "properties": { "Name": "Футбольное поле", "Id": "70030076324088623" }, "geometry": { "type": "MultiPolygon", "coordinates": [ [ [ [ 71.460818795630672, 51.132796906952272 ], [ 71.460723484379031, 51.132524804037807 ], [ 71.460542024691634, 51.132549889208882 ], [ 71.460637425774806, 51.132822048346362 ], [ 71.460818795630672, 51.132796906952272 ] ] ] ] } },
{ "type": "Feature", "properties": { "Name": "Футбольное поле", "Id": "70030076324091069" }, "geometry": { "type": "MultiPolygon", "coordinates": [ [ [ [ 71.462827608269023, 51.132184771790293 ], [ 71.463105097860279, 51.13177066414994 ], [ 71.46271019846138, 51.131665811912107 ], [ 71.462432708870125, 51.132080033236171 ], [ 71.462827608269023, 51.132184771790293 ] ] ] ] } },
{ "type": "Feature", "properties": { "Name": "Футбольное поле", "Id": "70030076821387947" }, "geometry": { "type": "MultiPolygon", "coordinates": [ [ [ [ 71.466164580054937, 51.134760825745609 ], [ 71.466337056589481, 51.134513931245422 ], [ 71.46614095436297, 51.134459704468341 ], [ 71.465968477828412, 51.134706542889944 ], [ 71.466164580054937, 51.134760825745609 ] ] ] ] } },
{ "type": "Feature", "properties": { "Name": "Баскетбольное поле", "Id": "70030076821390844" }, "geometry": { "type": "MultiPolygon", "coordinates": [ [ [ [ 71.466206711041764, 51.135457140040309 ], [ 71.466400926806187, 51.135514240390478 ], [ 71.466491566818362, 51.135392091776467 ], [ 71.466297351053939, 51.135335047642975 ], [ 71.466206711041764, 51.135457140040309 ] ] ] ] } },
{ "type": "Feature", "properties": { "Name": "Футбольное поле", "Id": "70030076894588950" }, "geometry": { "type": "MultiPolygon", "coordinates": [ [ [ [ 71.455672077873359, 51.119731395452959 ], [ 71.455684384792761, 51.119722881045057 ], [ 71.455690583168206, 51.119711998388944 ], [ 71.455689774684473, 51.119700439088192 ], [ 71.455681869509974, 51.119689951134767 ], [ 71.455668304949171, 51.119682226135289 ], [ 71.455651057295711, 51.119678279054767 ], [ 71.455632641832395, 51.119678786536561 ], [ 71.455498703023537, 51.119699762446103 ], [ 71.455482084190777, 51.119704780874656 ], [ 71.455469777271375, 51.119713295285912 ], [ 71.455463578895916, 51.119724177941713 ], [ 71.455464387379664, 51.119735737236532 ], [ 71.455472292554177, 51.119746225179561 ], [ 71.455485857114965, 51.119753950168338 ], [ 71.455503104768425, 51.119757840855634 ], [ 71.455521520231741, 51.119757333374693 ], [ 71.455655459040614, 51.119736357491277 ], [ 71.455672077873359, 51.119731395452959 ] ] ] ] } },
{ "type": "Feature", "properties": { "Name": "Футбольное поле", "Id": "70030076894619465" }, "geometry": { "type": "MultiPolygon", "coordinates": [ [ [ [ 71.464146963926808, 51.119978932851424 ], [ 71.464106809233598, 51.119710419557791 ], [ 71.463850879209161, 51.119725587611974 ], [ 71.463891033902371, 51.119994044430982 ], [ 71.464146963926808, 51.119978932851424 ] ] ] ] } },
{ "type": "Feature", "properties": { "Name": "Футбольное поле", "Id": "70030076911095375" }, "geometry": { "type": "MultiPolygon", "coordinates": [ [ [ [ 71.459306122523742, 51.119957167657269 ], [ 71.459231652186674, 51.119765001974841 ], [ 71.459051180646114, 51.119792687866294 ], [ 71.459125650983168, 51.11998485343355 ], [ 71.459306122523742, 51.119957167657269 ] ] ] ] } },
{ "type": "Feature", "properties": { "Name": "Баскетбольная площадка", "Id": "70030076958330116" }, "geometry": { "type": "MultiPolygon", "coordinates": [ [ [ [ 71.464399480353194, 51.126984988045095 ], [ 71.46462369984809, 51.126926129429222 ], [ 71.464453379270225, 51.126668988561974 ], [ 71.4642291597753, 51.126727791127294 ], [ 71.464399480353194, 51.126984988045095 ] ] ] ] } },
{ "type": "Feature", "properties": { "Name": "Футбольное поле", "Id": "70030076958330520" }, "geometry": { "type": "MultiPolygon", "coordinates": [ [ [ [ 71.4644871559249, 51.126630143873285 ], [ 71.464289616393927, 51.126331393862074 ], [ 71.464012575960297, 51.126403840494419 ], [ 71.4642102053228, 51.126702646415332 ], [ 71.4644871559249, 51.126630143873285 ] ] ] ] } },
{ "type": "Feature", "properties": { "Name": "футбольное поле", "Id": "70030076995480307" }, "geometry": { "type": "MultiPolygon", "coordinates": [ [ [ [ 71.467604489623852, 51.127144706497447 ], [ 71.467556609419219, 51.127013289766651 ], [ 71.467278221512657, 51.127053543579777 ], [ 71.467326101717319, 51.127184903818325 ], [ 71.467604489623852, 51.127144706497447 ] ] ] ] } },
{ "type": "Feature", "properties": { "Name": "футбольное поле", "Id": "70030077004735334" }, "geometry": { "type": "MultiPolygon", "coordinates": [ [ [ [ 71.456776556515194, 51.12010506927988 ], [ 71.456751403687235, 51.119925929510956 ], [ 71.456552247188739, 51.119937037662872 ], [ 71.456577400016712, 51.120116121002404 ], [ 71.456776556515194, 51.12010506927988 ] ] ] ] } },
{ "type": "Feature", "properties": { "Name": "Баскетбольное поле", "Id": "70030077045509726" }, "geometry": { "type": "MultiPolygon", "coordinates": [ [ [ [ 71.462272629086499, 51.132283816587666 ], [ 71.462570600266233, 51.132370966814214 ], [ 71.462660880952285, 51.132248640770463 ], [ 71.462362909772551, 51.132161546684685 ], [ 71.462272629086499, 51.132283816587666 ] ] ] ] } },
{ "type": "Feature", "properties": { "Name": "Футбольное поле", "Id": "70030077148819351" }, "geometry": { "type": "MultiPolygon", "coordinates": [ [ [ [ 71.463693404539853, 51.129974444776494 ], [ 71.463728528667474, 51.129925286361143 ], [ 71.463441786428774, 51.129844276335461 ], [ 71.463406662301168, 51.129893491211412 ], [ 71.463693404539853, 51.129974444776494 ] ] ] ] } },
{ "type": "Feature", "properties": { "Name": "Жилой комплекс Baitas", "Id": "70030076504917706" }, "geometry": { "type": "MultiPolygon", "coordinates": [ [ [ [ 71.469646926593612, 51.133391057171544 ], [ 71.469107910083352, 51.134116022467872 ], [ 71.469129009891589, 51.134122233692047 ], [ 71.469646926593612, 51.133391057171544 ] ] ] ] } },
{ "type": "Feature", "properties": { "Name": "Левый берег", "Id": "70030076373782470" }, "geometry": { "type": "MultiPolygon", "coordinates": [ [ [ [ 71.448188712989634, 51.131436869629283 ], [ 71.44813305668292, 51.131250741281434 ], [ 71.448031726718867, 51.13097406303708 ], [ 71.447972258247077, 51.130718523161633 ], [ 71.448154526418222, 51.130659669303682 ], [ 71.44839168165322, 51.130335069762531 ], [ 71.448557690317728, 51.130323174876693 ], [ 71.448652732074791, 51.130182803717524 ], [ 71.448689024012268, 51.130147231681306 ], [ 71.448743641581544, 51.130117240656425 ], [ 71.448817303434851, 51.130100328415764 ], [ 71.448992295252197, 51.130068195141448 ], [ 71.449050685745647, 51.130053425102581 ], [ 71.449100721906973, 51.130026534599871 ], [ 71.449130905300521, 51.129999474958701 ], [ 71.449337877141971, 51.129725720697223 ], [ 71.449521313123, 51.129711345171181 ], [ 71.449602251330106, 51.12959357843841 ], [ 71.449622014266353, 51.129564827299603 ], [ 71.449657677383129, 51.129525703172149 ], [ 71.449714361077554, 51.129500165359268 ], [ 71.449768170163082, 51.129492836624472 ], [ 71.450018620464306, 51.129454445310202 ], [ 71.45027302335275, 51.12912870979121 ], [ 71.45043022852748, 51.129112191816013 ], [ 71.45055635199337, 51.128972437106803 ], [ 71.45060728646996, 51.128924968892335 ], [ 71.450672055001945, 51.128898303235005 ], [ 71.450753622029751, 51.128883645573275 ], [ 71.450869414869885, 51.128870510049353 ], [ 71.450923583281522, 51.128858614786296 ], [ 71.450965714268335, 51.128837135654244 ], [ 71.451221464629739, 51.128535130107196 ], [ 71.452140351333853, 51.128404562975874 ], [ 71.45415437420084, 51.126182271837003 ], [ 71.453625356330036, 51.12479335605223 ], [ 71.453537501095241, 51.124578094329024 ], [ 71.453354963429504, 51.124103308443445 ], [ 71.453312203621977, 51.123992124058582 ], [ 71.453273486233257, 51.123891370026335 ], [ 71.453261538639964, 51.12386024730381 ], [ 71.453229019626676, 51.12377584372787 ], [ 71.453212221130855, 51.12373214776126 ], [ 71.453193805667553, 51.123684335869129 ], [ 71.453147632261931, 51.123564072954686 ], [ 71.453032019084873, 51.123263442489986 ], [ 71.452958087737002, 51.123216532233506 ], [ 71.446917725935037, 51.12079895444419 ], [ 71.446862120218952, 51.120588128581581 ], [ 71.446495068593862, 51.120329655550577 ], [ 71.446475109777964, 51.120276978104677 ], [ 71.436337157264674, 51.121920042493628 ], [ 71.440434972798784, 51.132583020239075 ], [ 71.448188712989634, 51.131436869629283 ] ] ] ] } },
{ "type": "Feature", "properties": { "Name": "Правый берег", "Id": "70030077012477177" }, "geometry": { "type": "MultiPolygon", "coordinates": [ [ [ [ 71.458297985584807, 51.129942526426603 ], [ 71.460837476901716, 51.135194656195679 ], [ 71.466897626635273, 51.137272421818608 ], [ 71.471803462133849, 51.130346536408844 ], [ 71.46616175131048, 51.117086351634718 ], [ 71.446475109777964, 51.120276978104677 ], [ 71.446495068593862, 51.120329655550577 ], [ 71.446862120218952, 51.120588128581581 ], [ 71.446917725935037, 51.12079895444419 ], [ 71.452958087737002, 51.123216532233506 ], [ 71.453032019084873, 51.123263442489986 ], [ 71.453147632261931, 51.123564072954686 ], [ 71.453193805667553, 51.123684335869129 ], [ 71.453212221130855, 51.12373214776126 ], [ 71.453229019626676, 51.12377584372787 ], [ 71.453261538639964, 51.12386024730381 ], [ 71.453273486233257, 51.123891370026335 ], [ 71.453312203621977, 51.123992124058582 ], [ 71.453354963429504, 51.124103308443445 ], [ 71.453537501095241, 51.124578094329024 ], [ 71.453625356330036, 51.12479335605223 ], [ 71.45415437420084, 51.126182271837003 ], [ 71.452140351333853, 51.128404562975874 ], [ 71.451221464629739, 51.128535130107196 ], [ 71.450965714268335, 51.128837135654244 ], [ 71.450923583281522, 51.128858614786296 ], [ 71.450869414869885, 51.128870510049353 ], [ 71.450753622029751, 51.128883645573275 ], [ 71.450672055001945, 51.128898303235005 ], [ 71.45060728646996, 51.128924968892335 ], [ 71.45055635199337, 51.128972437106803 ], [ 71.45043022852748, 51.129112191816013 ], [ 71.45027302335275, 51.12912870979121 ], [ 71.450018620464306, 51.129454445310202 ], [ 71.449768170163082, 51.129492836624472 ], [ 71.449714361077554, 51.129500165359268 ], [ 71.449657677383129, 51.129525703172149 ], [ 71.449622014266353, 51.129564827299603 ], [ 71.449602251330106, 51.12959357843841 ], [ 71.449521313123, 51.129711345171181 ], [ 71.449337877141971, 51.129725720697223 ], [ 71.449130905300521, 51.129999474958701 ], [ 71.449100721906973, 51.130026534599871 ], [ 71.449050685745647, 51.130053425102581 ], [ 71.448992295252197, 51.130068195141448 ], [ 71.448817303434851, 51.130100328415764 ], [ 71.448743641581544, 51.130117240656425 ], [ 71.448689024012268, 51.130147231681306 ], [ 71.448652732074791, 51.130182803717524 ], [ 71.448557690317728, 51.130323174876693 ], [ 71.44839168165322, 51.130335069762531 ], [ 71.448154526418222, 51.130659669303682 ], [ 71.447972258247077, 51.130718523161633 ], [ 71.448031726718867, 51.13097406303708 ], [ 71.44813305668292, 51.131250741281434 ], [ 71.448188712989634, 51.131436869629283 ], [ 71.458297985584807, 51.129942526426603 ] ] ], [ [ [ 71.408662473481442, 51.193150850076037 ], [ 71.40209250162745, 51.195353666407755 ], [ 71.403679683700531, 51.198095162715788 ], [ 71.410518995542674, 51.195825011387029 ], [ 71.408662473481442, 51.193150850076037 ] ] ] ] } },
{ "type": "Feature", "properties": { "Name": "Бизнес-центр Downtown", "Id": "70030076138975969" }, "geometry": { "type": "MultiPolygon", "coordinates": [ [ [ [ 71.464769586250227, 51.129654406769191 ], [ 71.464969910558594, 51.129727637433682 ], [ 71.465586334506554, 51.129549493351583 ], [ 71.465948984386756, 51.129040313186195 ], [ 71.466118855806968, 51.128781267313819 ], [ 71.466161166456857, 51.128508351472618 ], [ 71.465238416997011, 51.128649573360015 ], [ 71.465091722111111, 51.128671841841772 ], [ 71.464991559956928, 51.128687063329458 ], [ 71.464136094311868, 51.128816389396462 ], [ 71.46442130941459, 51.129527056168456 ], [ 71.464769586250227, 51.129654406769191 ] ] ] ] } },
{ "type": "Feature", "properties": { "Name": "Сквер", "Id": "70030076167972111" }, "geometry": { "type": "MultiPolygon", "coordinates": [ [ [ [ 71.406997070886831, 51.193709235426205 ], [ 71.407038995190177, 51.193760874049872 ], [ 71.407853138332186, 51.193499207633771 ], [ 71.407886465829208, 51.193472691870554 ], [ 71.40790407280879, 51.19344837166669 ], [ 71.407907935564495, 51.193421180312434 ], [ 71.407904923913108, 51.193404845465714 ], [ 71.406997070886831, 51.193709235426205 ] ] ] ] } },
{ "type": "Feature", "properties": { "Name": "Привокзальная площадь", "Id": "70030076166255478" }, "geometry": { "type": "MultiPolygon", "coordinates": [ [ [ [ 71.407153889715005, 51.194892192641113 ], [ 71.406636909268997, 51.195055673086379 ], [ 71.406507102710435, 51.195105606564042 ], [ 71.406432093384225, 51.195154695567112 ], [ 71.406414486404657, 51.19521723893449 ], [ 71.406432722204926, 51.195282146587807 ], [ 71.406839479365573, 51.19579470554708 ], [ 71.406887898559376, 51.19582780635799 ], [ 71.406941438150326, 51.195847058859528 ], [ 71.407011776237056, 51.195850323902853 ], [ 71.407162423710218, 51.195809116787395 ], [ 71.407763666129881, 51.195621038487872 ], [ 71.407925362881016, 51.195552247011449 ], [ 71.407957432736666, 51.195526295372154 ], [ 71.407976387189166, 51.195501469603734 ], [ 71.407990850065232, 51.195471521039899 ], [ 71.407892035383981, 51.195325380776232 ], [ 71.407853677321327, 51.195244823290949 ], [ 71.407816756563165, 51.195175017948728 ], [ 71.407711743506454, 51.195024316861357 ], [ 71.407630086647131, 51.194907110818747 ], [ 71.407565677441269, 51.194891291920804 ], [ 71.407483481592763, 51.194875247837267 ], [ 71.407392122928371, 51.194865733974567 ], [ 71.407265999462481, 51.194871025709098 ], [ 71.407153889715005, 51.194892192641113 ] ] ] ] } },
{ "type": "Feature", "properties": { "Name": "Футбольное поле", "Id": "70030076129697005" }, "geometry": { "type": "MultiPolygon", "coordinates": [ [ [ [ 71.405037997894809, 51.196189549384385 ], [ 71.404941429001767, 51.196059117313389 ], [ 71.404604291275632, 51.196157687289784 ], [ 71.404700770337129, 51.196288119081721 ], [ 71.405037997894809, 51.196189549384385 ] ] ] ] } }
]
}
