{
"type": "FeatureCollection",
"name": "RiverLine",
"crs": { "type": "name", "properties": { "name": "urn:ogc:def:crs:OGC:1.3:CRS84" } },
"xy_coordinate_resolution": 1e-15,
"features": [
{ "type": "Feature", "properties": { "Id": "9570853582799613" }, "geometry": { "type": "MultiLineString", "coordinates": [ [ [ 71.459042377156322, 51.124805308742935 ], [ 71.459138137565617, 51.124754115121398 ], [ 71.459185299118033, 51.124719384614586 ] ] ] } },
{ "type": "Feature", "properties": { "Id": "9570853582799614" }, "geometry": { "type": "MultiLineString", "coordinates": [ [ [ 71.459222040213149, 51.124646878959375 ], [ 71.459276657782439, 51.124402298390287 ] ] ] } },
{ "type": "Feature", "properties": { "Id": "9570853582799615" }, "geometry": { "type": "MultiLineString", "coordinates": [ [ [ 71.459276478119378, 51.124291904062389 ], [ 71.459275400141038, 51.124196394150111 ], [ 71.459266955977355, 51.124141873350119 ], [ 71.45922734027333, 51.124010166167615 ] ] ] } },
{ "type": "Feature", "properties": { "Id": "9570853582799616" }, "geometry": { "type": "MultiLineString", "coordinates": [ [ [ 71.459201828119262, 51.123903774004127 ], [ 71.459174698997671, 51.12381610036249 ], [ 71.459157271681164, 51.123731978615496 ] ] ] } },
{ "type": "Feature", "properties": { "Id": "9570853582799617" }, "geometry": { "type": "MultiLineString", "coordinates": [ [ [ 71.458773780886375, 51.123779452167149 ], [ 71.458859390332947, 51.123841979609061 ], [ 71.458891639851643, 51.123868535422183 ], [ 71.458929997914282, 51.123930329781714 ] ] ] } },
{ "type": "Feature", "properties": { "Id": "9570853582799618" }, "geometry": { "type": "MultiLineString", "coordinates": [ [ [ 71.459001593642427, 51.124038469711977 ], [ 71.45924925916627, 51.124323872212067 ] ] ] } },
{ "type": "Feature", "properties": { "Id": "9570853582799619" }, "geometry": { "type": "MultiLineString", "coordinates": [ [ [ 71.458606065422828, 51.125115795714244 ], [ 71.45824395453181, 51.125227766715753 ], [ 71.458171640151434, 51.125259903357893 ], [ 71.458052523544765, 51.125327954033317 ], [ 71.457963769994691, 51.12535890662717 ], [ 71.457842138105221, 51.125387604004388 ], [ 71.457715116324039, 51.125452497221929 ], [ 71.457652683411794, 51.125501378499337 ] ] ] } },
{ "type": "Feature", "properties": { "Id": "9570853582799620" }, "geometry": { "type": "MultiLineString", "coordinates": [ [ [ 71.458727158323128, 51.123679205108893 ], [ 71.458708832691329, 51.123591192748478 ], [ 71.458711797131784, 51.123555559253148 ], [ 71.458744226313527, 51.123519812965952 ], [ 71.458926674147733, 51.123405695296199 ] ] ] } },
{ "type": "Feature", "properties": { "Id": "9570853582799622" }, "geometry": { "type": "MultiLineString", "coordinates": [ [ [ 71.458288510969894, 51.125734790114201 ], [ 71.458243056216517, 51.125724134392257 ], [ 71.458104176673601, 51.125682357173005 ], [ 71.45793089165528, 51.125624060693227 ], [ 71.457898911631176, 51.125606131973832 ], [ 71.4578632485144, 51.12557230418242 ], [ 71.457851839910276, 51.125535995658737 ], [ 71.457842138105221, 51.125387604004388 ] ] ] } },
{ "type": "Feature", "properties": { "Id": "9570853582799623" }, "geometry": { "type": "MultiLineString", "coordinates": [ [ [ 71.457580638526011, 51.125642158544444 ], [ 71.457590609825658, 51.125692561868362 ], [ 71.457614954169856, 51.125730899930289 ], [ 71.457662744542986, 51.125751422056233 ], [ 71.458085042558039, 51.125878783068053 ], [ 71.458168046890293, 51.125908607707551 ], [ 71.458419754832903, 51.126064608863452 ] ] ] } },
{ "type": "Feature", "properties": { "Id": "9570853582799665" }, "geometry": { "type": "MultiLineString", "coordinates": [ [ [ 71.459878888348896, 51.122008576722259 ], [ 71.459999082933905, 51.122040433684155 ], [ 71.460041573246855, 51.122068287363824 ], [ 71.460070319335941, 51.122093603750407 ], [ 71.4600856805273, 51.122124784047116 ] ] ] } },
{ "type": "Feature", "properties": { "Id": "9570853582799672" }, "geometry": { "type": "MultiLineString", "coordinates": [ [ [ 71.458920475772288, 51.123371922275638 ], [ 71.458970781428178, 51.123329409957563 ], [ 71.459147030886939, 51.123237844831891 ], [ 71.459202546771493, 51.123201196177789 ], [ 71.45923776073063, 51.123156484780395 ], [ 71.459300193642875, 51.123034980070784 ], [ 71.459308098817374, 51.122998387638525 ], [ 71.459306841175973, 51.122959088799981 ], [ 71.459297947854651, 51.122905186751815 ], [ 71.459247911693325, 51.122765074962125 ], [ 71.459236413257699, 51.122717205685866 ], [ 71.459240904834118, 51.122680500235496 ], [ 71.45934142631441, 51.122579235892459 ] ] ] } },
{ "type": "Feature", "properties": { "Id": "9570853582799673" }, "geometry": { "type": "MultiLineString", "coordinates": [ [ [ 71.459543008264177, 51.123211119508539 ], [ 71.4595433675903, 51.12299083234074 ], [ 71.459529623366436, 51.122915335677824 ], [ 71.459501146771927, 51.122864365493591 ], [ 71.459440151164131, 51.122802175026671 ], [ 71.459417603450504, 51.122762255807061 ], [ 71.459456051344659, 51.122617463771881 ] ] ] } },
{ "type": "Feature", "properties": { "Id": "9570853582799674" }, "geometry": { "type": "MultiLineString", "coordinates": [ [ [ 71.459247911693325, 51.122765074962125 ], [ 71.459345917890829, 51.122838429316275 ], [ 71.459423173005263, 51.122875924002678 ], [ 71.459529623366436, 51.122915335677824 ] ] ] } },
{ "type": "Feature", "properties": { "Id": "9570853582799675" }, "geometry": { "type": "MultiLineString", "coordinates": [ [ [ 71.459166434497064, 51.12363776433228 ], [ 71.459345289070143, 51.123362450038393 ] ] ] } },
{ "type": "Feature", "properties": { "Id": "9570853582799676" }, "geometry": { "type": "MultiLineString", "coordinates": [ [ [ 71.458871248094695, 51.126189770233893 ], [ 71.460828497435728, 51.121179047530767 ], [ 71.460830383897843, 51.121140198225106 ], [ 71.460767861154054, 51.121130387219672 ], [ 71.460632664703795, 51.121157508442252 ], [ 71.46031277463112, 51.121256689659106 ] ] ] } },
{ "type": "Feature", "properties": { "Id": "9570853582799678" }, "geometry": { "type": "MultiLineString", "coordinates": [ [ [ 71.458063752485813, 51.12672266070512 ], [ 71.458020004531477, 51.126947553072029 ] ] ] } },
{ "type": "Feature", "properties": { "Id": "9570853582799682" }, "geometry": { "type": "MultiLineString", "coordinates": [ [ [ 71.456036524384146, 51.127875469159612 ], [ 71.456060778896799, 51.12782625213314 ], [ 71.456130667825917, 51.127737909412254 ], [ 71.456125098271158, 51.127713385397875 ], [ 71.456096442013589, 51.12768491497404 ], [ 71.456003825707782, 51.127575092263797 ], [ 71.45597328298814, 51.127530272345538 ], [ 71.45595783196525, 51.127485903402466 ], [ 71.455953430220362, 51.127443676757608 ], [ 71.45595783196525, 51.127406016646567 ], [ 71.455967803264897, 51.127364635590929 ], [ 71.455985230581419, 51.127323874651132 ], [ 71.456006251159067, 51.127284635870119 ], [ 71.456080272338468, 51.127169512702402 ], [ 71.456112521857179, 51.127131063079041 ], [ 71.456161300377104, 51.127089512643607 ], [ 71.456240262290578, 51.12702580566188 ], [ 71.456291915419413, 51.126991640642572 ], [ 71.456349946586769, 51.126962267726206 ], [ 71.456418757537534, 51.126939547396141 ], [ 71.456490443097209, 51.126918349261729 ], [ 71.456769908982096, 51.126860505366743 ], [ 71.456878605131465, 51.126851259357323 ], [ 71.456981731726088, 51.126852612431989 ], [ 71.45744059117321, 51.12691581225031 ], [ 71.457761738887285, 51.126942197162251 ], [ 71.458020004531477, 51.126947553072029 ], [ 71.458116573424519, 51.126943042832259 ], [ 71.458200655735112, 51.126928553684039 ], [ 71.458296505975923, 51.126899575373933 ], [ 71.458389751102416, 51.126850695576202 ] ] ] } },
{ "type": "Feature", "properties": { "Id": "9570853582799684" }, "geometry": { "type": "MultiLineString", "coordinates": [ [ [ 71.451287580634641, 51.12143204649135 ], [ 71.451908136832913, 51.121606895197324 ], [ 71.452084206628584, 51.121652397476993 ], [ 71.452638646821953, 51.121781235782841 ], [ 71.452775011082082, 51.121811457757921 ], [ 71.452935540023361, 51.121841848865898 ], [ 71.453113855607256, 51.121870040970457 ], [ 71.453833765475949, 51.121973280310485 ], [ 71.45395899062656, 51.121988898694106 ], [ 71.454219052901294, 51.122015173652464 ], [ 71.454435546884767, 51.122032370773752 ], [ 71.45456158051914, 51.122032314389763 ], [ 71.454726241710731, 51.122013538515994 ], [ 71.454980015778489, 51.121962116264079 ], [ 71.455087184791878, 51.121920843099431 ], [ 71.4551963300989, 51.121860568425248 ], [ 71.455297300736845, 51.121776725038586 ], [ 71.455396923901858, 51.121824708057922 ] ] ] } },
{ "type": "Feature", "properties": { "Id": "70030077077449675" }, "geometry": { "type": "MultiLineString", "coordinates": [ [ [ 71.46031277463112, 51.121256689659106 ], [ 71.460059719215593, 51.121335121044815 ], [ 71.459947250142022, 51.121361565529455 ], [ 71.459408889792243, 51.12148578110444 ], [ 71.458799742198096, 51.121543011499831 ], [ 71.458611994303709, 51.121574192168161 ], [ 71.458432600741475, 51.121607628196003 ], [ 71.458249613918085, 51.121646477108584 ], [ 71.45807713738354, 51.121694065572335 ], [ 71.457913105012651, 51.121741597602721 ], [ 71.457734699597239, 51.121814840813592 ], [ 71.457600401462258, 51.121860681193645 ], [ 71.457293896287325, 51.122030340949927 ], [ 71.457172623723949, 51.122092306920258 ], [ 71.456878874626042, 51.122221876988135 ], [ 71.456784910847347, 51.12225847003549 ] ] ] } },
{ "type": "Feature", "properties": { "Id": "9570853582798947" }, "geometry": { "type": "MultiLineString", "coordinates": [ [ [ 71.402871361273597, 51.195092526057877 ], [ 71.402994510286476, 51.195261092424076 ], [ 71.403081557037524, 51.195356173851849 ] ] ] } },
{ "type": "Feature", "properties": { "Id": "9570853582798948" }, "geometry": { "type": "MultiLineString", "coordinates": [ [ [ 71.403081557037524, 51.195356173851849 ], [ 71.403158093499727, 51.195502651783478 ], [ 71.403178305593627, 51.195526464254868 ], [ 71.403210105954685, 51.195541663698265 ], [ 71.403262387904206, 51.195578592695412 ], [ 71.403282510166562, 51.195595931299707 ], [ 71.403314759685287, 51.195665116769419 ], [ 71.403313232549294, 51.195693545268348 ], [ 71.403296793379596, 51.195715837702778 ], [ 71.403039336219166, 51.195990213903698 ] ] ] } }
]
}
