{
"type": "FeatureCollection",
"name": "RiverPolygon",
"crs": { "type": "name", "properties": { "name": "urn:ogc:def:crs:OGC:1.3:CRS84" } },
"xy_coordinate_resolution": 1e-15,
"features": [
{ "type": "Feature", "properties": { "Id": "9570853582798853" }, "geometry": { "type": "MultiPolygon", "coordinates": [ [ [ [ 71.448315952669049, 51.13141806117909 ], [ 71.448242471484534, 51.131229714244057 ], [ 71.446334359989535, 51.131528545316201 ], [ 71.446247462671934, 51.131723823432303 ], [ 71.448315952669049, 51.13141806117909 ] ] ] ] } },
{ "type": "Feature", "properties": { "Id": "9570853582798862" }, "geometry": { "type": "MultiPolygon", "coordinates": [ [ [ [ 71.446334359989535, 51.131528545316201 ], [ 71.448242471484534, 51.131229714244057 ], [ 71.448034960653885, 51.130697495881918 ], [ 71.448156143385731, 51.130656456016183 ], [ 71.448165036707039, 51.130644222972215 ], [ 71.448377488271746, 51.130352940272473 ], [ 71.448379464565363, 51.130350798066608 ], [ 71.448385483277761, 51.13034538617763 ], [ 71.44838997485418, 51.130342454737509 ], [ 71.448397610534087, 51.130338790437094 ], [ 71.448405785203178, 51.13033636636127 ], [ 71.448416295492009, 51.130334844267111 ], [ 71.44841872094328, 51.130334618771656 ], [ 71.448548437670297, 51.130325429831579 ], [ 71.448556253013265, 51.130324358728018 ], [ 71.448558319138428, 51.130323456746062 ], [ 71.448561732736508, 51.130320187061272 ], [ 71.448648150666841, 51.130192218182096 ], [ 71.44864913881365, 51.13019097795334 ], [ 71.448659020281781, 51.130179759518974 ], [ 71.448659738933998, 51.130179026656329 ], [ 71.448684442604318, 51.130154616686326 ], [ 71.448685969740296, 51.130153263708387 ], [ 71.448697198681344, 51.130144807595428 ], [ 71.448699624132601, 51.130143285494938 ], [ 71.448735197417875, 51.130123723680377 ], [ 71.448737263543009, 51.130122708946253 ], [ 71.44875514001717, 51.13011515481373 ], [ 71.44875972142512, 51.130113689086393 ], [ 71.448816494951075, 51.130100497538201 ], [ 71.44881784242402, 51.130100215667476 ], [ 71.44900235638336, 51.130066334793298 ], [ 71.44903505505971, 51.130058160535405 ], [ 71.449048709452015, 51.130054439838233 ], [ 71.449060477382247, 51.130049817153456 ], [ 71.449085360715614, 51.130036456464339 ], [ 71.449098476118763, 51.130028282201152 ], [ 71.449112849163313, 51.130015992616542 ], [ 71.449124437430484, 51.130004999636725 ], [ 71.449322156624518, 51.129743309570046 ], [ 71.449324132918136, 51.129741280085064 ], [ 71.44933096011431, 51.129735304378762 ], [ 71.449337877141971, 51.129731358157187 ], [ 71.449346590800246, 51.129728257554291 ], [ 71.449351980691958, 51.12972696093847 ], [ 71.449364197779801, 51.129725100576579 ], [ 71.449366623231072, 51.129724818703565 ], [ 71.449507748562212, 51.12971382565442 ], [ 71.449518708008668, 51.129712585412818 ], [ 71.449520953796892, 51.129711739793521 ], [ 71.449525984362481, 51.129706835201297 ], [ 71.449622014266353, 51.129567195041112 ], [ 71.449622643087054, 51.129566349419157 ], [ 71.449632704218232, 51.12955405971163 ], [ 71.449633872028102, 51.129552819465736 ], [ 71.44965713839396, 51.129530607783593 ], [ 71.449659384182169, 51.129528860163489 ], [ 71.4496686368296, 51.129522658930291 ], [ 71.449671780933087, 51.129520854935016 ], [ 71.449706725397647, 51.129505182723172 ], [ 71.449712474615467, 51.129503378727215 ], [ 71.449733674856176, 51.129499037861677 ], [ 71.449735291823686, 51.129498755987278 ], [ 71.450001193147784, 51.129457940555973 ], [ 71.450011164447446, 51.12945529093421 ], [ 71.45001664417066, 51.129452810437073 ], [ 71.450021045915562, 51.12944875144148 ], [ 71.45025694350916, 51.129147031770444 ], [ 71.450258021487514, 51.129145791513622 ], [ 71.450264489357551, 51.129139364727699 ], [ 71.450270328406901, 51.129135531205854 ], [ 71.450280389538094, 51.129131077555094 ], [ 71.450286408250477, 51.129129273544521 ], [ 71.45029943382211, 51.129126793029876 ], [ 71.450302128767959, 51.129126398402533 ], [ 71.45041980807018, 51.129114164953286 ], [ 71.450426904760917, 51.129112586443469 ], [ 71.450431665831928, 51.129109824051163 ], [ 71.450439121848774, 51.129103453635615 ], [ 71.450553118058338, 51.128977172650458 ], [ 71.450553836710569, 51.128976439768735 ], [ 71.450566053798426, 51.128964713659542 ], [ 71.450566772450657, 51.12896403715316 ], [ 71.450606567817744, 51.128930324572181 ], [ 71.450609801752776, 51.128928182300314 ], [ 71.450623006987442, 51.1289210789771 ], [ 71.450624534123421, 51.128920346094482 ], [ 71.450666485447201, 51.128901516644845 ], [ 71.45067151601279, 51.128899825376536 ], [ 71.450686607709557, 51.12889627371289 ], [ 71.450688045014019, 51.128895991834803 ], [ 71.450761886530373, 51.128882687187534 ], [ 71.450764042487052, 51.128882348933736 ], [ 71.450862318179134, 51.128871299308408 ], [ 71.450878577685771, 51.128868536901663 ], [ 71.450919630694273, 51.128859573172534 ], [ 71.450930859635321, 51.128855063119488 ], [ 71.450955203979504, 51.128842660471314 ], [ 71.450966253257505, 51.128835500759266 ], [ 71.451210325520194, 51.128547363709835 ], [ 71.451215086591205, 51.128543586514901 ], [ 71.451224608733227, 51.12853834354231 ], [ 71.451230447782578, 51.128536032124096 ], [ 71.451241586892095, 51.128533100569129 ], [ 71.451245180153222, 51.12853236768035 ], [ 71.452131098686436, 51.128406536143395 ], [ 71.452142058132907, 51.128402646184497 ], [ 71.452149424318222, 51.128398587096626 ], [ 71.4521876027178, 51.128356417662445 ], [ 71.4521876027178, 51.12835636128618 ], [ 71.452338250190948, 51.128190107352921 ], [ 71.453272857412543, 51.12715885731145 ], [ 71.45415500302154, 51.126185598193665 ], [ 71.453670361925759, 51.124913615766225 ], [ 71.45055006378638, 51.124979017073237 ], [ 71.450556441824901, 51.124991646280478 ], [ 71.450578989538528, 51.125039851481716 ], [ 71.45058159465286, 51.12504582779556 ], [ 71.450587433702196, 51.125044925710498 ], [ 71.450629834183601, 51.125044418287658 ], [ 71.450671336349728, 51.125050394600905 ], [ 71.450709335086245, 51.125062347225082 ], [ 71.450741584604941, 51.125079768733087 ], [ 71.450766378106792, 51.125101587894058 ], [ 71.450782098624273, 51.125126395196318 ], [ 71.450788027505141, 51.125152950271016 ], [ 71.450783625760266, 51.12517956171061 ], [ 71.450769252715702, 51.125204650871609 ], [ 71.450745716855252, 51.125226921014331 ], [ 71.450714365651834, 51.12524501902115 ], [ 71.450676995736018, 51.125257873675885 ], [ 71.450664509153583, 51.125259959737946 ], [ 71.450672324496551, 51.125283808494729 ], [ 71.450687146698741, 51.125333140990385 ], [ 71.450700621427984, 51.125382642573051 ], [ 71.450712658852808, 51.125432256862375 ], [ 71.450723438636217, 51.125482040237742 ], [ 71.450732781115164, 51.125531879939182 ], [ 71.450740865952724, 51.125581888725833 ], [ 71.450747513485823, 51.125631897458327 ], [ 71.450753083040595, 51.125681962516218 ], [ 71.450757035627831, 51.125732196658291 ], [ 71.450759820405224, 51.125782261607462 ], [ 71.45076098821508, 51.125832552019816 ], [ 71.450761078046625, 51.125882729618809 ], [ 71.450759730573694, 51.125932907163289 ], [ 71.4507569457963, 51.125983141032428 ], [ 71.450752903377534, 51.126033262088718 ], [ 71.450747603317367, 51.126083270332536 ], [ 71.450740776121194, 51.126133391280163 ], [ 71.450732691283648, 51.126183343036637 ], [ 71.450723348804672, 51.126233181981348 ], [ 71.450712658852808, 51.126283020872293 ], [ 71.450700621427984, 51.126332634194462 ], [ 71.45068705686721, 51.12638207832731 ], [ 71.450672414328068, 51.126431466028585 ], [ 71.450656244652947, 51.126480628162817 ], [ 71.450638996999501, 51.126529621109178 ], [ 71.450620312041593, 51.126578444868258 ], [ 71.450600279610754, 51.126627043062165 ], [ 71.450578989538528, 51.126675415691651 ], [ 71.45055635199337, 51.126723506379129 ], [ 71.450532456806812, 51.126771484260118 ], [ 71.450507214147322, 51.126819123822379 ], [ 71.450480893509507, 51.126866537823119 ], [ 71.450453045735685, 51.126913613506964 ], [ 71.450424119983538, 51.126960350874967 ], [ 71.450394026421534, 51.127006862683999 ], [ 71.450362405723524, 51.127053036178992 ], [ 71.450329796878705, 51.127098758605335 ], [ 71.450295750729438, 51.127144255475407 ], [ 71.450260716433377, 51.127189357656768 ], [ 71.450224334664355, 51.127234008772938 ], [ 71.450186785085478, 51.127278321580413 ], [ 71.450153367756911, 51.127316150928188 ], [ 71.450174208671498, 51.127329230516651 ], [ 71.450194690259977, 51.12736035090186 ], [ 71.450194780091493, 51.127394008251407 ], [ 71.45017447816609, 51.127425184970384 ], [ 71.450136659092621, 51.127448976231832 ], [ 71.450087161920479, 51.127461886650565 ], [ 71.450033712161058, 51.127461943027939 ], [ 71.450018081475122, 51.127457883857375 ], [ 71.449981520043053, 51.127493570719693 ], [ 71.449937143268016, 51.127535177168902 ], [ 71.449891419020062, 51.127576445317267 ], [ 71.449844886288346, 51.127617149656992 ], [ 71.44979709591523, 51.127657402943832 ], [ 71.449748137732243, 51.127697092424796 ], [ 71.449698191402433, 51.127736274478366 ], [ 71.449647346757359, 51.127774892728873 ], [ 71.449595334302401, 51.127813003554628 ], [ 71.449542333700649, 51.127850494203145 ], [ 71.449488434783603, 51.127887477429596 ], [ 71.449433457888219, 51.127923896858412 ], [ 71.449377403014481, 51.127959639737412 ], [ 71.449320539657009, 51.127994875198297 ], [ 71.4492626881527, 51.128029546865591 ], [ 71.449203938333127, 51.128063485610618 ], [ 71.449144290198262, 51.128096804188232 ], [ 71.449083653916588, 51.128129502599734 ], [ 71.4490223888142, 51.128161580846438 ], [ 71.448959955901955, 51.128192982553188 ], [ 71.448896984000541, 51.128223764097804 ], [ 71.448833023952304, 51.128253756352294 ], [ 71.44876834525185, 51.128283184823687 ], [ 71.448702858067648, 51.128311824007717 ], [ 71.44863656239967, 51.128339786658458 ], [ 71.448569548079476, 51.128367072777138 ], [ 71.448501815107065, 51.128393625988714 ], [ 71.448433363482394, 51.128419446294465 ], [ 71.448364283037051, 51.128444533695607 ], [ 71.448294483939478, 51.128468944569491 ], [ 71.448224145852734, 51.128492509788849 ], [ 71.448152999282229, 51.128515398483223 ], [ 71.448081403554085, 51.128537554277564 ], [ 71.448009268836771, 51.128558920796905 ], [ 71.447936415467225, 51.12857938529033 ], [ 71.447863202771572, 51.128599173262934 ], [ 71.447789271423687, 51.128618284715621 ], [ 71.447714890918164, 51.128636494145475 ], [ 71.447640061255001, 51.12865391430541 ], [ 71.447564782434199, 51.128670601572196 ], [ 71.447544660171829, 51.128674660636165 ], [ 71.447631706922863, 51.128898472361847 ], [ 71.44763080860757, 51.128927844046842 ], [ 71.44762380174835, 51.128953889556115 ], [ 71.446548698016315, 51.130621560826917 ], [ 71.446492104153421, 51.130721454577888 ], [ 71.44647305986939, 51.130814583320387 ], [ 71.446452847775504, 51.131214324476026 ], [ 71.446334359989535, 51.131528545316201 ] ] ] ] } },
{ "type": "Feature", "properties": { "Id": "9570853582798863" }, "geometry": { "type": "MultiPolygon", "coordinates": [ [ [ [ 71.449981699706115, 51.124221709370431 ], [ 71.450024908671281, 51.124263882579676 ], [ 71.450067219321156, 51.124306506800174 ], [ 71.450108272329643, 51.1243495256495 ], [ 71.450148157528261, 51.124393051888774 ], [ 71.450186874916994, 51.124436916373384 ], [ 71.4502244244959, 51.124481175483382 ], [ 71.450260806264893, 51.124525941979542 ], [ 71.4502959303925, 51.124570990336778 ], [ 71.450329886710236, 51.124616376935116 ], [ 71.450362495555055, 51.124662270915927 ], [ 71.450393936590004, 51.124708333993297 ], [ 71.450424299646599, 51.124754848070133 ], [ 71.450453135567216, 51.124801587622564 ], [ 71.450480803677976, 51.124848665411044 ], [ 71.450507303978853, 51.124896137815036 ], [ 71.450532456806812, 51.124943779311558 ], [ 71.45055006378638, 51.124979017073237 ], [ 71.453670361925759, 51.124913615766225 ], [ 71.453628230938946, 51.12480294075727 ], [ 71.453628141107416, 51.12480294075727 ], [ 71.453612959579104, 51.124765447635021 ], [ 71.453545316438209, 51.124746954775539 ], [ 71.453508755006155, 51.12473415635931 ], [ 71.453483422515134, 51.124719722898874 ], [ 71.453463479915825, 51.124701681066981 ], [ 71.453452879795478, 51.124685330650735 ], [ 71.453452879795478, 51.124671122698132 ], [ 71.453456742551211, 51.12465776045299 ], [ 71.453467163008483, 51.124633403945595 ], [ 71.453487195439337, 51.124611133516716 ], [ 71.453507407533237, 51.12458925774321 ], [ 71.453534087497161, 51.124570539289607 ], [ 71.453534267160222, 51.124570370146927 ], [ 71.453534177328706, 51.124570370146927 ], [ 71.45305007522208, 51.12331181864208 ], [ 71.452991505065555, 51.12328046999918 ], [ 71.452962579313407, 51.123223918346774 ], [ 71.452962489481891, 51.12322386196422 ], [ 71.45292727552274, 51.123204522749134 ], [ 71.451233591886066, 51.122535595177283 ], [ 71.451165589419062, 51.122574217776148 ], [ 71.45104422702417, 51.12252634830211 ], [ 71.451065067938771, 51.122469006358038 ], [ 71.449358807888103, 51.121794993550068 ], [ 71.449309220884416, 51.121809146003052 ], [ 71.449194236528058, 51.121763700262129 ], [ 71.449190194109278, 51.121728403663248 ], [ 71.447397875454399, 51.12102037976895 ], [ 71.446994082734179, 51.120860922066257 ], [ 71.446927248077046, 51.120834477295034 ], [ 71.446917725935037, 51.12079895444419 ], [ 71.446862120218952, 51.120588128581581 ], [ 71.444838215883834, 51.120896388484084 ], [ 71.444904062394158, 51.121236221921166 ], [ 71.444889419855031, 51.121283303343368 ], [ 71.444851510950045, 51.121323562150188 ], [ 71.444740838507045, 51.121386938688126 ], [ 71.444805966365138, 51.121532298426295 ], [ 71.445328606197435, 51.122918211206454 ], [ 71.445361484536832, 51.122915166529083 ], [ 71.445440626113367, 51.122908400578638 ], [ 71.445519857521418, 51.122902536754111 ], [ 71.445599268592531, 51.12289746228997 ], [ 71.445678769495174, 51.122893233569435 ], [ 71.445758360229362, 51.122889794209797 ], [ 71.445838040795053, 51.122887313360046 ], [ 71.445917721360757, 51.122885565488545 ], [ 71.445997581589509, 51.122884776127201 ], [ 71.446077351986744, 51.122884719744256 ], [ 71.446157122383966, 51.122885565488545 ], [ 71.446236802949684, 51.122887313360046 ], [ 71.44631657334692, 51.122889850592728 ], [ 71.446396074249549, 51.122893233569435 ], [ 71.446475575152192, 51.122897575055838 ], [ 71.446555076054835, 51.12290259313702 ], [ 71.446634217631356, 51.122908513344463 ], [ 71.446713359207905, 51.122915166529083 ], [ 71.446792231289834, 51.122922834605049 ], [ 71.446870833877213, 51.122931348423215 ], [ 71.446949256801503, 51.122940595217315 ], [ 71.447027320399698, 51.122950744135537 ], [ 71.447105204334832, 51.122961626028719 ], [ 71.447182728943858, 51.122973353662019 ], [ 71.447260073889822, 51.122985983417628 ], [ 71.447336879846603, 51.122999346146372 ], [ 71.447413416308819, 51.123013610995997 ], [ 71.447489503613383, 51.123028665200103 ], [ 71.447565231591824, 51.123044565140688 ], [ 71.447640600244171, 51.123061085285926 ], [ 71.447715429907348, 51.123078620314175 ], [ 71.447789720581341, 51.123096831928095 ], [ 71.44786356209768, 51.123115832892246 ], [ 71.447936954456409, 51.123135679588287 ], [ 71.448009628162879, 51.123156202867278 ], [ 71.448081942543268, 51.123177628258702 ], [ 71.448153538271413, 51.123199673848454 ], [ 71.448224505178842, 51.12322256516579 ], [ 71.448294933097131, 51.123246189444458 ], [ 71.448306162038179, 51.123250079837646 ], [ 71.448370032254871, 51.123268516913917 ], [ 71.448376500124922, 51.123263442489986 ], [ 71.448410366611128, 51.123248501127406 ], [ 71.448449892483652, 51.123240607575418 ], [ 71.448491125155172, 51.123240269280316 ], [ 71.448530830690743, 51.123247711772265 ], [ 71.448565325997649, 51.123262089310188 ], [ 71.448591556803947, 51.1232822742382 ], [ 71.448607097658353, 51.12330640592829 ], [ 71.448610601087964, 51.123332285460414 ], [ 71.448601977261234, 51.123357713919063 ], [ 71.448599641641493, 51.12336013836115 ], [ 71.448636921725793, 51.123375361599393 ], [ 71.448703127562226, 51.123403270856471 ], [ 71.448768704577958, 51.123432082213284 ], [ 71.448833383278412, 51.123461344610099 ], [ 71.448853236046205, 51.123470704062591 ], [ 71.448865363302545, 51.123475891228203 ], [ 71.448872280330221, 51.123479612455355 ], [ 71.448897343326649, 51.123491452721581 ], [ 71.448960405059609, 51.123522181017385 ], [ 71.449022658308778, 51.123553585878376 ], [ 71.449083923411166, 51.123585610921133 ], [ 71.449144559692854, 51.12361836890841 ], [ 71.449204207827719, 51.123651747074668 ], [ 71.449262867815762, 51.123685689036563 ], [ 71.449320719320042, 51.123720251174802 ], [ 71.449377672509058, 51.123755489869858 ], [ 71.449433547719764, 51.123791292356515 ], [ 71.449488614446651, 51.123827715015253 ], [ 71.449542603195241, 51.123864645081078 ], [ 71.449595513965477, 51.123902195316234 ], [ 71.449647526420421, 51.123940365719164 ], [ 71.449698460897025, 51.123978874380271 ], [ 71.449748407226835, 51.124018172351242 ], [ 71.449797275578277, 51.124057808577938 ], [ 71.449844976119863, 51.124098064966802 ], [ 71.44989168851464, 51.124138772371992 ], [ 71.449937233099533, 51.124179987173648 ], [ 71.449981699706115, 51.124221709370431 ] ] ] ] } },
{ "type": "Feature", "properties": { "Id": "9570853582798864" }, "geometry": { "type": "MultiPolygon", "coordinates": [ [ [ [ 71.444808852682371, 51.120547029448183 ], [ 71.444830490372397, 51.12058621146582 ], [ 71.444838215883834, 51.120896388484084 ], [ 71.446862120218952, 51.120588128581581 ], [ 71.446495068593862, 51.120329655550577 ], [ 71.446475108009835, 51.120276978391239 ], [ 71.444808852682371, 51.120547029448183 ] ] ] ] } },
{ "type": "Feature", "properties": { "Id": "9570853582799611" }, "geometry": { "type": "MultiPolygon", "coordinates": [ [ [ [ 71.455003551638924, 51.128117663522374 ], [ 71.45505233015885, 51.128153406251414 ], [ 71.455108834190227, 51.128184413328334 ], [ 71.45517162642858, 51.128210064621697 ], [ 71.455239718727128, 51.128229909128976 ], [ 71.45531149411832, 51.128243326717119 ], [ 71.455385605129266, 51.12825020463896 ], [ 71.45546061445549, 51.128250317391768 ], [ 71.455534186477237, 51.12824654017254 ], [ 71.455600482145215, 51.128239887755839 ], [ 71.45568654074944, 51.128217055301363 ], [ 71.455768467103354, 51.128189205329271 ], [ 71.455857579979536, 51.12814540078454 ], [ 71.45591417384243, 51.128112871514006 ], [ 71.455977954227606, 51.128059144609736 ], [ 71.456033290449128, 51.128005586773092 ], [ 71.45608054183306, 51.12787625843567 ], [ 71.45607128918563, 51.127858161459834 ], [ 71.45604604652614, 51.127853425801433 ], [ 71.456016941110946, 51.127864306539649 ], [ 71.455917677272041, 51.127945207284867 ], [ 71.455852998571586, 51.127980555510234 ], [ 71.455776462109398, 51.128003275328204 ], [ 71.455688696706119, 51.128020075583443 ], [ 71.455626443456936, 51.128024585718052 ], [ 71.455547571374993, 51.128026333395077 ], [ 71.455475795983787, 51.128018948049736 ], [ 71.455402223962025, 51.128005248512871 ], [ 71.455349403023305, 51.127970125813384 ], [ 71.45533161638069, 51.127922994829554 ], [ 71.455353535273616, 51.127876596696836 ], [ 71.455409051158171, 51.12784846463498 ], [ 71.455475167163087, 51.12783927520023 ], [ 71.455537779738393, 51.127843165206571 ], [ 71.455616382325758, 51.127833693886217 ], [ 71.455681779678457, 51.127811368623398 ], [ 71.455725527632779, 51.127773765189175 ], [ 71.455731456513647, 51.127726464873845 ], [ 71.455716544479941, 51.127682265250534 ], [ 71.455676928775901, 51.127641222705314 ], [ 71.455610543276407, 51.127611399184595 ], [ 71.455538857716732, 51.127597981412841 ], [ 71.45546465687427, 51.127591103393875 ], [ 71.455389647548046, 51.127590934262251 ], [ 71.4553155365371, 51.127597417640821 ], [ 71.455243491651316, 51.127610553526821 ], [ 71.455175219689707, 51.127630003651561 ], [ 71.455112068125246, 51.127655316990058 ], [ 71.45505520476776, 51.127686042515911 ], [ 71.455005977090195, 51.127721616447829 ], [ 71.454965193576285, 51.127761136742606 ], [ 71.454933662709834, 51.127803983243687 ], [ 71.45491237263758, 51.127849141157704 ], [ 71.454901413191124, 51.127895764825361 ], [ 71.454901233528062, 51.127943008590535 ], [ 71.454911564153832, 51.12798963216342 ], [ 71.454932405068433, 51.128034959025932 ], [ 71.454963217282668, 51.128077974402828 ], [ 71.455003551638924, 51.128117663522374 ] ] ] ] } },
{ "type": "Feature", "properties": { "Id": "9570853582799612" }, "geometry": { "type": "MultiPolygon", "coordinates": [ [ [ [ 71.458564383593639, 51.125130398191558 ], [ 71.458586212655035, 51.125137107436352 ], [ 71.458616396048583, 51.125135472410413 ], [ 71.458647926915063, 51.125127071758918 ], [ 71.458743777155874, 51.125089917181327 ], [ 71.458779350441134, 51.125063305690098 ], [ 71.458875829502659, 51.124947613181327 ], [ 71.458911312956374, 51.12492105798858 ], [ 71.458943562475071, 51.124910007415536 ], [ 71.459057109526995, 51.124884467050414 ], [ 71.459093131969894, 51.124868229459921 ], [ 71.459104450742458, 51.124849905783272 ], [ 71.459090886181684, 51.124795442135273 ], [ 71.459062499418678, 51.124772720739315 ], [ 71.459015427697807, 51.124765955060937 ], [ 71.458966020357181, 51.124765447635021 ], [ 71.458834327336518, 51.124785744667392 ], [ 71.458773331728736, 51.124797415456968 ], [ 71.458732009225656, 51.12480914262418 ], [ 71.458698771560151, 51.124833104374886 ], [ 71.458670474628704, 51.124869357070565 ], [ 71.458654574448175, 51.124954886256944 ], [ 71.458647926915063, 51.124989109163216 ], [ 71.458636967468607, 51.12501414204732 ], [ 71.45855531060927, 51.125096457291242 ], [ 71.458551268190504, 51.125115062771243 ], [ 71.458564383593639, 51.125130398191558 ] ] ] ] } },
{ "type": "Feature", "properties": { "Id": "9570853582799624" }, "geometry": { "type": "MultiPolygon", "coordinates": [ [ [ [ 71.458142355073178, 51.126310251827313 ], [ 71.458177658863832, 51.126307038237172 ], [ 71.458313933292445, 51.126202624625698 ], [ 71.458344116685993, 51.126179678406238 ], [ 71.458394063015774, 51.126156337522637 ], [ 71.458506532089359, 51.126124145125196 ], [ 71.458568875170059, 51.126110445026299 ], [ 71.458646309947554, 51.126086483938231 ], [ 71.458699849538476, 51.126058125269701 ], [ 71.458715390392911, 51.126028469864096 ], [ 71.458700658022238, 51.125998645302005 ], [ 71.45866768985131, 51.12596966640848 ], [ 71.458615767227897, 51.125958334190308 ], [ 71.458560700500968, 51.125956981089438 ], [ 71.458463502787254, 51.125981336898917 ], [ 71.45822967131879, 51.126100296802285 ], [ 71.458183497913183, 51.126140156758254 ], [ 71.458153134856573, 51.126181877184507 ], [ 71.458112171679616, 51.126261371405903 ], [ 71.458114058141717, 51.126295931616944 ], [ 71.458142355073178, 51.126310251827313 ] ] ] ] } },
{ "type": "Feature", "properties": { "Id": "9570853582799663" }, "geometry": { "type": "MultiPolygon", "coordinates": [ [ [ [ 71.459314926013533, 51.122640411760983 ], [ 71.459407811813918, 51.122672888502507 ], [ 71.459462788709288, 51.122677455542444 ], [ 71.459517496110095, 51.12267632787831 ], [ 71.459561962716649, 51.122655353320233 ], [ 71.459724018793921, 51.122528434487535 ], [ 71.459781690635154, 51.122498551282057 ], [ 71.460000879564475, 51.122416456942631 ], [ 71.460063042982142, 51.122386517281178 ], [ 71.460142364221738, 51.122333065633924 ], [ 71.460158803391437, 51.122301208873807 ], [ 71.460156737266274, 51.122261063686445 ], [ 71.460136884498496, 51.122229883481708 ], [ 71.46010005357185, 51.122224865327446 ], [ 71.460059719215593, 51.122237269752723 ], [ 71.45997330128526, 51.122328047490861 ], [ 71.459928385521053, 51.122340508272053 ], [ 71.459878259528196, 51.122341579560775 ], [ 71.459818611393331, 51.122334136922817 ], [ 71.45976417348713, 51.122341072108227 ], [ 71.459710633896179, 51.122362385110542 ], [ 71.459645685701147, 51.122429763452608 ], [ 71.459597176675786, 51.122459421168692 ], [ 71.459548128661282, 51.122480508582619 ], [ 71.459354541717559, 51.12252764512008 ], [ 71.459310164942536, 51.122551495287603 ], [ 71.459279622222866, 51.122577995459274 ], [ 71.459271806879883, 51.122601225384479 ], [ 71.459286449419025, 51.12262095953507 ], [ 71.459314926013533, 51.122640411760983 ] ] ] ] } },
{ "type": "Feature", "properties": { "Id": "9570853582799664" }, "geometry": { "type": "MultiPolygon", "coordinates": [ [ [ [ 71.459644517891277, 51.121976155897755 ], [ 71.459691409949102, 51.122001134030626 ], [ 71.459738032512362, 51.122020135445482 ], [ 71.459793189070808, 51.122027634518027 ], [ 71.459880235821828, 51.122034456981474 ], [ 71.459925331249082, 51.12202487170196 ], [ 71.459933236423595, 51.122004573456451 ], [ 71.459898202127505, 51.121945031884827 ], [ 71.459855711814569, 51.121917234514989 ], [ 71.459804687506434, 51.121901108649752 ], [ 71.459680450502631, 51.121880697581503 ], [ 71.459635085580786, 51.121884531705504 ], [ 71.459599602127071, 51.121902574637737 ], [ 71.45959142745798, 51.12192349315346 ], [ 71.459606429323216, 51.121945426573525 ], [ 71.459644517891277, 51.121976155897755 ] ] ] ] } },
{ "type": "Feature", "properties": { "Id": "9570853582799670" }, "geometry": { "type": "MultiPolygon", "coordinates": [ [ [ [ 71.458978327276569, 51.123450124541066 ], [ 71.459059624809768, 51.123456834029902 ], [ 71.459257164340755, 51.123449955394264 ], [ 71.459332982150741, 51.123436987471841 ], [ 71.459408260971557, 51.123418381315901 ], [ 71.459500517951227, 51.123376883922944 ], [ 71.459563040695002, 51.12336701701016 ], [ 71.459625743101839, 51.123362957479721 ], [ 71.459684223426834, 51.123364479803683 ], [ 71.459715215304143, 51.123355345859181 ], [ 71.459731654473828, 51.123326703601776 ], [ 71.45967515044245, 51.123276917903425 ], [ 71.459646404353364, 51.123243595848827 ], [ 71.459635894064547, 51.12320700358184 ], [ 71.459613975171607, 51.123192682409368 ], [ 71.459583073125842, 51.123184450552309 ], [ 71.459544355737094, 51.123184225021966 ], [ 71.45949746367927, 51.123197531310772 ], [ 71.459455961513129, 51.123207172729515 ], [ 71.459398469334957, 51.123231304458827 ], [ 71.459286090092903, 51.12331914835768 ], [ 71.459206679021804, 51.123346268295265 ], [ 71.459144246109545, 51.123356022447737 ], [ 71.459076782631698, 51.12335466927064 ], [ 71.459004468251337, 51.123350553356723 ], [ 71.458941496349922, 51.123348974649922 ], [ 71.458896850080293, 51.123355571388693 ], [ 71.458880051584501, 51.123378575393488 ], [ 71.458886609286068, 51.12341528028918 ], [ 71.458918948636295, 51.123431574772695 ], [ 71.458978327276569, 51.123450124541066 ] ] ] ] } },
{ "type": "Feature", "properties": { "Id": "9570853582799687" }, "geometry": { "type": "MultiPolygon", "coordinates": [ [ [ [ 71.453317413850641, 51.122213701341856 ], [ 71.453336098808535, 51.122240540009734 ], [ 71.453397363910923, 51.122252775279634 ], [ 71.453470756269638, 51.122251252919042 ], [ 71.453556096221618, 51.122230390935485 ], [ 71.453623290204874, 51.122193685098303 ], [ 71.45365203629396, 51.122165775110389 ], [ 71.453659402479289, 51.12214119175357 ], [ 71.453636405608023, 51.122114522179636 ], [ 71.4535534911073, 51.122099862365005 ], [ 71.453475697003697, 51.122101497498392 ], [ 71.453411377629351, 51.122111082762004 ], [ 71.453360712647338, 51.122133861851069 ], [ 71.453332236052816, 51.122167128322332 ], [ 71.453317413850641, 51.122213701341856 ] ] ] ] } },
{ "type": "Feature", "properties": { "Id": "70030076744196994" }, "geometry": { "type": "MultiPolygon", "coordinates": [ [ [ [ 71.44435034085302, 51.126521728117872 ], [ 71.444332733873452, 51.126481868491197 ], [ 71.444348993380103, 51.126459880846497 ], [ 71.444372259745961, 51.126420697710088 ], [ 71.444390405714699, 51.126380386966744 ], [ 71.444403521117849, 51.126339343264625 ], [ 71.444411336460803, 51.126297792116958 ], [ 71.444412594102204, 51.126275691626994 ], [ 71.444229607278842, 51.12630382464684 ], [ 71.44422242075656, 51.126336129676531 ], [ 71.444204993440067, 51.126379597665121 ], [ 71.444180199938216, 51.126421543389661 ], [ 71.444148309745614, 51.126461515825554 ], [ 71.444109861851459, 51.126499233085269 ], [ 71.444064946087252, 51.126533962253816 ], [ 71.444014550599817, 51.126565534202562 ], [ 71.444005836941571, 51.126569818965379 ], [ 71.444040242416946, 51.126656698083465 ], [ 71.44435034085302, 51.126521728117872 ] ] ] ] } },
{ "type": "Feature", "properties": { "Id": "70030076744197260" }, "geometry": { "type": "MultiPolygon", "coordinates": [ [ [ [ 71.444318540491963, 51.126012514571464 ], [ 71.444287009625484, 51.125978010527547 ], [ 71.444249729541198, 51.125943450078623 ], [ 71.444207957880494, 51.125910862877987 ], [ 71.444162323464056, 51.125880418067688 ], [ 71.444112826291885, 51.125852284789964 ], [ 71.444074737723852, 51.125833905124324 ], [ 71.444065485076436, 51.125810845962917 ], [ 71.443691606255186, 51.125778371427565 ], [ 71.443721430322611, 51.125853525135234 ], [ 71.443738588144541, 51.125855723929043 ], [ 71.443806590611544, 51.125869142206938 ], [ 71.443871718469637, 51.125886845307093 ], [ 71.443933612392726, 51.125909115120912 ], [ 71.443991194402429, 51.125935331470245 ], [ 71.444044105172665, 51.125965381589985 ], [ 71.444091266725081, 51.125998814439448 ], [ 71.444132679059678, 51.126035291736663 ], [ 71.444137170636097, 51.126040365856085 ], [ 71.444318540491963, 51.126012514571464 ] ] ] ] } },
{ "type": "Feature", "properties": { "Id": "70030076837840172" }, "geometry": { "type": "MultiPolygon", "coordinates": [ [ [ [ 71.442301463353004, 51.125362740462478 ], [ 71.442291312390296, 51.125350280496534 ], [ 71.442275502041298, 51.125340301245373 ], [ 71.44225564927352, 51.125333930309885 ], [ 71.442233550717532, 51.125331731491237 ], [ 71.442211452161544, 51.125333930309885 ], [ 71.442191599393752, 51.125340301245373 ], [ 71.442175789044754, 51.125350280496534 ], [ 71.442165638082045, 51.125362740462478 ], [ 71.442162134652449, 51.125376666302806 ], [ 71.442165638082045, 51.125390592138913 ], [ 71.442175789044754, 51.125403052093979 ], [ 71.442191599393752, 51.12541303133159 ], [ 71.442211452161544, 51.125419402256178 ], [ 71.442233550717532, 51.125421601070641 ], [ 71.44225564927352, 51.125419402256178 ], [ 71.442275502041298, 51.12541303133159 ], [ 71.442291312390296, 51.125403052093979 ], [ 71.442301463353004, 51.125390592138913 ], [ 71.442304966782601, 51.125376666302806 ], [ 71.442301463353004, 51.125362740462478 ] ] ] ] } },
{ "type": "Feature", "properties": { "Id": "70030076837840204" }, "geometry": { "type": "MultiPolygon", "coordinates": [ [ [ [ 71.442481485735939, 51.125816314762623 ], [ 71.442471334773231, 51.12580379853965 ], [ 71.442455524424219, 51.125793875765865 ], [ 71.442435671656455, 51.12578744851352 ], [ 71.442413573100467, 51.125785249716465 ], [ 71.442391474544479, 51.12578744851352 ], [ 71.442371621776701, 51.125793875765865 ], [ 71.442355811427674, 51.12580379853965 ], [ 71.44234566046498, 51.125816314762623 ], [ 71.442342157035384, 51.125830184086816 ], [ 71.44234566046498, 51.125844109786208 ], [ 71.442355811427674, 51.125856625998267 ], [ 71.442371621776701, 51.125866548758566 ], [ 71.442391474544479, 51.125872919620598 ], [ 71.442413573100467, 51.125875174792782 ], [ 71.442435671656455, 51.125872919620598 ], [ 71.442455524424219, 51.125866548758566 ], [ 71.442471334773231, 51.125856625998267 ], [ 71.442481485735939, 51.125844109786208 ], [ 71.44248498916555, 51.125830184086816 ], [ 71.442481485735939, 51.125816314762623 ] ] ] ] } },
{ "type": "Feature", "properties": { "Id": "70030076837840254" }, "geometry": { "type": "MultiPolygon", "coordinates": [ [ [ [ 71.44293854855249, 51.126967510877712 ], [ 71.442928397589796, 51.126954994966681 ], [ 71.442912587240798, 51.126945072440215 ], [ 71.44289273447302, 51.126938645348076 ], [ 71.442870635917018, 51.126936446605818 ], [ 71.442848537361044, 51.126938645348076 ], [ 71.442828684593252, 51.126945072440215 ], [ 71.442812874244254, 51.126954994966681 ], [ 71.442802723281545, 51.126967510877712 ], [ 71.442799219851935, 51.126981379856232 ], [ 71.442802723281545, 51.126995305208553 ], [ 71.442812874244254, 51.127007821108648 ], [ 71.442828684593252, 51.127017743621643 ], [ 71.442848537361044, 51.127024114324882 ], [ 71.442870635917018, 51.127026369440856 ], [ 71.44289273447302, 51.127024114324882 ], [ 71.442912587240798, 51.127017743621643 ], [ 71.442928397589796, 51.127007821108648 ], [ 71.44293854855249, 51.126995305208553 ], [ 71.442942051982101, 51.126981379856232 ], [ 71.44293854855249, 51.126967510877712 ] ] ] ] } },
{ "type": "Feature", "properties": { "Id": "70030076837840272" }, "geometry": { "type": "MultiPolygon", "coordinates": [ [ [ [ 71.443118660766956, 51.127421069419185 ], [ 71.443108509804262, 51.127408553631049 ], [ 71.443092699455249, 51.127398574824575 ], [ 71.443072756855955, 51.127392204172992 ], [ 71.443050658299967, 51.12739000545232 ], [ 71.443028559743965, 51.127392204172992 ], [ 71.443008617144656, 51.127398574824575 ], [ 71.442992806795672, 51.127408553631049 ], [ 71.442982655832949, 51.127421069419185 ], [ 71.442979152403353, 51.127434994638925 ], [ 71.442982655832949, 51.127448863477078 ], [ 71.442992806795672, 51.127461435631631 ], [ 71.443008617144656, 51.127471358047174 ], [ 71.443028559743965, 51.127477785065196 ], [ 71.443050658299967, 51.127479983781683 ], [ 71.443072756855955, 51.127477785065196 ], [ 71.443092699455249, 51.127471358047174 ], [ 71.443108509804262, 51.127461435631631 ], [ 71.443118660766956, 51.127448863477078 ], [ 71.443122164196581, 51.127434994638925 ], [ 71.443118660766956, 51.127421069419185 ] ] ] ] } },
{ "type": "Feature", "properties": { "Id": "70030076837840285" }, "geometry": { "type": "MultiPolygon", "coordinates": [ [ [ [ 71.443298593318374, 51.127874567129822 ], [ 71.443288442355666, 51.127862107841473 ], [ 71.443272632006668, 51.127852129132989 ], [ 71.44325277923889, 51.127845758543955 ], [ 71.443230680682902, 51.12784355984487 ], [ 71.443208582126914, 51.127845758543955 ], [ 71.443188729359122, 51.127852129132989 ], [ 71.443172919010124, 51.127862107841473 ], [ 71.443162768047415, 51.127874567129822 ], [ 71.443159264617819, 51.127888492212819 ], [ 71.443162768047415, 51.127902417291629 ], [ 71.443172919010124, 51.127914876569115 ], [ 71.443188729359122, 51.127924855264034 ], [ 71.443208582126914, 51.127931225842154 ], [ 71.443230680682902, 51.127933424537069 ], [ 71.44325277923889, 51.127931225842154 ], [ 71.443272632006668, 51.127924855264034 ], [ 71.443288442355666, 51.127914876569115 ], [ 71.443298593318374, 51.127902417291629 ], [ 71.443302096747985, 51.127888492212819 ], [ 71.443298593318374, 51.127874567129822 ] ] ] ] } },
{ "type": "Feature", "properties": { "Id": "70030076837844726" }, "geometry": { "type": "MultiPolygon", "coordinates": [ [ [ [ 71.439333249991222, 51.126974276233618 ], [ 71.439471770208016, 51.126952401579295 ], [ 71.439437005406532, 51.126865184748851 ], [ 71.43929848518971, 51.126887115822569 ], [ 71.439333249991222, 51.126974276233618 ] ] ] ] } },
{ "type": "Feature", "properties": { "Id": "70030076837950323" }, "geometry": { "type": "MultiPolygon", "coordinates": [ [ [ [ 71.460313583114882, 51.123056236370189 ], [ 71.460283309889817, 51.123048342785339 ], [ 71.460253036664739, 51.123056236370189 ], [ 71.460240460250759, 51.123075293733748 ], [ 71.460253036664739, 51.123094351089478 ], [ 71.460283309889817, 51.123102244666448 ], [ 71.460313583114882, 51.123094351089478 ], [ 71.460326159528847, 51.123075293733748 ], [ 71.460313583114882, 51.123056236370189 ] ] ] ] } },
{ "type": "Feature", "properties": { "Id": "70030076837950427" }, "geometry": { "type": "MultiPolygon", "coordinates": [ [ [ [ 71.460557206219931, 51.123037742826433 ], [ 71.460541485702464, 51.123027875841203 ], [ 71.460520015967177, 51.123024267343226 ], [ 71.460498546231889, 51.123027875841203 ], [ 71.460482825714422, 51.123037742826433 ], [ 71.460477076496588, 51.123051274688436 ], [ 71.460482825714422, 51.123064806546509 ], [ 71.460498546231889, 51.123074673523824 ], [ 71.460520015967177, 51.123078282017858 ], [ 71.460541485702464, 51.123074673523824 ], [ 71.460557206219931, 51.123064806546509 ], [ 71.460562955437766, 51.123051274688436 ], [ 71.460557206219931, 51.123037742826433 ] ] ] ] } },
{ "type": "Feature", "properties": { "Id": "70030076837950626" }, "geometry": { "type": "MultiPolygon", "coordinates": [ [ [ [ 71.460800829324995, 51.123012990785227 ], [ 71.460785198639044, 51.123003180177527 ], [ 71.460763728903757, 51.122999515294808 ], [ 71.46074225916847, 51.123003180177527 ], [ 71.460726628482519, 51.123012990785227 ], [ 71.460720879264713, 51.123026522654492 ], [ 71.460726628482519, 51.123039998137031 ], [ 71.46074225916847, 51.123049865119675 ], [ 71.460763728903757, 51.123053473615656 ], [ 71.460785198639044, 51.123049865119675 ], [ 71.460800829324995, 51.123039998137031 ], [ 71.460806578542815, 51.123026522654492 ], [ 71.460800829324995, 51.123012990785227 ] ] ] ] } },
{ "type": "Feature", "properties": { "Id": "70030076837950659" }, "geometry": { "type": "MultiPolygon", "coordinates": [ [ [ [ 71.461071401888574, 51.122985588737826 ], [ 71.461055681371107, 51.122975665358624 ], [ 71.461034301467336, 51.122972056856568 ], [ 71.461012921563579, 51.122975665358624 ], [ 71.460997201046098, 51.122985588737826 ], [ 71.460991451828278, 51.122999007849486 ], [ 71.460997201046098, 51.123012483340062 ], [ 71.461012921563579, 51.123022406711343 ], [ 71.461034301467336, 51.123026015209469 ], [ 71.461055681371107, 51.123022406711343 ], [ 71.461071401888574, 51.123012483340062 ], [ 71.46107715110638, 51.122999007849486 ], [ 71.461071401888574, 51.122985588737826 ] ] ] ] } },
{ "type": "Feature", "properties": { "Id": "70030076837950703" }, "geometry": { "type": "MultiPolygon", "coordinates": [ [ [ [ 71.461325984440094, 51.122959709011454 ], [ 71.461310353754143, 51.122949842009561 ], [ 71.461288884018842, 51.122946233505488 ], [ 71.461267414283554, 51.122949842009561 ], [ 71.461251783597618, 51.122959709011454 ], [ 71.461246034379812, 51.122973184513491 ], [ 71.461251783597618, 51.122986716394415 ], [ 71.461267414283554, 51.122996527005618 ], [ 71.461288884018842, 51.123000135505755 ], [ 71.461310353754143, 51.122996527005618 ], [ 71.461325984440094, 51.122986716394415 ], [ 71.4613317336579, 51.122973184513491 ], [ 71.461325984440094, 51.122959709011454 ] ] ] ] } },
{ "type": "Feature", "properties": { "Id": "70030076837951343" }, "geometry": { "type": "MultiPolygon", "coordinates": [ [ [ [ 71.460892367652448, 51.123586343888384 ], [ 71.460857872345542, 51.123499120701894 ], [ 71.460719262297204, 51.123520884227325 ], [ 71.46075384743564, 51.123608107372718 ], [ 71.460892367652448, 51.123586343888384 ] ] ] ] } },
{ "type": "Feature", "properties": { "Id": "70030076837951542" }, "geometry": { "type": "MultiPolygon", "coordinates": [ [ [ [ 71.459710454233118, 51.123717995897394 ], [ 71.459698057482214, 51.123706381217048 ], [ 71.459679552187353, 51.123698544125247 ], [ 71.459657723125943, 51.123695781409126 ], [ 71.459635894064547, 51.123698544125247 ], [ 71.459617388769686, 51.123706381217048 ], [ 71.459604992018768, 51.123717995897394 ], [ 71.45960059027388, 51.123731753087817 ], [ 71.459604992018768, 51.123745453892234 ], [ 71.459617388769686, 51.123757124944667 ], [ 71.459635894064547, 51.123764905644634 ], [ 71.459657723125943, 51.123767724738492 ], [ 71.459679552187353, 51.123764905644634 ], [ 71.459698057482214, 51.123757124944667 ], [ 71.459710454233118, 51.123745453892234 ], [ 71.459714855978021, 51.123731753087817 ], [ 71.459710454233118, 51.123717995897394 ] ] ] ] } },
{ "type": "Feature", "properties": { "Id": "70030076837951723" }, "geometry": { "type": "MultiPolygon", "coordinates": [ [ [ [ 71.459838104835001, 51.124289705194144 ], [ 71.459822384317533, 51.12427983847634 ], [ 71.459801004413762, 51.124276173694909 ], [ 71.459779624510006, 51.12427983847634 ], [ 71.459763903992524, 51.124289705194144 ], [ 71.459758154774718, 51.124303180308189 ], [ 71.459763903992524, 51.124316599037101 ], [ 71.459779624510006, 51.124326522128236 ], [ 71.459801004413762, 51.124330130524484 ], [ 71.459822384317533, 51.124326522128236 ], [ 71.459838104835001, 51.124316599037101 ], [ 71.459843854052821, 51.124303180308189 ], [ 71.459838104835001, 51.124289705194144 ] ] ] ] } },
{ "type": "Feature", "properties": { "Id": "70030076837951813" }, "geometry": { "type": "MultiPolygon", "coordinates": [ [ [ [ 71.460172008626103, 51.124221991277032 ], [ 71.460156377940166, 51.124212124544769 ], [ 71.460134908204878, 51.124208516139291 ], [ 71.460113438469591, 51.124212124544769 ], [ 71.46009780778364, 51.124221991277032 ], [ 71.46009205856582, 51.124235522792127 ], [ 71.46009780778364, 51.124248997921981 ], [ 71.460113438469591, 51.124258864646364 ], [ 71.460134908204878, 51.124262473047906 ], [ 71.460156377940166, 51.124258864646364 ], [ 71.460172008626103, 51.124248997921981 ], [ 71.460177757843923, 51.124235522792127 ], [ 71.460172008626103, 51.124221991277032 ] ] ] ] } },
{ "type": "Feature", "properties": { "Id": "70030076837951837" }, "geometry": { "type": "MultiPolygon", "coordinates": [ [ [ [ 71.460501061514677, 51.124155461270114 ], [ 71.460485340997209, 51.124145538142223 ], [ 71.460463871261908, 51.124141929731543 ], [ 71.46044240152662, 51.124145538142223 ], [ 71.460426681009153, 51.124155461270114 ], [ 71.460420931791333, 51.124168936423324 ], [ 71.460426681009153, 51.124182467953958 ], [ 71.46044240152662, 51.124192334692552 ], [ 71.460463871261908, 51.124195999480641 ], [ 71.460485340997209, 51.124192334692552 ], [ 71.460501061514677, 51.124182467953958 ], [ 71.460506810732497, 51.124168936423324 ], [ 71.460501061514677, 51.124155461270114 ] ] ] ] } },
{ "type": "Feature", "properties": { "Id": "70030076837951879" }, "geometry": { "type": "MultiPolygon", "coordinates": [ [ [ [ 71.461191776136644, 51.124015578798961 ], [ 71.461176145450708, 51.124005768404182 ], [ 71.461154675715406, 51.124002159982602 ], [ 71.461133205980119, 51.124005768404182 ], [ 71.461117575294168, 51.124015578798961 ], [ 71.461111826076362, 51.124029110374522 ], [ 71.461117575294168, 51.124042585564602 ], [ 71.461133205980119, 51.124052452333068 ], [ 71.461154675715406, 51.124056060750725 ], [ 71.461176145450708, 51.124052452333068 ], [ 71.461191776136644, 51.124042585564602 ], [ 71.461197525354464, 51.124029110374522 ], [ 71.461191776136644, 51.124015578798961 ] ] ] ] } },
{ "type": "Feature", "properties": { "Id": "70030076837951916" }, "geometry": { "type": "MultiPolygon", "coordinates": [ [ [ [ 71.461454892683363, 51.12396229818161 ], [ 71.461439261997413, 51.123952431393889 ], [ 71.461417792262125, 51.123948822968138 ], [ 71.461396322526838, 51.123952431393889 ], [ 71.461380691840887, 51.12396229818161 ], [ 71.461374942623081, 51.123975773391166 ], [ 71.461380691840887, 51.123989304978409 ], [ 71.461396322526838, 51.12399911537667 ], [ 71.461417792262125, 51.124002780180078 ], [ 71.461439261997413, 51.12399911537667 ], [ 71.461454892683363, 51.123989304978409 ], [ 71.461460641901184, 51.123975773391166 ], [ 71.461454892683363, 51.12396229818161 ] ] ] ] } },
{ "type": "Feature", "properties": { "Id": "70030076837952009" }, "geometry": { "type": "MultiPolygon", "coordinates": [ [ [ [ 71.461701659891901, 51.123912344023189 ], [ 71.461685939374433, 51.123902477224782 ], [ 71.461664559470677, 51.123898925176832 ], [ 71.461643179566906, 51.123902477224782 ], [ 71.461627459049438, 51.123912344023189 ], [ 71.461621799663149, 51.123925819247312 ], [ 71.461627459049438, 51.123939294467512 ], [ 71.461643179566906, 51.123949161258054 ], [ 71.461664559470677, 51.123952713302131 ], [ 71.461685939374433, 51.123949161258054 ], [ 71.461701659891901, 51.123939294467512 ], [ 71.461707319278204, 51.123925819247312 ], [ 71.461701659891901, 51.123912344023189 ] ] ] ] } },
{ "type": "Feature", "properties": { "Id": "70030077074821501" }, "geometry": { "type": "MultiPolygon", "coordinates": [ [ [ [ 71.442095569489894, 51.124959509451692 ], [ 71.442111379838892, 51.124949530116112 ], [ 71.442121530801586, 51.124936957277797 ], [ 71.442125034231211, 51.124923087685382 ], [ 71.442121530801586, 51.124909161708317 ], [ 71.442111379838892, 51.124896645239517 ], [ 71.442095569489894, 51.124886665890358 ], [ 71.442075626890571, 51.124880294892293 ], [ 71.442053528334597, 51.124878096052043 ], [ 71.442031429778595, 51.124880294892293 ], [ 71.442011487179286, 51.124886665890358 ], [ 71.441995676830288, 51.124896645239517 ], [ 71.44198552586758, 51.124909161708317 ], [ 71.441982022437955, 51.124923087685382 ], [ 71.44198552586758, 51.124936957277797 ], [ 71.441995676830288, 51.124949530116112 ], [ 71.442011487179286, 51.124959509451692 ], [ 71.442031429778595, 51.124965880438829 ], [ 71.442053528334597, 51.124968079274886 ], [ 71.442075626890571, 51.124965880438829 ], [ 71.442095569489894, 51.124959509451692 ] ] ] ] } }
]
}
