{
"type": "FeatureCollection",
"name": "Sights",
"crs": { "type": "name", "properties": { "name": "urn:ogc:def:crs:OGC:1.3:CRS84" } },
"xy_coordinate_resolution": 1e-15,
"features": [
{ "type": "Feature", "properties": { "Purpose": "Памятник", "StartDate": null, "EndDate": null, "HouseId": null, "Name": "Памятник Рахимжану Кошкарбаеву", "Descr": null, "Dates": null, "Authors": "Аскар Нартов", "Synonym": null, "SightId": "9570845041253893", "X": "71.4590780402731", "Y": "51.1298311974592" }, "geometry": { "type": "Point", "coordinates": [ 71.459078040273099, 51.129831197459232 ] } },
{ "type": "Feature", "properties": { "Purpose": "Интересное здание", "StartDate": null, "EndDate": null, "HouseId": "9570784863367299", "Name": "Дворец Мира и Согласия", "Descr": "Несмотря на отсылки к погребальным традициям египтян, астанинская пирамида — символ дружбы мусульман, христиан, буддистов, иудеев, синтои", "Dates": null, "Authors": null, "Synonym": null, "SightId": "70030076190520783", "X": "71.4634687358873", "Y": "51.1231118297224" }, "geometry": { "type": "Point", "coordinates": [ 71.46346873588729, 51.123111829722404 ] } },
{ "type": "Feature", "properties": { "Purpose": "Интересное здание", "StartDate": null, "EndDate": null, "HouseId": "9570784863330212", "Name": "Резиденция президента Акорда", "Descr": "Белое парадное здание со шпилем — доминанта этой части бульвара. Находится на просторном участке президентского парка, среди зелёной «пу", "Dates": null, "Authors": null, "Synonym": null, "SightId": "70030076190521872", "X": "71.4462714779196", "Y": "51.1257610065625" }, "geometry": { "type": "Point", "coordinates": [ 71.446271477919638, 51.125761006562485 ] } },
{ "type": "Feature", "properties": { "Purpose": "Декоративный объект", "StartDate": null, "EndDate": null, "HouseId": null, "Name": "Скульптура Яблоки", "Descr": null, "Dates": null, "Authors": null, "Synonym": null, "SightId": "9570844992864407", "X": "71.4584474229436", "Y": "51.1291941051299" }, "geometry": { "type": "Point", "coordinates": [ 71.458447422943649, 51.129194105129905 ] } },
{ "type": "Feature", "properties": { "Purpose": "Декоративный объект", "StartDate": null, "EndDate": null, "HouseId": null, "Name": "Стела", "Descr": null, "Dates": null, "Authors": null, "Synonym": null, "SightId": "9570844992864408", "X": "71.4584338583829", "Y": "51.1294559674334" }, "geometry": { "type": "Point", "coordinates": [ 71.458433858382861, 51.129455967433387 ] } },
{ "type": "Feature", "properties": { "Purpose": "Декоративный объект", "StartDate": null, "EndDate": null, "HouseId": null, "Name": "Декоративное сооружение Ротонда", "Descr": null, "Dates": null, "Authors": null, "Synonym": "Смотровая площадка", "SightId": "9570844992864496", "X": "71.4576053421963", "Y": "51.1263652774762" }, "geometry": { "type": "Point", "coordinates": [ 71.457605342196331, 51.126365277476239 ] } },
{ "type": "Feature", "properties": { "Purpose": "Декоративный объект", "StartDate": null, "EndDate": null, "HouseId": null, "Name": null, "Descr": null, "Dates": null, "Authors": null, "Synonym": null, "SightId": "70030076139075944", "X": "71.4588526529683", "Y": "51.1278822907594" }, "geometry": { "type": "Point", "coordinates": [ 71.458852652968318, 51.127882290759381 ] } },
{ "type": "Feature", "properties": { "Purpose": "Декоративный объект", "StartDate": null, "EndDate": null, "HouseId": "9570784863343890", "Name": null, "Descr": null, "Dates": null, "Authors": null, "Synonym": null, "SightId": "70030076139085043", "X": "71.4631042893765", "Y": "51.1277255628411" }, "geometry": { "type": "Point", "coordinates": [ 71.463104289376531, 51.127725562841128 ] } },
{ "type": "Feature", "properties": { "Purpose": "Декоративный объект", "StartDate": null, "EndDate": null, "HouseId": null, "Name": null, "Descr": null, "Dates": null, "Authors": null, "Synonym": null, "SightId": "70030076224112656", "X": "71.462558832336", "Y": "51.1357207705838" }, "geometry": { "type": "Point", "coordinates": [ 71.462558832336015, 51.135720770583788 ] } },
{ "type": "Feature", "properties": { "Purpose": "Декоративный объект", "StartDate": null, "EndDate": null, "HouseId": null, "Name": "Декоративный объект", "Descr": null, "Dates": null, "Authors": null, "Synonym": null, "SightId": "70030076604995032", "X": "71.4594329646419", "Y": "51.1237570121809" }, "geometry": { "type": "Point", "coordinates": [ 71.459432964641863, 51.123757012180874 ] } },
{ "type": "Feature", "properties": { "Purpose": "Декоративный объект", "StartDate": null, "EndDate": null, "HouseId": null, "Name": null, "Descr": null, "Dates": null, "Authors": null, "Synonym": null, "SightId": "70030076884114942", "X": "71.4488550326768", "Y": "51.131217988707" }, "geometry": { "type": "Point", "coordinates": [ 71.448855032676775, 51.131217988706979 ] } },
{ "type": "Feature", "properties": { "Purpose": "Декоративный объект", "StartDate": null, "EndDate": null, "HouseId": null, "Name": "Кот с телефоном", "Descr": null, "Dates": null, "Authors": null, "Synonym": null, "SightId": "70030077100847600", "X": "71.4607015654861", "Y": "51.1271489348288" }, "geometry": { "type": "Point", "coordinates": [ 71.460701565486104, 51.127148934828767 ] } },
{ "type": "Feature", "properties": { "Purpose": "Декоративный объект", "StartDate": null, "EndDate": null, "HouseId": null, "Name": "Человек с книгой", "Descr": null, "Dates": null, "Authors": null, "Synonym": null, "SightId": "70030077100851095", "X": "71.4684973251847", "Y": "51.1250838844929" }, "geometry": { "type": "Point", "coordinates": [ 71.468497325184742, 51.125083884492923 ] } },
{ "type": "Feature", "properties": { "Purpose": "Декоративный объект", "StartDate": null, "EndDate": null, "HouseId": null, "Name": null, "Descr": null, "Dates": null, "Authors": null, "Synonym": null, "SightId": "70030077154778514", "X": "71.4572809605472", "Y": "51.1271320215011" }, "geometry": { "type": "Point", "coordinates": [ 71.457280960547223, 51.127132021501126 ] } },
{ "type": "Feature", "properties": { "Purpose": "Фонтан", "StartDate": null, "EndDate": null, "HouseId": null, "Name": "Фонтан", "Descr": null, "Dates": null, "Authors": null, "Synonym": null, "SightId": "9570844992864276", "X": "71.4602833098898", "Y": "51.1230752937337" }, "geometry": { "type": "Point", "coordinates": [ 71.460283309889817, 51.123075293733748 ] } },
{ "type": "Feature", "properties": { "Purpose": "Фонтан", "StartDate": null, "EndDate": null, "HouseId": null, "Name": "Фонтан", "Descr": null, "Dates": null, "Authors": null, "Synonym": null, "SightId": "9570844992864277", "X": "71.4605200159672", "Y": "51.1230512746884" }, "geometry": { "type": "Point", "coordinates": [ 71.460520015967177, 51.123051274688436 ] } },
{ "type": "Feature", "properties": { "Purpose": "Фонтан", "StartDate": null, "EndDate": null, "HouseId": null, "Name": "Фонтан", "Descr": null, "Dates": null, "Authors": null, "Synonym": null, "SightId": "9570844992864278", "X": "71.4607637289038", "Y": "51.1230265226545" }, "geometry": { "type": "Point", "coordinates": [ 71.460763728903757, 51.123026522654492 ] } },
{ "type": "Feature", "properties": { "Purpose": "Фонтан", "StartDate": null, "EndDate": null, "HouseId": null, "Name": "Фонтан", "Descr": null, "Dates": null, "Authors": null, "Synonym": null, "SightId": "9570844992864279", "X": "71.4610343014673", "Y": "51.1229990078495" }, "geometry": { "type": "Point", "coordinates": [ 71.461034301467336, 51.122999007849486 ] } },
{ "type": "Feature", "properties": { "Purpose": "Фонтан", "StartDate": null, "EndDate": null, "HouseId": null, "Name": "Фонтан", "Descr": null, "Dates": null, "Authors": null, "Synonym": null, "SightId": "9570844992864280", "X": "71.4612888840188", "Y": "51.1229731845135" }, "geometry": { "type": "Point", "coordinates": [ 71.461288884018842, 51.122973184513491 ] } },
{ "type": "Feature", "properties": { "Purpose": "Фонтан", "StartDate": null, "EndDate": null, "HouseId": null, "Name": "Фонтан", "Descr": null, "Dates": null, "Authors": null, "Synonym": null, "SightId": "9570844992864281", "X": "71.4598010044138", "Y": "51.1243031803082" }, "geometry": { "type": "Point", "coordinates": [ 71.459801004413762, 51.124303180308189 ] } },
{ "type": "Feature", "properties": { "Purpose": "Фонтан", "StartDate": null, "EndDate": null, "HouseId": null, "Name": "Фонтан", "Descr": null, "Dates": null, "Authors": null, "Synonym": null, "SightId": "9570844992864282", "X": "71.4601349082049", "Y": "51.1242355227921" }, "geometry": { "type": "Point", "coordinates": [ 71.460134908204878, 51.124235522792127 ] } },
{ "type": "Feature", "properties": { "Purpose": "Фонтан", "StartDate": null, "EndDate": null, "HouseId": null, "Name": "Фонтан", "Descr": null, "Dates": null, "Authors": null, "Synonym": null, "SightId": "9570844992864283", "X": "71.4604638712619", "Y": "51.1241689364233" }, "geometry": { "type": "Point", "coordinates": [ 71.460463871261908, 51.124168936423324 ] } },
{ "type": "Feature", "properties": { "Purpose": "Фонтан", "StartDate": null, "EndDate": null, "HouseId": null, "Name": "Фонтан", "Descr": null, "Dates": null, "Authors": null, "Synonym": null, "SightId": "9570844992864284", "X": "71.4611546757154", "Y": "51.1240291103745" }, "geometry": { "type": "Point", "coordinates": [ 71.461154675715406, 51.124029110374522 ] } },
{ "type": "Feature", "properties": { "Purpose": "Фонтан", "StartDate": null, "EndDate": null, "HouseId": null, "Name": "Фонтан", "Descr": null, "Dates": null, "Authors": null, "Synonym": null, "SightId": "9570844992864285", "X": "71.4614177922621", "Y": "51.1239757733912" }, "geometry": { "type": "Point", "coordinates": [ 71.461417792262125, 51.123975773391166 ] } },
{ "type": "Feature", "properties": { "Purpose": "Фонтан", "StartDate": null, "EndDate": null, "HouseId": null, "Name": "Фонтан", "Descr": null, "Dates": null, "Authors": null, "Synonym": null, "SightId": "9570844992864286", "X": "71.4616645594707", "Y": "51.1239258192473" }, "geometry": { "type": "Point", "coordinates": [ 71.461664559470677, 51.123925819247312 ] } },
{ "type": "Feature", "properties": { "Purpose": "Фонтан", "StartDate": null, "EndDate": null, "HouseId": null, "Name": "Фонтан", "Descr": null, "Dates": null, "Authors": null, "Synonym": null, "SightId": "9570844992864287", "X": "71.4596577231259", "Y": "51.1237317530878" }, "geometry": { "type": "Point", "coordinates": [ 71.459657723125943, 51.123731753087817 ] } },
{ "type": "Feature", "properties": { "Purpose": "Фонтан", "StartDate": null, "EndDate": null, "HouseId": null, "Name": "Фонтанный комплекс", "Descr": null, "Dates": null, "Authors": null, "Synonym": null, "SightId": "9570844992864288", "X": "71.4560396684876", "Y": "51.1242995155286" }, "geometry": { "type": "Point", "coordinates": [ 71.456039668487634, 51.124299515528612 ] } },
{ "type": "Feature", "properties": { "Purpose": "Фонтан", "StartDate": null, "EndDate": null, "HouseId": null, "Name": "Фонтанный комплекс", "Descr": null, "Dates": null, "Authors": null, "Synonym": null, "SightId": "9570844992864291", "X": "71.4666848842675", "Y": "51.1226417085757" }, "geometry": { "type": "Point", "coordinates": [ 71.466684884267494, 51.122641708575749 ] } },
{ "type": "Feature", "properties": { "Purpose": "Фонтан", "StartDate": null, "EndDate": null, "HouseId": null, "Name": "Фонтан", "Descr": null, "Dates": null, "Authors": null, "Synonym": null, "SightId": "9570844992864433", "X": "71.4432306806829", "Y": "51.1278884922128" }, "geometry": { "type": "Point", "coordinates": [ 71.443230680682902, 51.127888492212819 ] } },
{ "type": "Feature", "properties": { "Purpose": "Фонтан", "StartDate": null, "EndDate": null, "HouseId": null, "Name": "Фонтан", "Descr": null, "Dates": null, "Authors": null, "Synonym": null, "SightId": "9570844992864434", "X": "71.4430506583", "Y": "51.1274349946389" }, "geometry": { "type": "Point", "coordinates": [ 71.443050658299967, 51.127434994638925 ] } },
{ "type": "Feature", "properties": { "Purpose": "Фонтан", "StartDate": null, "EndDate": null, "HouseId": null, "Name": "Фонтан", "Descr": null, "Dates": null, "Authors": null, "Synonym": null, "SightId": "9570844992864435", "X": "71.442870635917", "Y": "51.1269813798562" }, "geometry": { "type": "Point", "coordinates": [ 71.442870635917018, 51.126981379856232 ] } },
{ "type": "Feature", "properties": { "Purpose": "Фонтан", "StartDate": null, "EndDate": null, "HouseId": null, "Name": "Фонтан", "Descr": null, "Dates": null, "Authors": null, "Synonym": null, "SightId": "9570844992864437", "X": "71.4424135731005", "Y": "51.1258301840868" }, "geometry": { "type": "Point", "coordinates": [ 71.442413573100467, 51.125830184086816 ] } },
{ "type": "Feature", "properties": { "Purpose": "Фонтан", "StartDate": null, "EndDate": null, "HouseId": null, "Name": "Фонтан", "Descr": null, "Dates": null, "Authors": null, "Synonym": null, "SightId": "9570844992864438", "X": "71.4422335507175", "Y": "51.1253766663028" }, "geometry": { "type": "Point", "coordinates": [ 71.442233550717532, 51.125376666302806 ] } },
{ "type": "Feature", "properties": { "Purpose": "Фонтан", "StartDate": null, "EndDate": null, "HouseId": null, "Name": "Фонтан", "Descr": null, "Dates": null, "Authors": null, "Synonym": null, "SightId": "9570844992864439", "X": "71.4420535283346", "Y": "51.1249230876854" }, "geometry": { "type": "Point", "coordinates": [ 71.442053528334597, 51.124923087685382 ] } },
{ "type": "Feature", "properties": { "Purpose": "Фонтан", "StartDate": null, "EndDate": null, "HouseId": null, "Name": null, "Descr": null, "Dates": null, "Authors": null, "Synonym": null, "SightId": "9570845031829177", "X": "71.4598801459903", "Y": "51.1281434839824" }, "geometry": { "type": "Point", "coordinates": [ 71.459880145990283, 51.128143483982406 ] } },
{ "type": "Feature", "properties": { "Purpose": "Фонтан", "StartDate": null, "EndDate": null, "HouseId": null, "Name": null, "Descr": null, "Dates": null, "Authors": null, "Synonym": null, "SightId": "70030076137941260", "X": "71.4393851726146", "Y": "51.1269197587125" }, "geometry": { "type": "Point", "coordinates": [ 71.439385172614635, 51.126919758712461 ] } },
{ "type": "Feature", "properties": { "Purpose": "Фонтан", "StartDate": null, "EndDate": null, "HouseId": null, "Name": "Фонтан", "Descr": null, "Dates": null, "Authors": null, "Synonym": null, "SightId": "70030076139177634", "X": "71.4608238261963", "Y": "51.1235544316104" }, "geometry": { "type": "Point", "coordinates": [ 71.460823826196261, 51.123554431610437 ] } },
{ "type": "Feature", "properties": { "Purpose": "Фонтан", "StartDate": null, "EndDate": null, "HouseId": null, "Name": null, "Descr": null, "Dates": null, "Authors": null, "Synonym": null, "SightId": "70030076163871219", "X": "71.4653449571897", "Y": "51.1275040005242" }, "geometry": { "type": "Point", "coordinates": [ 71.465344957189714, 51.127504000524162 ] } },
{ "type": "Feature", "properties": { "Purpose": "Фонтан", "StartDate": null, "EndDate": null, "HouseId": null, "Name": "Фонтан", "Descr": null, "Dates": null, "Authors": null, "Synonym": null, "SightId": "70030076744197317", "X": "71.4440833615506", "Y": "51.1259186432152" }, "geometry": { "type": "Point", "coordinates": [ 71.444083361550597, 51.125918643215179 ] } },
{ "type": "Feature", "properties": { "Purpose": "Фонтан", "StartDate": null, "EndDate": null, "HouseId": null, "Name": "Фонтан", "Descr": null, "Dates": null, "Authors": null, "Synonym": null, "SightId": "70030076744199081", "X": "71.4442658992163", "Y": "51.1264355252894" }, "geometry": { "type": "Point", "coordinates": [ 71.444265899216305, 51.126435525289352 ] } },
{ "type": "Feature", "properties": { "Purpose": "Фонтан", "StartDate": null, "EndDate": null, "HouseId": null, "Name": null, "Descr": null, "Dates": null, "Authors": null, "Synonym": null, "SightId": "70030076826825353", "X": "71.4633515955743", "Y": "51.1274661149529" }, "geometry": { "type": "Point", "coordinates": [ 71.463351595574252, 51.127466114952867 ] } },
{ "type": "Feature", "properties": { "Purpose": "Фонтан", "StartDate": null, "EndDate": null, "HouseId": null, "Name": null, "Descr": null, "Dates": null, "Authors": null, "Synonym": null, "SightId": "70030077079739952", "X": "71.4421615058317", "Y": "51.1236954431173" }, "geometry": { "type": "Point", "coordinates": [ 71.44216150583172, 51.123695443117349 ] } },
{ "type": "Feature", "properties": { "Purpose": "Фонтан", "StartDate": null, "EndDate": null, "HouseId": null, "Name": null, "Descr": null, "Dates": null, "Authors": null, "Synonym": null, "SightId": "70030077161799999", "X": "71.4664762954585", "Y": "51.1226117690603" }, "geometry": { "type": "Point", "coordinates": [ 71.466476295458534, 51.122611769060278 ] } },
{ "type": "Feature", "properties": { "Purpose": "Фонтан", "StartDate": null, "EndDate": null, "HouseId": null, "Name": null, "Descr": null, "Dates": null, "Authors": null, "Synonym": null, "SightId": "70030077161800107", "X": "71.4663099274679", "Y": "51.1227029407447" }, "geometry": { "type": "Point", "coordinates": [ 71.466309927467918, 51.122702940744709 ] } },
{ "type": "Feature", "properties": { "Purpose": "Фонтан", "StartDate": null, "EndDate": null, "HouseId": null, "Name": null, "Descr": null, "Dates": null, "Authors": null, "Synonym": null, "SightId": "70030077161800138", "X": "71.4661078963605", "Y": "51.1226761023455" }, "geometry": { "type": "Point", "coordinates": [ 71.466107896360512, 51.122676102345473 ] } },
{ "type": "Feature", "properties": { "Purpose": "Беседка", "StartDate": null, "EndDate": null, "HouseId": null, "Name": null, "Descr": null, "Dates": null, "Authors": null, "Synonym": null, "SightId": "70030076138925602", "X": "71.4636592685591", "Y": "51.1197784220221" }, "geometry": { "type": "Point", "coordinates": [ 71.46365926855907, 51.119778422022058 ] } },
{ "type": "Feature", "properties": { "Purpose": "Беседка", "StartDate": null, "EndDate": null, "HouseId": null, "Name": null, "Descr": null, "Dates": null, "Authors": null, "Synonym": null, "SightId": "70030076138925632", "X": "71.4655759140493", "Y": "51.1197622390235" }, "geometry": { "type": "Point", "coordinates": [ 71.465575914049253, 51.119762239023459 ] } },
{ "type": "Feature", "properties": { "Purpose": "Беседка", "StartDate": null, "EndDate": null, "HouseId": null, "Name": null, "Descr": null, "Dates": null, "Authors": null, "Synonym": null, "SightId": "70030076138925655", "X": "71.4657042833034", "Y": "51.1193260853409" }, "geometry": { "type": "Point", "coordinates": [ 71.465704283303367, 51.119326085340916 ] } },
{ "type": "Feature", "properties": { "Purpose": "Беседка", "StartDate": null, "EndDate": null, "HouseId": null, "Name": null, "Descr": null, "Dates": null, "Authors": null, "Synonym": null, "SightId": "70030076138925661", "X": "71.4650112330617", "Y": "51.1193656128191" }, "geometry": { "type": "Point", "coordinates": [ 71.465011233061659, 51.119365612819117 ] } },
{ "type": "Feature", "properties": { "Purpose": "Беседка", "StartDate": null, "EndDate": null, "HouseId": null, "Name": null, "Descr": null, "Dates": null, "Authors": null, "Synonym": null, "SightId": "70030076138925680", "X": "71.4645007204857", "Y": "51.1194050838763" }, "geometry": { "type": "Point", "coordinates": [ 71.464500720485702, 51.119405083876295 ] } },
{ "type": "Feature", "properties": { "Purpose": "Беседка", "StartDate": null, "EndDate": null, "HouseId": null, "Name": null, "Descr": null, "Dates": null, "Authors": null, "Synonym": null, "SightId": "70030076138925695", "X": "71.4635565911221", "Y": "51.1193996707047" }, "geometry": { "type": "Point", "coordinates": [ 71.463556591122085, 51.119399670704738 ] } },
{ "type": "Feature", "properties": { "Purpose": "Беседка", "StartDate": null, "EndDate": null, "HouseId": null, "Name": null, "Descr": null, "Dates": null, "Authors": null, "Synonym": null, "SightId": "70030076139044798", "X": "71.4670922702489", "Y": "51.1272225641097" }, "geometry": { "type": "Point", "coordinates": [ 71.467092270248855, 51.127222564109651 ] } },
{ "type": "Feature", "properties": { "Purpose": "Беседка", "StartDate": null, "EndDate": null, "HouseId": "9570784863334434", "Name": null, "Descr": null, "Dates": null, "Authors": null, "Synonym": null, "SightId": "70030076139092962", "X": "71.463189539497", "Y": "51.1343831555416" }, "geometry": { "type": "Point", "coordinates": [ 71.463189539496994, 51.134383155541556 ] } },
{ "type": "Feature", "properties": { "Purpose": "Беседка", "StartDate": null, "EndDate": null, "HouseId": "9570784863349089", "Name": null, "Descr": null, "Dates": null, "Authors": null, "Synonym": null, "SightId": "70030076139092997", "X": "71.4636448955145", "Y": "51.1345746403579" }, "geometry": { "type": "Point", "coordinates": [ 71.463644895514534, 51.134574640357933 ] } },
{ "type": "Feature", "properties": { "Purpose": "Беседка", "StartDate": null, "EndDate": null, "HouseId": "9570784863349089", "Name": null, "Descr": null, "Dates": null, "Authors": null, "Synonym": null, "SightId": "70030076139093066", "X": "71.4644748490055", "Y": "51.1347965633333" }, "geometry": { "type": "Point", "coordinates": [ 71.464474849005512, 51.134796563333303 ] } },
{ "type": "Feature", "properties": { "Purpose": "Беседка", "StartDate": null, "EndDate": null, "HouseId": null, "Name": null, "Descr": null, "Dates": null, "Authors": null, "Synonym": null, "SightId": "70030076139093097", "X": "71.4649715275261", "Y": "51.1349134712739" }, "geometry": { "type": "Point", "coordinates": [ 71.464971527526103, 51.134913471273897 ] } },
{ "type": "Feature", "properties": { "Purpose": "Беседка", "StartDate": null, "EndDate": null, "HouseId": null, "Name": null, "Descr": null, "Dates": null, "Authors": null, "Synonym": null, "SightId": "70030076245686235", "X": "71.4663799062286", "Y": "51.1343703597955" }, "geometry": { "type": "Point", "coordinates": [ 71.466379906228553, 51.134370359795462 ] } },
{ "type": "Feature", "properties": { "Purpose": "Беседка", "StartDate": null, "EndDate": null, "HouseId": "9570784863334434", "Name": null, "Descr": null, "Dates": null, "Authors": null, "Synonym": null, "SightId": "70030076459614559", "X": "71.4625145453925", "Y": "51.1341681076198" }, "geometry": { "type": "Point", "coordinates": [ 71.462514545392509, 51.134168107619764 ] } },
{ "type": "Feature", "properties": { "Purpose": "Беседка", "StartDate": null, "EndDate": null, "HouseId": null, "Name": null, "Descr": null, "Dates": null, "Authors": null, "Synonym": null, "SightId": "70030076655114124", "X": "71.4620891931055", "Y": "51.1188280136628" }, "geometry": { "type": "Point", "coordinates": [ 71.46208919310547, 51.118828013662849 ] } },
{ "type": "Feature", "properties": { "Purpose": "Беседка", "StartDate": null, "EndDate": null, "HouseId": null, "Name": null, "Descr": null, "Dates": null, "Authors": null, "Synonym": null, "SightId": "70030076655114127", "X": "71.4554270174639", "Y": "51.1198966648746" }, "geometry": { "type": "Point", "coordinates": [ 71.455427017463862, 51.119896664874581 ] } },
{ "type": "Feature", "properties": { "Purpose": "Беседка", "StartDate": null, "EndDate": null, "HouseId": null, "Name": null, "Descr": null, "Dates": null, "Authors": null, "Synonym": null, "SightId": "70030076655114128", "X": "71.455555386718", "Y": "51.1198822862892" }, "geometry": { "type": "Point", "coordinates": [ 71.455555386717961, 51.119882286289226 ] } },
{ "type": "Feature", "properties": { "Purpose": "Беседка", "StartDate": null, "EndDate": null, "HouseId": null, "Name": "Беседка", "Descr": null, "Dates": null, "Authors": null, "Synonym": null, "SightId": "70030076687403956", "X": "71.4518573820193", "Y": "51.1297338386393" }, "geometry": { "type": "Point", "coordinates": [ 71.451857382019341, 51.129733838639346 ] } },
{ "type": "Feature", "properties": { "Purpose": "Беседка", "StartDate": null, "EndDate": null, "HouseId": "70030076471828010", "Name": null, "Descr": null, "Dates": null, "Authors": null, "Synonym": null, "SightId": "70030076946102262", "X": "71.4661991651934", "Y": "51.133205424725" }, "geometry": { "type": "Point", "coordinates": [ 71.466199165193387, 51.133205424724984 ] } },
{ "type": "Feature", "properties": { "Purpose": "Беседка", "StartDate": null, "EndDate": null, "HouseId": null, "Name": null, "Descr": null, "Dates": null, "Authors": null, "Synonym": null, "SightId": "70030077018901537", "X": "71.4650026990664", "Y": "51.1195666329232" }, "geometry": { "type": "Point", "coordinates": [ 71.465002699066446, 51.11956663292316 ] } },
{ "type": "Feature", "properties": { "Purpose": "Беседка", "StartDate": null, "EndDate": null, "HouseId": null, "Name": null, "Descr": null, "Dates": null, "Authors": null, "Synonym": null, "SightId": "70030077045491667", "X": "71.4609339596501", "Y": "51.1315389742095" }, "geometry": { "type": "Point", "coordinates": [ 71.460933959650092, 51.131538974209477 ] } },
{ "type": "Feature", "properties": { "Purpose": "Беседка", "StartDate": null, "EndDate": null, "HouseId": null, "Name": null, "Descr": null, "Dates": null, "Authors": null, "Synonym": null, "SightId": "70030077045491668", "X": "71.4610290014072", "Y": "51.1317760194998" }, "geometry": { "type": "Point", "coordinates": [ 71.461029001407155, 51.131776019499767 ] } },
{ "type": "Feature", "properties": { "Purpose": "Беседка", "StartDate": null, "EndDate": null, "HouseId": null, "Name": null, "Descr": null, "Dates": null, "Authors": null, "Synonym": null, "SightId": "70030077109395104", "X": "71.4629939762597", "Y": "51.1186620073729" }, "geometry": { "type": "Point", "coordinates": [ 71.462993976259654, 51.11866200737294 ] } },
{ "type": "Feature", "properties": { "Purpose": "Беседка", "StartDate": null, "EndDate": null, "HouseId": null, "Name": null, "Descr": null, "Dates": null, "Authors": null, "Synonym": null, "SightId": "70030077150537288", "X": "71.4605849641622", "Y": "51.1198459732929" }, "geometry": { "type": "Point", "coordinates": [ 71.460584964162209, 51.119845973292918 ] } },
{ "type": "Feature", "properties": { "Purpose": "Беседка", "StartDate": null, "EndDate": null, "HouseId": null, "Name": null, "Descr": null, "Dates": null, "Authors": null, "Synonym": null, "SightId": "70030077150537334", "X": "71.4608590401554", "Y": "51.120079977349" }, "geometry": { "type": "Point", "coordinates": [ 71.460859040155412, 51.120079977349043 ] } },
{ "type": "Feature", "properties": { "Purpose": "Беседка", "StartDate": null, "EndDate": null, "HouseId": null, "Name": null, "Descr": null, "Dates": null, "Authors": null, "Synonym": null, "SightId": "70030077150537363", "X": "71.4606540446076", "Y": "51.1200469913069" }, "geometry": { "type": "Point", "coordinates": [ 71.46065404460758, 51.120046991306872 ] } },
{ "type": "Feature", "properties": { "Purpose": "Детская площадка", "StartDate": null, "EndDate": null, "HouseId": null, "Name": null, "Descr": null, "Dates": null, "Authors": null, "Synonym": null, "SightId": "9570845031829221", "X": "71.4638691150094", "Y": "51.1348367539943" }, "geometry": { "type": "Point", "coordinates": [ 71.46386911500943, 51.1348367539943 ] } },
{ "type": "Feature", "properties": { "Purpose": "Детская площадка", "StartDate": null, "EndDate": null, "HouseId": null, "Name": null, "Descr": null, "Dates": null, "Authors": null, "Synonym": null, "SightId": "9570845031829229", "X": "71.4627068746948", "Y": "51.1344741348851" }, "geometry": { "type": "Point", "coordinates": [ 71.462706874694845, 51.134474134885089 ] } },
{ "type": "Feature", "properties": { "Purpose": "Детская площадка", "StartDate": null, "EndDate": null, "HouseId": null, "Name": null, "Descr": null, "Dates": null, "Authors": null, "Synonym": null, "SightId": "9570845031829326", "X": "71.4651640364915", "Y": "51.1352141950167" }, "geometry": { "type": "Point", "coordinates": [ 71.465164036491487, 51.135214195016701 ] } },
{ "type": "Feature", "properties": { "Purpose": "Детская площадка", "StartDate": null, "EndDate": null, "HouseId": null, "Name": null, "Descr": null, "Dates": null, "Authors": null, "Synonym": null, "SightId": "9570845035050938", "X": "71.4662023991284", "Y": "51.1272818169909" }, "geometry": { "type": "Point", "coordinates": [ 71.466202399128392, 51.127281816990887 ] } },
{ "type": "Feature", "properties": { "Purpose": "Детская площадка", "StartDate": null, "EndDate": null, "HouseId": "9570784863343890", "Name": null, "Descr": null, "Dates": null, "Authors": null, "Synonym": null, "SightId": "9570845035051025", "X": "71.4617546604937", "Y": "51.1279095771483" }, "geometry": { "type": "Point", "coordinates": [ 71.461754660493682, 51.127909577148344 ] } },
{ "type": "Feature", "properties": { "Purpose": "Детская площадка", "StartDate": null, "EndDate": null, "HouseId": "9570784863344615", "Name": null, "Descr": null, "Dates": null, "Authors": null, "Synonym": null, "SightId": "9570845035051034", "X": "71.4586440641593", "Y": "51.1283123313947" }, "geometry": { "type": "Point", "coordinates": [ 71.458644064159344, 51.128312331394675 ] } },
{ "type": "Feature", "properties": { "Purpose": "Детская площадка", "StartDate": null, "EndDate": null, "HouseId": null, "Name": null, "Descr": null, "Dates": null, "Authors": null, "Synonym": null, "SightId": "9570845035051093", "X": "71.4599612638604", "Y": "51.1277161478737" }, "geometry": { "type": "Point", "coordinates": [ 71.45996126386045, 51.127716147873713 ] } },
{ "type": "Feature", "properties": { "Purpose": "Детская площадка", "StartDate": null, "EndDate": null, "HouseId": null, "Name": null, "Descr": null, "Dates": null, "Authors": null, "Synonym": null, "SightId": "70030076138925641", "X": "71.4656586488869", "Y": "51.1192614654535" }, "geometry": { "type": "Point", "coordinates": [ 71.465658648886929, 51.119261465453512 ] } },
{ "type": "Feature", "properties": { "Purpose": "Детская площадка", "StartDate": null, "EndDate": null, "HouseId": null, "Name": null, "Descr": null, "Dates": null, "Authors": null, "Synonym": null, "SightId": "70030076138925684", "X": "71.4646640342043", "Y": "51.1193299760643" }, "geometry": { "type": "Point", "coordinates": [ 71.464664034204347, 51.11932997606425 ] } },
{ "type": "Feature", "properties": { "Purpose": "Детская площадка", "StartDate": null, "EndDate": null, "HouseId": null, "Name": null, "Descr": null, "Dates": null, "Authors": null, "Synonym": null, "SightId": "70030076138925700", "X": "71.4634169030954", "Y": "51.1194786691143" }, "geometry": { "type": "Point", "coordinates": [ 71.463416903095407, 51.119478669114294 ] } },
{ "type": "Feature", "properties": { "Purpose": "Детская площадка", "StartDate": null, "EndDate": null, "HouseId": null, "Name": null, "Descr": null, "Dates": null, "Authors": null, "Synonym": null, "SightId": "70030076138975778", "X": "71.468932918266", "Y": "51.1296693460597" }, "geometry": { "type": "Point", "coordinates": [ 71.468932918266006, 51.129669346059679 ] } },
{ "type": "Feature", "properties": { "Purpose": "Детская площадка", "StartDate": null, "EndDate": null, "HouseId": "70030076139045632", "Name": null, "Descr": null, "Dates": null, "Authors": null, "Synonym": null, "SightId": "70030076139046429", "X": "71.4681443771096", "Y": "51.1255375179111" }, "geometry": { "type": "Point", "coordinates": [ 71.46814437710961, 51.125537517911077 ] } },
{ "type": "Feature", "properties": { "Purpose": "Детская площадка", "StartDate": null, "EndDate": null, "HouseId": "70030076139045565", "Name": null, "Descr": null, "Dates": null, "Authors": null, "Synonym": null, "SightId": "70030076139046434", "X": "71.466172575061", "Y": "51.1260508523678" }, "geometry": { "type": "Point", "coordinates": [ 71.466172575060966, 51.126050852367811 ] } },
{ "type": "Feature", "properties": { "Purpose": "Детская площадка", "StartDate": null, "EndDate": null, "HouseId": null, "Name": null, "Descr": null, "Dates": null, "Authors": null, "Synonym": null, "SightId": "70030076139085089", "X": "71.462641118016", "Y": "51.1270692166236" }, "geometry": { "type": "Point", "coordinates": [ 71.462641118016037, 51.127069216623561 ] } },
{ "type": "Feature", "properties": { "Purpose": "Детская площадка", "StartDate": null, "EndDate": null, "HouseId": null, "Name": null, "Descr": null, "Dates": null, "Authors": null, "Synonym": null, "SightId": "70030076163851203", "X": "71.4562912865987", "Y": "51.1195878908185" }, "geometry": { "type": "Point", "coordinates": [ 71.456291286598713, 51.119587890818515 ] } },
{ "type": "Feature", "properties": { "Purpose": "Детская площадка", "StartDate": null, "EndDate": null, "HouseId": null, "Name": null, "Descr": null, "Dates": null, "Authors": null, "Synonym": null, "SightId": "70030076183883028", "X": "71.4665682829436", "Y": "51.1355458062004" }, "geometry": { "type": "Point", "coordinates": [ 71.466568282943626, 51.135545806200355 ] } },
{ "type": "Feature", "properties": { "Purpose": "Детская площадка", "StartDate": null, "EndDate": null, "HouseId": null, "Name": null, "Descr": null, "Dates": null, "Authors": null, "Synonym": null, "SightId": "70030076245686215", "X": "71.4663000459998", "Y": "51.1346521472333" }, "geometry": { "type": "Point", "coordinates": [ 71.466300045999787, 51.13465214723329 ] } },
{ "type": "Feature", "properties": { "Purpose": "Детская площадка", "StartDate": null, "EndDate": null, "HouseId": null, "Name": null, "Descr": null, "Dates": null, "Authors": null, "Synonym": null, "SightId": "70030076245686301", "X": "71.4674009313805", "Y": "51.1345229502458" }, "geometry": { "type": "Point", "coordinates": [ 71.467400931380467, 51.134522950245824 ] } },
{ "type": "Feature", "properties": { "Purpose": "Детская площадка", "StartDate": null, "EndDate": null, "HouseId": null, "Name": null, "Descr": null, "Dates": null, "Authors": null, "Synonym": null, "SightId": "70030076261393466", "X": "71.4608311025501", "Y": "51.1315169325998" }, "geometry": { "type": "Point", "coordinates": [ 71.46083110255006, 51.131516932599844 ] } },
{ "type": "Feature", "properties": { "Purpose": "Детская площадка", "StartDate": null, "EndDate": null, "HouseId": null, "Name": null, "Descr": null, "Dates": null, "Authors": null, "Synonym": null, "SightId": "70030076307860613", "X": "71.4622717307712", "Y": "51.1187274739192" }, "geometry": { "type": "Point", "coordinates": [ 71.462271730771207, 51.118727473919229 ] } },
{ "type": "Feature", "properties": { "Purpose": "Детская площадка", "StartDate": null, "EndDate": null, "HouseId": null, "Name": null, "Descr": null, "Dates": null, "Authors": null, "Synonym": null, "SightId": "70030076307862132", "X": "71.4643082115203", "Y": "51.118345725396" }, "geometry": { "type": "Point", "coordinates": [ 71.464308211520304, 51.11834572539604 ] } },
{ "type": "Feature", "properties": { "Purpose": "Детская площадка", "StartDate": null, "EndDate": null, "HouseId": null, "Name": null, "Descr": null, "Dates": null, "Authors": null, "Synonym": null, "SightId": "70030076307862150", "X": "71.4653463944941", "Y": "51.1184737834871" }, "geometry": { "type": "Point", "coordinates": [ 71.465346394494148, 51.11847378348709 ] } },
{ "type": "Feature", "properties": { "Purpose": "Детская площадка", "StartDate": null, "EndDate": null, "HouseId": null, "Name": null, "Descr": null, "Dates": null, "Authors": null, "Synonym": null, "SightId": "70030076323170901", "X": "71.4604089841981", "Y": "51.13237902792" }, "geometry": { "type": "Point", "coordinates": [ 71.460408984198054, 51.132379027920003 ] } },
{ "type": "Feature", "properties": { "Purpose": "Детская площадка", "StartDate": null, "EndDate": null, "HouseId": null, "Name": null, "Descr": null, "Dates": null, "Authors": null, "Synonym": null, "SightId": "70030076323170902", "X": "71.4607830426824", "Y": "51.1329209790355" }, "geometry": { "type": "Point", "coordinates": [ 71.460783042682365, 51.132920979035489 ] } },
{ "type": "Feature", "properties": { "Purpose": "Детская площадка", "StartDate": null, "EndDate": null, "HouseId": null, "Name": "Детская площадка", "Descr": null, "Dates": null, "Authors": null, "Synonym": null, "SightId": "70030076604995025", "X": "71.4564410357566", "Y": "51.1219099609611" }, "geometry": { "type": "Point", "coordinates": [ 71.456441035756569, 51.121909960961084 ] } },
{ "type": "Feature", "properties": { "Purpose": "Детская площадка", "StartDate": null, "EndDate": null, "HouseId": null, "Name": null, "Descr": null, "Dates": null, "Authors": null, "Synonym": null, "SightId": "70030076786395919", "X": "71.4612707380501", "Y": "51.13280739193" }, "geometry": { "type": "Point", "coordinates": [ 71.461270738050118, 51.132807391929951 ] } },
{ "type": "Feature", "properties": { "Purpose": "Детская площадка", "StartDate": null, "EndDate": null, "HouseId": null, "Name": null, "Descr": null, "Dates": null, "Authors": null, "Synonym": null, "SightId": "70030076893003302", "X": "71.4618153866069", "Y": "51.1188387837514" }, "geometry": { "type": "Point", "coordinates": [ 71.461815386606887, 51.118838783751393 ] } },
{ "type": "Feature", "properties": { "Purpose": "Детская площадка", "StartDate": null, "EndDate": null, "HouseId": "70030076307859610", "Name": null, "Descr": null, "Dates": null, "Authors": null, "Synonym": null, "SightId": "70030076893003305", "X": "71.463937386971", "Y": "51.1181865404049" }, "geometry": { "type": "Point", "coordinates": [ 71.463937386971011, 51.118186540404942 ] } },
{ "type": "Feature", "properties": { "Purpose": "Детская площадка", "StartDate": null, "EndDate": null, "HouseId": null, "Name": null, "Descr": null, "Dates": null, "Authors": null, "Synonym": null, "SightId": "70030076911095839", "X": "71.4595968173497", "Y": "51.1198517247321" }, "geometry": { "type": "Point", "coordinates": [ 71.459596817349677, 51.119851724732136 ] } },
{ "type": "Feature", "properties": { "Purpose": "Детская площадка", "StartDate": null, "EndDate": null, "HouseId": null, "Name": null, "Descr": null, "Dates": null, "Authors": null, "Synonym": null, "SightId": "70030076946102271", "X": "71.4660920860115", "Y": "51.1330011381051" }, "geometry": { "type": "Point", "coordinates": [ 71.466092086011514, 51.133001138105094 ] } },
{ "type": "Feature", "properties": { "Purpose": "Детская площадка", "StartDate": null, "EndDate": null, "HouseId": null, "Name": null, "Descr": null, "Dates": null, "Authors": null, "Synonym": null, "SightId": "70030076955837597", "X": "71.4658295982855", "Y": "51.1262891097829" }, "geometry": { "type": "Point", "coordinates": [ 71.465829598285495, 51.126289109782881 ] } },
{ "type": "Feature", "properties": { "Purpose": "Детская площадка", "StartDate": null, "EndDate": null, "HouseId": null, "Name": null, "Descr": null, "Dates": null, "Authors": null, "Synonym": null, "SightId": "70030077004739595", "X": "71.4569101359979", "Y": "51.1200526863346" }, "geometry": { "type": "Point", "coordinates": [ 71.456910135997944, 51.120052686334645 ] } },
{ "type": "Feature", "properties": { "Purpose": "Детская площадка", "StartDate": null, "EndDate": null, "HouseId": null, "Name": null, "Descr": null, "Dates": null, "Authors": null, "Synonym": null, "SightId": "70030077045491665", "X": "71.4616700391939", "Y": "51.1337170392365" }, "geometry": { "type": "Point", "coordinates": [ 71.461670039193905, 51.133717039236522 ] } },
{ "type": "Feature", "properties": { "Purpose": "Детская площадка", "StartDate": null, "EndDate": null, "HouseId": null, "Name": null, "Descr": null, "Dates": null, "Authors": null, "Synonym": null, "SightId": "70030077045491666", "X": "71.4627379564037", "Y": "51.1309349964766" }, "geometry": { "type": "Point", "coordinates": [ 71.462737956403672, 51.130934996476597 ] } },
{ "type": "Feature", "properties": { "Purpose": "Детская площадка", "StartDate": null, "EndDate": null, "HouseId": null, "Name": null, "Descr": null, "Dates": null, "Authors": null, "Synonym": null, "SightId": "70030077150537292", "X": "71.4607080333561", "Y": "51.1199020216013" }, "geometry": { "type": "Point", "coordinates": [ 71.460708033356141, 51.119902021601312 ] } },
{ "type": "Feature", "properties": { "Purpose": "Уличный тренажер", "StartDate": null, "EndDate": null, "HouseId": null, "Name": null, "Descr": null, "Dates": null, "Authors": null, "Synonym": null, "SightId": "70030076459614557", "X": "71.4663057053861", "Y": "51.1344655104569" }, "geometry": { "type": "Point", "coordinates": [ 71.466305705386077, 51.134465510456856 ] } },
{ "type": "Feature", "properties": { "Purpose": "Уличный тренажер", "StartDate": null, "EndDate": null, "HouseId": null, "Name": null, "Descr": null, "Dates": null, "Authors": null, "Synonym": null, "SightId": "70030076459614558", "X": "71.4636846908816", "Y": "51.1347649970112" }, "geometry": { "type": "Point", "coordinates": [ 71.463684690881593, 51.134764997011203 ] } },
{ "type": "Feature", "properties": { "Purpose": "Уличный тренажер", "StartDate": null, "EndDate": null, "HouseId": null, "Name": null, "Descr": null, "Dates": null, "Authors": null, "Synonym": null, "SightId": "70030076655114125", "X": "71.4620777845014", "Y": "51.1187597842477" }, "geometry": { "type": "Point", "coordinates": [ 71.462077784501361, 51.118759784247686 ] } },
{ "type": "Feature", "properties": { "Purpose": "Уличный тренажер", "StartDate": null, "EndDate": null, "HouseId": null, "Name": null, "Descr": null, "Dates": null, "Authors": null, "Synonym": null, "SightId": "70030076655114126", "X": "71.4638689353464", "Y": "51.11824163212" }, "geometry": { "type": "Point", "coordinates": [ 71.463868935346369, 51.118241632119961 ] } },
{ "type": "Feature", "properties": { "Purpose": "Уличный тренажер", "StartDate": null, "EndDate": null, "HouseId": null, "Name": null, "Descr": null, "Dates": null, "Authors": null, "Synonym": null, "SightId": "70030076786395920", "X": "71.4614399806497", "Y": "51.1328863674111" }, "geometry": { "type": "Point", "coordinates": [ 71.461439980649658, 51.132886367411096 ] } },
{ "type": "Feature", "properties": { "Purpose": "Уличный тренажер", "StartDate": null, "EndDate": null, "HouseId": null, "Name": null, "Descr": null, "Dates": null, "Authors": null, "Synonym": null, "SightId": "70030076893003297", "X": "71.4642639245768", "Y": "51.1197837787625" }, "geometry": { "type": "Point", "coordinates": [ 71.464263924576798, 51.119783778762496 ] } },
{ "type": "Feature", "properties": { "Purpose": "Уличный тренажер", "StartDate": null, "EndDate": null, "HouseId": null, "Name": null, "Descr": null, "Dates": null, "Authors": null, "Synonym": null, "SightId": "70030077018901534", "X": "71.4655416882369", "Y": "51.1196958717539" }, "geometry": { "type": "Point", "coordinates": [ 71.465541688236925, 51.119695871753926 ] } },
{ "type": "Feature", "properties": { "Purpose": "Аттракцион", "StartDate": null, "EndDate": null, "HouseId": null, "Name": "Горка", "Descr": null, "Dates": null, "Authors": null, "Synonym": null, "SightId": "70030076426877726", "X": "71.4577870713783", "Y": "51.1268071716528" }, "geometry": { "type": "Point", "coordinates": [ 71.457787071378306, 51.126807171652793 ] } },
{ "type": "Feature", "properties": { "Purpose": "Аттракцион", "StartDate": null, "EndDate": null, "HouseId": null, "Name": null, "Descr": null, "Dates": null, "Authors": null, "Synonym": null, "SightId": "70030076885665968", "X": "71.4566940013406", "Y": "51.127583999865" }, "geometry": { "type": "Point", "coordinates": [ 71.45669400134058, 51.127583999865031 ] } },
{ "type": "Feature", "properties": { "Purpose": "Площадка для воркаута", "StartDate": null, "EndDate": null, "HouseId": null, "Name": null, "Descr": null, "Dates": null, "Authors": null, "Synonym": null, "SightId": "70030076223179280", "X": "71.4495622763", "Y": "51.1308888832357" }, "geometry": { "type": "Point", "coordinates": [ 71.449562276299957, 51.13088888323572 ] } },
{ "type": "Feature", "properties": { "Purpose": "Площадка для воркаута", "StartDate": null, "EndDate": null, "HouseId": null, "Name": null, "Descr": null, "Dates": null, "Authors": null, "Synonym": null, "SightId": "70030076786395888", "X": "71.460901979626", "Y": "51.1330449944148" }, "geometry": { "type": "Point", "coordinates": [ 71.460901979625973, 51.133044994414782 ] } },
{ "type": "Feature", "properties": { "Purpose": "Площадка для воркаута", "StartDate": null, "EndDate": null, "HouseId": null, "Name": null, "Descr": null, "Dates": null, "Authors": null, "Synonym": null, "SightId": "70030076786395969", "X": "71.4614665707821", "Y": "51.1328277417992" }, "geometry": { "type": "Point", "coordinates": [ 71.461466570782051, 51.132827741799183 ] } },
{ "type": "Feature", "properties": { "Purpose": "Площадка для воркаута", "StartDate": null, "EndDate": null, "HouseId": null, "Name": null, "Descr": null, "Dates": null, "Authors": null, "Synonym": null, "SightId": "70030076946102265", "X": "71.4662022194653", "Y": "51.1327383939686" }, "geometry": { "type": "Point", "coordinates": [ 71.466202219465345, 51.132738393968637 ] } },
{ "type": "Feature", "properties": { "Purpose": "Площадка для воркаута", "StartDate": null, "EndDate": null, "HouseId": null, "Name": null, "Descr": null, "Dates": null, "Authors": null, "Synonym": null, "SightId": "70030076955838068", "X": "71.4646105844449", "Y": "51.1270281735336" }, "geometry": { "type": "Point", "coordinates": [ 71.464610584444941, 51.127028173533567 ] } },
{ "type": "Feature", "properties": { "Purpose": "Прокат инвентаря", "StartDate": "2024-04-15", "EndDate": "2024-10-31", "HouseId": null, "Name": "Велопрокат Аstana bike", "Descr": "Велопрокат \"Astana bike\" функционирует ежегодно с 15 апреля по 31 октября.", "Dates": null, "Authors": null, "Synonym": "Аstana Bike;astana bike;Аstana bike;велопрокат; Астана байк", "SightId": "9570845031589195", "X": "71.4377300267036", "Y": "51.1245723434782" }, "geometry": { "type": "Point", "coordinates": [ 71.437730026703647, 51.124572343478235 ] } },
{ "type": "Feature", "properties": { "Purpose": "Прокат инвентаря", "StartDate": "2024-04-15", "EndDate": "2024-10-31", "HouseId": null, "Name": "Велопрокат Аstana bike", "Descr": "Велопрокат \"Astana bike\" функционирует ежегодно с 15 апреля по 31 октября.", "Dates": null, "Authors": null, "Synonym": "Аstana Bike;astana bike;Астана байк;Аstana bike;велопрокат", "SightId": "9570845031610125", "X": "71.4577285910533", "Y": "51.1297731317141" }, "geometry": { "type": "Point", "coordinates": [ 71.457728591053296, 51.129773131714124 ] } },
{ "type": "Feature", "properties": { "Purpose": "Прокат инвентаря", "StartDate": "2024-04-15", "EndDate": "2024-10-31", "HouseId": null, "Name": "Велопрокат Astana bike", "Descr": "Велопрокат \"Astana bike\" функционирует ежегодно с 15 апреля по 31 октября.", "Dates": null, "Authors": null, "Synonym": "Аstana Bike;astana bike;велопрокат;Astana bike; Астана байк", "SightId": "70030076151184539", "X": "71.4599114971937", "Y": "51.1272814787254" }, "geometry": { "type": "Point", "coordinates": [ 71.459911497193715, 51.127281478725365 ] } },
{ "type": "Feature", "properties": { "Purpose": "Прокат инвентаря", "StartDate": "2024-04-15", "EndDate": "2024-10-31", "HouseId": null, "Name": "Велопрокат Аstana bike", "Descr": "Велопрокат \"Astana bike\" функционирует ежегодно с 15 апреля по 31 октября.", "Dates": null, "Authors": null, "Synonym": "Аstana Bike;astana bike;Астана байк;велопрокат;Astana bike", "SightId": "70030077078130008", "X": "71.453253723297", "Y": "51.1195871014008" }, "geometry": { "type": "Point", "coordinates": [ 71.453253723296996, 51.119587101400818 ] } },
{ "type": "Feature", "properties": { "Purpose": "Прокат инвентаря", "StartDate": "2025-04-15", "EndDate": "2025-10-31", "HouseId": null, "Name": "Велопрокат Astana bike", "Descr": "Велопрокат \"Astana bike\" функционирует ежегодно с 15 апреля по 31 октября.", "Dates": null, "Authors": null, "Synonym": null, "SightId": "70030077092088060", "X": "71.4670929889011", "Y": "51.1208090474475" }, "geometry": { "type": "Point", "coordinates": [ 71.467092988901072, 51.120809047447452 ] } },
{ "type": "Feature", "properties": { "Purpose": "Сцена", "StartDate": null, "EndDate": null, "HouseId": "70030076418635132", "Name": "Амфитеатр", "Descr": null, "Dates": null, "Authors": null, "Synonym": null, "SightId": "70030076604995026", "X": "71.4559710371999", "Y": "51.1220169779409" }, "geometry": { "type": "Point", "coordinates": [ 71.45597103719993, 51.122016977940895 ] } },
{ "type": "Feature", "properties": { "Purpose": "Пост полиции, охраны", "StartDate": null, "EndDate": null, "HouseId": null, "Name": null, "Descr": null, "Dates": null, "Authors": null, "Synonym": null, "SightId": "70030076137956543", "X": "71.4387290431311", "Y": "51.12655200337" }, "geometry": { "type": "Point", "coordinates": [ 71.438729043131119, 51.12655200337003 ] } },
{ "type": "Feature", "properties": { "Purpose": "Пост полиции, охраны", "StartDate": null, "EndDate": null, "HouseId": null, "Name": "Пост полиции", "Descr": null, "Dates": null, "Authors": null, "Synonym": null, "SightId": "70030076139047767", "X": "71.4493583587305", "Y": "51.1277388678218" }, "geometry": { "type": "Point", "coordinates": [ 71.449358358730464, 51.127738867821755 ] } },
{ "type": "Feature", "properties": { "Purpose": "Пост полиции, охраны", "StartDate": null, "EndDate": null, "HouseId": null, "Name": "Пост полиции", "Descr": null, "Dates": null, "Authors": null, "Synonym": null, "SightId": "70030076139197169", "X": "71.4503430021134", "Y": "51.1251919089623" }, "geometry": { "type": "Point", "coordinates": [ 71.450343002113385, 51.125191908962336 ] } },
{ "type": "Feature", "properties": { "Purpose": "Пост полиции, охраны", "StartDate": null, "EndDate": null, "HouseId": "70030076605502783", "Name": "Туристическая полиция", "Descr": null, "Dates": null, "Authors": null, "Synonym": null, "SightId": "70030076604995033", "X": "71.4674260842084", "Y": "51.1219682057443" }, "geometry": { "type": "Point", "coordinates": [ 71.467426084208441, 51.121968205744274 ] } },
{ "type": "Feature", "properties": { "Purpose": "Пост полиции, охраны", "StartDate": null, "EndDate": null, "HouseId": "70030076167271797", "Name": null, "Descr": null, "Dates": null, "Authors": null, "Synonym": null, "SightId": "70030077071225242", "X": "71.4448043493976", "Y": "51.1287314311186" }, "geometry": { "type": "Point", "coordinates": [ 71.444804349397629, 51.128731431118638 ] } },
{ "type": "Feature", "properties": { "Purpose": "Спортивные снаряды", "StartDate": null, "EndDate": null, "HouseId": null, "Name": null, "Descr": null, "Dates": null, "Authors": null, "Synonym": null, "SightId": "70030076261393518", "X": "71.4606529666292", "Y": "51.1311020861227" }, "geometry": { "type": "Point", "coordinates": [ 71.460652966629226, 51.131102086122702 ] } },
{ "type": "Feature", "properties": { "Purpose": "Спортивные снаряды", "StartDate": null, "EndDate": null, "HouseId": null, "Name": null, "Descr": null, "Dates": null, "Authors": null, "Synonym": null, "SightId": "70030077018901528", "X": "71.4623123346221", "Y": "51.1187809297384" }, "geometry": { "type": "Point", "coordinates": [ 71.462312334622055, 51.118780929738357 ] } },
{ "type": "Feature", "properties": { "Purpose": "Спортивные снаряды", "StartDate": null, "EndDate": null, "HouseId": null, "Name": null, "Descr": null, "Dates": null, "Authors": null, "Synonym": null, "SightId": "70030077150537036", "X": "71.4645179681391", "Y": "51.1193420429432" }, "geometry": { "type": "Point", "coordinates": [ 71.464517968139148, 51.119342042943174 ] } },
{ "type": "Feature", "properties": { "Purpose": "Спортивные снаряды", "StartDate": null, "EndDate": null, "HouseId": null, "Name": null, "Descr": null, "Dates": null, "Authors": null, "Synonym": null, "SightId": "70030077154632375", "X": "71.4543639511566", "Y": "51.1267239574053" }, "geometry": { "type": "Point", "coordinates": [ 71.454363951156637, 51.126723957405275 ] } },
{ "type": "Feature", "properties": { "Purpose": "Спортивные снаряды", "StartDate": null, "EndDate": null, "HouseId": null, "Name": null, "Descr": null, "Dates": null, "Authors": null, "Synonym": null, "SightId": "70030077154778516", "X": "71.4588195949659", "Y": "51.1254612924729" }, "geometry": { "type": "Point", "coordinates": [ 71.45881959496586, 51.125461292472885 ] } },
{ "type": "Feature", "properties": { "Purpose": "Смотровая площадка", "StartDate": null, "EndDate": null, "HouseId": null, "Name": "Смотровая площадка", "Descr": null, "Dates": null, "Authors": null, "Synonym": null, "SightId": "70030076289645476", "X": "71.4535560962216", "Y": "51.1246915325334" }, "geometry": { "type": "Point", "coordinates": [ 71.453556096221618, 51.12469153253344 ] } },
{ "type": "Feature", "properties": { "Purpose": "Информация", "StartDate": null, "EndDate": null, "HouseId": null, "Name": "Точка воды Astana Half Marafhon", "Descr": null, "Dates": null, "Authors": null, "Synonym": null, "SightId": "70030077158069440", "X": "71.4554668128309", "Y": "51.1204313759125" }, "geometry": { "type": "Point", "coordinates": [ 71.455466812830949, 51.120431375912482 ] } },
{ "type": "Feature", "properties": { "Purpose": "Тир", "StartDate": null, "EndDate": null, "HouseId": "70030076607693559", "Name": "Тир", "Descr": null, "Dates": null, "Authors": null, "Synonym": null, "SightId": "70030076607693715", "X": "71.457193195144", "Y": "51.1274697794812" }, "geometry": { "type": "Point", "coordinates": [ 71.457193195143972, 51.127469779481217 ] } },
{ "type": "Feature", "properties": { "Purpose": "Лыжная база", "StartDate": "2019-12-01", "EndDate": "2020-02-28", "HouseId": "9570784905525693", "Name": "Лыжная база", "Descr": null, "Dates": null, "Authors": null, "Synonym": null, "SightId": "70030076152876500", "X": "71.4578939708971", "Y": "51.1278440108601" }, "geometry": { "type": "Point", "coordinates": [ 71.457893970897118, 51.12784401086008 ] } },
{ "type": "Feature", "properties": { "Purpose": "Стрит-арт", "StartDate": null, "EndDate": null, "HouseId": null, "Name": null, "Descr": null, "Dates": null, "Authors": null, "Synonym": null, "SightId": "70030076221343706", "X": "71.4502936846043", "Y": "51.1309060770534" }, "geometry": { "type": "Point", "coordinates": [ 71.45029368460429, 51.130906077053417 ] } },
{ "type": "Feature", "properties": { "Purpose": "Ледовый городок", "StartDate": "2021-12-01", "EndDate": "2022-02-28", "HouseId": null, "Name": "Ледовый городок", "Descr": null, "Dates": null, "Authors": null, "Synonym": null, "SightId": "70030076343936002", "X": "71.4613443100719", "Y": "51.1234636562823" }, "geometry": { "type": "Point", "coordinates": [ 71.46134431007188, 51.123463656282283 ] } },
{ "type": "Feature", "properties": { "Purpose": "Парк", "StartDate": null, "EndDate": null, "HouseId": "70030076987057882", "Name": "Парк Президенттік саябақ", "Descr": "Самый большой и центральный парк в Астане. Здесь в окружении фонтанов, аллей и зелёных холмов стоят президентская резиденция и стеклянная", "Dates": null, "Authors": null, "Synonym": null, "SightId": "70030076302825207", "X": "71.4583265995379", "Y": "51.1239554196212" }, "geometry": { "type": "Point", "coordinates": [ 71.458326599537941, 51.123955419621247 ] } },
{ "type": "Feature", "properties": { "Purpose": "Качели", "StartDate": null, "EndDate": null, "HouseId": null, "Name": null, "Descr": null, "Dates": null, "Authors": null, "Synonym": null, "SightId": "70030077150537250", "X": "71.4656900000903", "Y": "51.1178230011052" }, "geometry": { "type": "Point", "coordinates": [ 71.465690000090333, 51.11782300110518 ] } },
{ "type": "Feature", "properties": { "Purpose": "Качели", "StartDate": null, "EndDate": null, "HouseId": null, "Name": null, "Descr": null, "Dates": null, "Authors": null, "Synonym": null, "SightId": "70030077154776019", "X": "71.4553820118681", "Y": "51.1303529966463" }, "geometry": { "type": "Point", "coordinates": [ 71.455382011868139, 51.130352996646302 ] } },
{ "type": "Feature", "properties": { "Purpose": "Мост", "StartDate": null, "EndDate": null, "HouseId": null, "Name": "Мост Арыс", "Descr": null, "Dates": null, "Authors": null, "Synonym": null, "SightId": "70030076419487033", "X": "71.4457924962102", "Y": "51.1205862678516" }, "geometry": { "type": "Point", "coordinates": [ 71.44579249621016, 51.120586267851579 ] } },
{ "type": "Feature", "properties": { "Purpose": "Мост", "StartDate": null, "EndDate": null, "HouseId": null, "Name": "Мост Арқар", "Descr": null, "Dates": null, "Authors": null, "Synonym": null, "SightId": "70030076419487893", "X": "71.4472672604121", "Y": "51.1312536162912" }, "geometry": { "type": "Point", "coordinates": [ 71.44726726041209, 51.131253616291168 ] } },
{ "type": "Feature", "properties": { "Purpose": "Остановка", "StartDate": null, "EndDate": null, "HouseId": null, "Name": null, "Descr": null, "Dates": null, "Authors": null, "Synonym": null, "SightId": "70030077101063994", "X": "71.4382783583531", "Y": "51.1258884803064" }, "geometry": { "type": "Point", "coordinates": [ 71.438278358353074, 51.125888480306429 ] } },
{ "type": "Feature", "properties": { "Purpose": "Остановка", "StartDate": null, "EndDate": null, "HouseId": null, "Name": null, "Descr": null, "Dates": null, "Authors": null, "Synonym": null, "SightId": "70030077101064203", "X": "71.4647871932298", "Y": "51.117808057983" }, "geometry": { "type": "Point", "coordinates": [ 71.464787193229796, 51.117808057982963 ] } },
{ "type": "Feature", "properties": { "Purpose": "Остановка", "StartDate": null, "EndDate": null, "HouseId": null, "Name": null, "Descr": null, "Dates": null, "Authors": null, "Synonym": null, "SightId": "70030077101064204", "X": "71.4585126406333", "Y": "51.1204860702495" }, "geometry": { "type": "Point", "coordinates": [ 71.458512640633273, 51.12048607024952 ] } },
{ "type": "Feature", "properties": { "Purpose": "Остановка", "StartDate": null, "EndDate": null, "HouseId": null, "Name": null, "Descr": null, "Dates": null, "Authors": null, "Synonym": null, "SightId": "70030077101064206", "X": "71.4664661444958", "Y": "51.1189754114108" }, "geometry": { "type": "Point", "coordinates": [ 71.466466144495811, 51.118975411410794 ] } },
{ "type": "Feature", "properties": { "Purpose": "Остановка", "StartDate": null, "EndDate": null, "HouseId": null, "Name": null, "Descr": null, "Dates": null, "Authors": null, "Synonym": null, "SightId": "70030077101064220", "X": "71.4669888741597", "Y": "51.1359645020798" }, "geometry": { "type": "Point", "coordinates": [ 71.466988874159654, 51.135964502079844 ] } },
{ "type": "Feature", "properties": { "Purpose": "Остановка", "StartDate": null, "EndDate": null, "HouseId": null, "Name": null, "Descr": null, "Dates": null, "Authors": null, "Synonym": null, "SightId": "70030077101064221", "X": "71.4706572344539", "Y": "51.1307639600926" }, "geometry": { "type": "Point", "coordinates": [ 71.470657234453867, 51.130763960092622 ] } },
{ "type": "Feature", "properties": { "Purpose": "Остановка", "StartDate": null, "EndDate": null, "HouseId": null, "Name": null, "Descr": null, "Dates": null, "Authors": null, "Synonym": null, "SightId": "70030077101064222", "X": "71.4693631214556", "Y": "51.1263637552512" }, "geometry": { "type": "Point", "coordinates": [ 71.469363121455572, 51.126363755251177 ] } },
{ "type": "Feature", "properties": { "Purpose": "Остановка", "StartDate": null, "EndDate": null, "HouseId": null, "Name": null, "Descr": null, "Dates": null, "Authors": null, "Synonym": null, "SightId": "70030077101064224", "X": "71.4705480891469", "Y": "51.1321068661715" }, "geometry": { "type": "Point", "coordinates": [ 71.47054808914686, 51.132106866171483 ] } },
{ "type": "Feature", "properties": { "Purpose": "Остановка", "StartDate": null, "EndDate": null, "HouseId": null, "Name": null, "Descr": null, "Dates": null, "Authors": null, "Synonym": null, "SightId": "70030077101064225", "X": "71.4656131941335", "Y": "51.125755763274" }, "geometry": { "type": "Point", "coordinates": [ 71.465613194133539, 51.125755763274 ] } },
{ "type": "Feature", "properties": { "Purpose": "Остановка", "StartDate": null, "EndDate": null, "HouseId": null, "Name": null, "Descr": null, "Dates": null, "Authors": null, "Synonym": null, "SightId": "70030077101064226", "X": "71.4597394698168", "Y": "51.1273354884219" }, "geometry": { "type": "Point", "coordinates": [ 71.45973946981681, 51.127335488421885 ] } },
{ "type": "Feature", "properties": { "Purpose": "Остановка", "StartDate": null, "EndDate": null, "HouseId": null, "Name": null, "Descr": null, "Dates": null, "Authors": null, "Synonym": null, "SightId": "70030077101064227", "X": "71.4616327591096", "Y": "51.1264929750667" }, "geometry": { "type": "Point", "coordinates": [ 71.461632759109605, 51.126492975066725 ] } },
{ "type": "Feature", "properties": { "Purpose": "Остановка", "StartDate": null, "EndDate": null, "HouseId": null, "Name": null, "Descr": null, "Dates": null, "Authors": null, "Synonym": null, "SightId": "70030077101064228", "X": "71.4674458471447", "Y": "51.1249745066412" }, "geometry": { "type": "Point", "coordinates": [ 71.467445847144674, 51.124974506641237 ] } },
{ "type": "Feature", "properties": { "Purpose": "Остановка", "StartDate": null, "EndDate": null, "HouseId": null, "Name": null, "Descr": null, "Dates": null, "Authors": null, "Synonym": null, "SightId": "70030077101064232", "X": "71.4652157794518", "Y": "51.1286129289996" }, "geometry": { "type": "Point", "coordinates": [ 71.465215779451839, 51.128612928999594 ] } },
{ "type": "Feature", "properties": { "Purpose": "Остановка", "StartDate": null, "EndDate": null, "HouseId": null, "Name": null, "Descr": null, "Dates": null, "Authors": null, "Synonym": null, "SightId": "70030077101064233", "X": "71.4648250123033", "Y": "51.1282768142941" }, "geometry": { "type": "Point", "coordinates": [ 71.464825012303251, 51.128276814294111 ] } },
{ "type": "Feature", "properties": { "Purpose": "Остановка", "StartDate": null, "EndDate": null, "HouseId": null, "Name": null, "Descr": null, "Dates": null, "Authors": null, "Synonym": null, "SightId": "70030077157506749", "X": "71.4550834118677", "Y": "51.1189027275762" }, "geometry": { "type": "Point", "coordinates": [ 71.455083411867676, 51.118902727576234 ] } },
{ "type": "Feature", "properties": { "Purpose": "Остановка", "StartDate": null, "EndDate": null, "HouseId": null, "Name": null, "Descr": null, "Dates": null, "Authors": null, "Synonym": null, "SightId": "70030077157506761", "X": "71.4528861326827", "Y": "51.1196844252229" }, "geometry": { "type": "Point", "coordinates": [ 71.452886132682735, 51.119684425222871 ] } },
{ "type": "Feature", "properties": { "Purpose": "Остановка", "StartDate": null, "EndDate": null, "HouseId": null, "Name": null, "Descr": null, "Dates": null, "Authors": null, "Synonym": null, "SightId": "70030077157506762", "X": "71.4633136866693", "Y": "51.1204847733742" }, "geometry": { "type": "Point", "coordinates": [ 71.463313686669252, 51.120484773374237 ] } },
{ "type": "Feature", "properties": { "Purpose": "Остановка", "StartDate": null, "EndDate": null, "HouseId": null, "Name": null, "Descr": null, "Dates": null, "Authors": null, "Synonym": null, "SightId": "70030077157506763", "X": "71.4574514607882", "Y": "51.1207713255413" }, "geometry": { "type": "Point", "coordinates": [ 71.457451460788164, 51.120771325541327 ] } },
{ "type": "Feature", "properties": { "Purpose": "Остановка", "StartDate": null, "EndDate": null, "HouseId": null, "Name": null, "Descr": null, "Dates": null, "Authors": null, "Synonym": null, "SightId": "70030077157507088", "X": "71.4650807626647", "Y": "51.1200580994297" }, "geometry": { "type": "Point", "coordinates": [ 71.465080762664655, 51.120058099429684 ] } },
{ "type": "Feature", "properties": { "Purpose": "Остановка", "StartDate": null, "EndDate": null, "HouseId": null, "Name": null, "Descr": null, "Dates": null, "Authors": null, "Synonym": null, "SightId": "70030077157507110", "X": "71.4654982996087", "Y": "51.1366654766119" }, "geometry": { "type": "Point", "coordinates": [ 71.465498299608711, 51.136665476611924 ] } },
{ "type": "Feature", "properties": { "Purpose": "Остановка", "StartDate": null, "EndDate": null, "HouseId": null, "Name": null, "Descr": null, "Dates": null, "Authors": null, "Synonym": null, "SightId": "70030077162396637", "X": "71.4605961931033", "Y": "51.1180862812094" }, "geometry": { "type": "Point", "coordinates": [ 71.460596193103257, 51.118086281209436 ] } },
{ "type": "Feature", "properties": { "Purpose": "Зайчики", "StartDate": "2026-12-17", "EndDate": "2027-01-31", "HouseId": null, "Name": null, "Descr": null, "Dates": null, "Authors": null, "Synonym": null, "SightId": "70030077120030356", "X": "71.4685516732594", "Y": "51.1258978392672" }, "geometry": { "type": "Point", "coordinates": [ 71.468551673259441, 51.125897839267161 ] } },
{ "type": "Feature", "properties": { "Purpose": "Памятник", "StartDate": null, "EndDate": null, "HouseId": "70030076782028762", "Name": "Памятник Паровоз", "Descr": null, "Dates": null, "Authors": null, "Synonym": null, "SightId": "9570844992864366", "X": "71.4072165921219", "Y": "51.1953294902738" }, "geometry": { "type": "Point", "coordinates": [ 71.407216592121856, 51.195329490273807 ] } },
{ "type": "Feature", "properties": { "Purpose": "Фонтан", "StartDate": null, "EndDate": null, "HouseId": null, "Name": "Фонтан Бата", "Descr": "Скульптура \"Бата\" была установлена на привокзальной площади, и в переводе с казахского обозначает благополучие. Сама по себе скульптура на", "Dates": "10 июня 2000 г.", "Authors": "Скульптор: А. Бектасов", "Synonym": null, "SightId": "9570844992864330", "X": "71.4092312438095", "Y": "51.1949115581236" }, "geometry": { "type": "Point", "coordinates": [ 71.409231243809543, 51.1949115581236 ] } },
{ "type": "Feature", "properties": { "Purpose": "Беседка", "StartDate": null, "EndDate": null, "HouseId": null, "Name": null, "Descr": null, "Dates": null, "Authors": null, "Synonym": null, "SightId": "70030076952378042", "X": "71.4074626406782", "Y": "51.1942438383452" }, "geometry": { "type": "Point", "coordinates": [ 71.407462640678162, 51.194243838345244 ] } },
{ "type": "Feature", "properties": { "Purpose": "Беседка", "StartDate": null, "EndDate": null, "HouseId": null, "Name": null, "Descr": null, "Dates": null, "Authors": null, "Synonym": null, "SightId": "70030077093621905", "X": "71.4060430330347", "Y": "51.1945790223859" }, "geometry": { "type": "Point", "coordinates": [ 71.406043033034678, 51.194579022385931 ] } },
{ "type": "Feature", "properties": { "Purpose": "Ж/д вокзал", "StartDate": null, "EndDate": null, "HouseId": "9570784863332291", "Name": "Железнодорожный вокзал Астана", "Descr": null, "Dates": null, "Authors": null, "Synonym": null, "SightId": "9570844992864360", "X": "71.4092506474197", "Y": "51.1955765661049" }, "geometry": { "type": "Point", "coordinates": [ 71.409250647419668, 51.195576566104869 ] } },
{ "type": "Feature", "properties": { "Purpose": "Детская площадка", "StartDate": null, "EndDate": null, "HouseId": null, "Name": null, "Descr": null, "Dates": null, "Authors": null, "Synonym": null, "SightId": "9570845036470432", "X": "71.405897056801", "Y": "51.1955648569133" }, "geometry": { "type": "Point", "coordinates": [ 71.40589705680101, 51.195564856913343 ] } },
{ "type": "Feature", "properties": { "Purpose": "Детская площадка", "StartDate": null, "EndDate": null, "HouseId": null, "Name": null, "Descr": null, "Dates": null, "Authors": null, "Synonym": null, "SightId": "9570845036470479", "X": "71.4053016534307", "Y": "51.1960394145515" }, "geometry": { "type": "Point", "coordinates": [ 71.405301653430683, 51.196039414551528 ] } },
{ "type": "Feature", "properties": { "Purpose": "Детская площадка", "StartDate": null, "EndDate": null, "HouseId": null, "Name": null, "Descr": null, "Dates": null, "Authors": null, "Synonym": null, "SightId": "9570845036470557", "X": "71.4061687971744", "Y": "51.1945370259971" }, "geometry": { "type": "Point", "coordinates": [ 71.406168797174445, 51.194537025997143 ] } },
{ "type": "Feature", "properties": { "Purpose": "Уличный тренажер", "StartDate": null, "EndDate": null, "HouseId": null, "Name": null, "Descr": null, "Dates": null, "Authors": null, "Synonym": null, "SightId": "70030076169927334", "X": "71.4066328668502", "Y": "51.1943380211411" }, "geometry": { "type": "Point", "coordinates": [ 71.406632866850231, 51.194338021141107 ] } },
{ "type": "Feature", "properties": { "Purpose": "Уличный тренажер", "StartDate": null, "EndDate": null, "HouseId": null, "Name": null, "Descr": null, "Dates": null, "Authors": null, "Synonym": null, "SightId": "70030076750659480", "X": "71.4057706638405", "Y": "51.1955918218259" }, "geometry": { "type": "Point", "coordinates": [ 71.405770663840528, 51.195591821825914 ] } },
{ "type": "Feature", "properties": { "Purpose": "Пост полиции, охраны", "StartDate": null, "EndDate": null, "HouseId": "70030076145736855", "Name": null, "Descr": null, "Dates": null, "Authors": null, "Synonym": null, "SightId": "70030076953910100", "X": "71.4085756533152", "Y": "51.1934748311471" }, "geometry": { "type": "Point", "coordinates": [ 71.408575653315182, 51.193474831147128 ] } },
{ "type": "Feature", "properties": { "Purpose": "Спортивные снаряды", "StartDate": null, "EndDate": null, "HouseId": null, "Name": null, "Descr": null, "Dates": null, "Authors": null, "Synonym": null, "SightId": "70030077141121123", "X": "71.4054690095681", "Y": "51.1960669984158" }, "geometry": { "type": "Point", "coordinates": [ 71.405469009568122, 51.19606699841578 ] } },
{ "type": "Feature", "properties": { "Purpose": "Место для курения", "StartDate": null, "EndDate": null, "HouseId": null, "Name": null, "Descr": null, "Dates": null, "Authors": null, "Synonym": null, "SightId": "70030076750659473", "X": "71.4060466262958", "Y": "51.196340809593" }, "geometry": { "type": "Point", "coordinates": [ 71.406046626295804, 51.196340809593011 ] } },
{ "type": "Feature", "properties": { "Purpose": "Памятная доска", "StartDate": null, "EndDate": null, "HouseId": "9570784863345745", "Name": "Иманжүсіп Құтпанов", "Descr": null, "Dates": null, "Authors": null, "Synonym": null, "SightId": "70030077129717202", "X": "71.4086599152889", "Y": "51.1935278626558" }, "geometry": { "type": "Point", "coordinates": [ 71.408659915288851, 51.19352786265582 ] } },
{ "type": "Feature", "properties": { "Purpose": "Памятная доска", "StartDate": null, "EndDate": null, "HouseId": "9570784863332291", "Name": "Памятная доска посвященная стрелковым дивизиям", "Descr": null, "Dates": null, "Authors": null, "Synonym": null, "SightId": "70030077166457028", "X": "71.4082301612569", "Y": "51.1957238314519" }, "geometry": { "type": "Point", "coordinates": [ 71.408230161256924, 51.195723831451886 ] } },
{ "type": "Feature", "properties": { "Purpose": "Кнопка экстренного вызова", "StartDate": null, "EndDate": null, "HouseId": null, "Name": null, "Descr": null, "Dates": null, "Authors": null, "Synonym": null, "SightId": "70030076753144405", "X": "71.4090337042786", "Y": "51.1944146958154" }, "geometry": { "type": "Point", "coordinates": [ 71.409033704278585, 51.194414695815425 ] } }
]
}
