{
"type": "FeatureCollection",
"name": "TransportStops (все)",
"crs": { "type": "name", "properties": { "name": "urn:ogc:def:crs:OGC:1.3:CRS84" } },
"xy_coordinate_resolution": 1e-15,
"features": [
{ "type": "Feature", "properties": { "TrType": "Автобусная остановка", "Name": "Дом Министерств", "CityId": "9570771978420226", "TypeCode": 0, "CreateDate": "2014-12-22", "UpdateDate": "2025-09-23", "TrStopId": "9570832107962402", "X": 71.43883639000001, "Y": 51.12837136 }, "geometry": { "type": "Point", "coordinates": [ 71.43883639180757, 51.128371357372799 ] } },
{ "type": "Feature", "properties": { "TrType": "Автобусная остановка", "Name": "Дом Министерств", "CityId": "9570771978420226", "TypeCode": 0, "CreateDate": "2014-12-22", "UpdateDate": "2025-09-11", "TrStopId": "9570832107962490", "X": 71.43991778, "Y": 51.13041151 }, "geometry": { "type": "Point", "coordinates": [ 71.439917783746594, 51.130411512652501 ] } },
{ "type": "Feature", "properties": { "TrType": "Автобусная остановка", "Name": "Қазақконцерт им. Розы Баглановой", "CityId": "9570771978420226", "TypeCode": 0, "CreateDate": "2014-12-22", "UpdateDate": "2025-09-11", "TrStopId": "9570832107962487", "X": 71.43815026, "Y": 51.125867 }, "geometry": { "type": "Point", "coordinates": [ 71.438150258593566, 51.125866999793075 ] } },
{ "type": "Feature", "properties": { "TrType": "Автобусная остановка", "Name": "проспект Тауелсиздик", "CityId": "9570771978420226", "TypeCode": 0, "CreateDate": "2014-12-23", "UpdateDate": "2026-06-03", "TrStopId": "9570832107962718", "X": 71.46704286000001, "Y": 51.13599951 }, "geometry": { "type": "Point", "coordinates": [ 71.467042862908229, 51.135999505965636 ] } },
{ "type": "Feature", "properties": { "TrType": "Автобусная остановка", "Name": "проспект Тауелсиздик", "CityId": "9570771978420226", "TypeCode": 0, "CreateDate": "2014-12-23", "UpdateDate": "2025-09-11", "TrStopId": "9570832107962890", "X": 71.46558957000001, "Y": 51.13655376 }, "geometry": { "type": "Point", "coordinates": [ 71.465589568441573, 51.136553758804176 ] } },
{ "type": "Feature", "properties": { "TrType": "Автобусная остановка", "Name": "ЖК Гранд Астана", "CityId": "9570771978420226", "TypeCode": 0, "CreateDate": "2016-03-29", "UpdateDate": "2025-09-11", "TrStopId": "9570832140368325", "X": 71.46664554, "Y": 51.11895105 }, "geometry": { "type": "Point", "coordinates": [ 71.46664553805806, 51.118951051907217 ] } },
{ "type": "Feature", "properties": { "TrType": "Автобусная остановка", "Name": "Шамши  Калдаякова", "CityId": "9570771978420226", "TypeCode": 0, "CreateDate": "2014-12-23", "UpdateDate": "2025-09-11", "TrStopId": "9570832107962649", "X": 71.46475674, "Y": 51.1177144 }, "geometry": { "type": "Point", "coordinates": [ 71.46475674034167, 51.117714395510497 ] } },
{ "type": "Feature", "properties": { "TrType": "Автобусная остановка", "Name": "Шамши  Калдаякова", "CityId": "9570771978420226", "TypeCode": 0, "CreateDate": "2014-12-24", "UpdateDate": "2025-12-12", "TrStopId": "9570832107963257", "X": 71.46060949, "Y": 51.11812818 }, "geometry": { "type": "Point", "coordinates": [ 71.460609488169467, 51.118128178076333 ] } },
{ "type": "Feature", "properties": { "TrType": "Автобусная остановка", "Name": "Мост Арыс", "CityId": "9570771978420226", "TypeCode": 0, "CreateDate": "2014-12-23", "UpdateDate": "2025-10-28", "TrStopId": "9570832107962663", "X": 71.45285981000001, "Y": 51.11960238 }, "geometry": { "type": "Point", "coordinates": [ 71.452859812044892, 51.11960238226942 ] } },
{ "type": "Feature", "properties": { "TrType": "Автобусная остановка", "Name": "Акыртас", "CityId": "9570771978420226", "TypeCode": 0, "CreateDate": "2014-12-23", "UpdateDate": "2025-10-24", "TrStopId": "9570832107962719", "X": 71.47080555, "Y": 51.13079282 }, "geometry": { "type": "Point", "coordinates": [ 71.47080554630729, 51.130792823231516 ] } },
{ "type": "Feature", "properties": { "TrType": "Автобусная остановка", "Name": "Акыртас", "CityId": "9570771978420226", "TypeCode": 0, "CreateDate": "2014-12-23", "UpdateDate": "2025-09-11", "TrStopId": "9570832107962737", "X": 71.47040858, "Y": 51.1321103 }, "geometry": { "type": "Point", "coordinates": [ 71.470408580783229, 51.132110304844844 ] } },
{ "type": "Feature", "properties": { "TrType": "Автобусная остановка", "Name": "Нажимеденова", "CityId": "9570771978420226", "TypeCode": 0, "CreateDate": "2014-12-24", "UpdateDate": "2025-10-01", "TrStopId": "9570832107963254", "X": 71.46330488, "Y": 51.12040093 }, "geometry": { "type": "Point", "coordinates": [ 71.463304883179475, 51.120400927490607 ] } },
{ "type": "Feature", "properties": { "TrType": "Автобусная остановка", "Name": "Нажимеденова", "CityId": "9570771978420226", "TypeCode": 0, "CreateDate": "2015-08-18", "UpdateDate": "2025-09-11", "TrStopId": "9570832107963527", "X": 71.46512909, "Y": 51.12013744 }, "geometry": { "type": "Point", "coordinates": [ 71.465129092026942, 51.120137435031211 ] } },
{ "type": "Feature", "properties": { "TrType": "Автобусная остановка", "Name": "Дворец мира и согласия", "CityId": "9570771978420226", "TypeCode": 0, "CreateDate": "2014-12-24", "UpdateDate": "2025-09-11", "TrStopId": "9570832107963272", "X": 71.46566646, "Y": 51.12570671 }, "geometry": { "type": "Point", "coordinates": [ 71.465666464229898, 51.125706713127293 ] } },
{ "type": "Feature", "properties": { "TrType": "Автобусная остановка", "Name": "Дворец мира и согласия", "CityId": "9570771978420226", "TypeCode": 0, "CreateDate": "2014-12-24", "UpdateDate": "2025-09-11", "TrStopId": "9570832107963275", "X": 71.46743803, "Y": 51.12506737 }, "geometry": { "type": "Point", "coordinates": [ 71.467438031801706, 51.125067365071111 ] } },
{ "type": "Feature", "properties": { "TrType": "Автобусная остановка", "Name": "ЖК Хайвилл", "CityId": "9570771978420226", "TypeCode": 0, "CreateDate": "2014-12-24", "UpdateDate": "2025-09-11", "TrStopId": "9570832107963273", "X": 71.45975564, "Y": 51.12725481 }, "geometry": { "type": "Point", "coordinates": [ 71.459755639491917, 51.127254812119155 ] } },
{ "type": "Feature", "properties": { "TrType": "Автобусная остановка", "Name": "ЖК Хайвилл", "CityId": "9570771978420226", "TypeCode": 0, "CreateDate": "2014-12-24", "UpdateDate": "2025-09-11", "TrStopId": "9570832107963274", "X": 71.46162665, "Y": 51.12658955 }, "geometry": { "type": "Point", "coordinates": [ 71.461626650565705, 51.126589551420565 ] } },
{ "type": "Feature", "properties": { "TrType": "Автобусная остановка", "Name": "Мечеть Хазрет Султан", "CityId": "9570771978420226", "TypeCode": 0, "CreateDate": "2014-12-23", "UpdateDate": "2025-09-26", "TrStopId": "9570832107962722", "X": 71.46946382, "Y": 51.12634656 }, "geometry": { "type": "Point", "coordinates": [ 71.469463822598925, 51.126346559742373 ] } },
{ "type": "Feature", "properties": { "TrType": "Автобусная остановка", "Name": "Президентский парк", "CityId": "9570771978420226", "TypeCode": 0, "CreateDate": "2014-12-24", "UpdateDate": "2025-10-24", "TrStopId": "9570832107963255", "X": 71.4574988, "Y": 51.12074133 }, "geometry": { "type": "Point", "coordinates": [ 71.457498802003627, 51.120741328428061 ] } },
{ "type": "Feature", "properties": { "TrType": "Автобусная остановка", "Name": "Президентский парк", "CityId": "9570771978420226", "TypeCode": 0, "CreateDate": "2014-12-23", "UpdateDate": "2025-09-11", "TrStopId": "9570832107962825", "X": 71.45851677, "Y": 51.12052954 }, "geometry": { "type": "Point", "coordinates": [ 71.458516772883584, 51.120529543743388 ] } },
{ "type": "Feature", "properties": { "TrType": "Автобусная остановка", "Name": "БЦ Downtown", "CityId": "9570771978420226", "TypeCode": 0, "CreateDate": "2017-07-18", "UpdateDate": "2025-09-11", "TrStopId": "70030076142056811", "X": 71.46518587, "Y": 51.12851495 }, "geometry": { "type": "Point", "coordinates": [ 71.465185865552897, 51.128514947474585 ] } },
{ "type": "Feature", "properties": { "TrType": "Автобусная остановка", "Name": "БЦ Downtown", "CityId": "9570771978420226", "TypeCode": 0, "CreateDate": "2018-04-19", "UpdateDate": "2025-12-04", "TrStopId": "70030076160735413", "X": 71.46479222000001, "Y": 51.12836144 }, "geometry": { "type": "Point", "coordinates": [ 71.464792223795385, 51.128361435150623 ] } },
{ "type": "Feature", "properties": { "TrType": "Автобусная остановка", "Name": "ЖК Городской романс", "CityId": "9570771978420226", "TypeCode": 0, "CreateDate": "2025-09-26", "UpdateDate": "2025-12-12", "TrStopId": "70030077101746999", "X": 71.45511413, "Y": 51.11898099 }, "geometry": { "type": "Point", "coordinates": [ 71.455114134250394, 51.118980993795205 ] } },
{ "type": "Feature", "properties": { "TrType": "Автобусная остановка", "Name": "ЖК Городской романс", "CityId": "9570771978420226", "TypeCode": 0, "CreateDate": "2025-11-03", "UpdateDate": "2025-11-03", "TrStopId": "70030077112250552", "X": 71.45897455, "Y": 51.11862096 }, "geometry": { "type": "Point", "coordinates": [ 71.458974554352366, 51.118620956812542 ] } },
{ "type": "Feature", "properties": { "TrType": "Автобусная остановка", "Name": "Карасай батыра", "CityId": "9570771978420226", "TypeCode": 0, "CreateDate": "2014-12-23", "UpdateDate": "2026-05-29", "TrStopId": "9570832107962877", "X": 71.40418657, "Y": 51.19487727 }, "geometry": { "type": "Point", "coordinates": [ 71.404186574668515, 51.194877274458655 ] } },
{ "type": "Feature", "properties": { "TrType": "Автобусная остановка", "Name": "Карасай батыра", "CityId": "9570771978420226", "TypeCode": 0, "CreateDate": "2014-12-25", "UpdateDate": "2026-05-29", "TrStopId": "9570832107963380", "X": 71.40568847, "Y": 51.19420347 }, "geometry": { "type": "Point", "coordinates": [ 71.405688467992022, 51.194203474230932 ] } },
{ "type": "Feature", "properties": { "TrType": "Автобусная остановка", "Name": "Ж/д вокзал Астана 1", "CityId": "9570771978420226", "TypeCode": 0, "CreateDate": "2024-03-04", "UpdateDate": "2025-09-11", "TrStopId": "70030076834124027", "X": 71.40812865, "Y": 51.19500202 }, "geometry": { "type": "Point", "coordinates": [ 71.408128651629823, 51.195002024092361 ] } },
{ "type": "Feature", "properties": { "TrType": "Автобусная остановка", "Name": "Ж/д вокзал Астана 1", "CityId": "9570771978420226", "TypeCode": 0, "CreateDate": "2024-07-22", "UpdateDate": "2025-09-11", "TrStopId": "70030076922494809", "X": 71.40941351, "Y": 51.19459754 }, "geometry": { "type": "Point", "coordinates": [ 71.409413511980688, 51.194597543569351 ] } },
{ "type": "Feature", "properties": { "TrType": "Автобусная остановка", "Name": "Ж/д вокзал Астана 1", "CityId": "9570771978420226", "TypeCode": 0, "CreateDate": "2024-07-22", "UpdateDate": "2025-09-11", "TrStopId": "70030076922495016", "X": 71.40873142, "Y": 51.19481 }, "geometry": { "type": "Point", "coordinates": [ 71.408731421185465, 51.194810001840018 ] } }
]
}
