{
"type": "FeatureCollection",
"name": "TransportEdge (все)",
"crs": { "type": "name", "properties": { "name": "urn:ogc:def:crs:OGC:1.3:CRS84" } },
"xy_coordinate_resolution": 1e-15,
"features": [
{ "type": "Feature", "properties": { "Type": "Автобус", "Id": "70030077164582748" }, "geometry": { "type": "MultiLineString", "coordinates": [ [ [ 71.438719725460743, 51.121533898156095 ], [ 71.438929547102518, 51.121553837340045 ] ] ] } },
{ "type": "Feature", "properties": { "Type": "Автобус", "Id": "70030077119122426" }, "geometry": { "type": "MultiLineString", "coordinates": [ [ [ 71.458076059405201, 51.129623175180264 ], [ 71.458013177335303, 51.129414644589438 ] ] ] } },
{ "type": "Feature", "properties": { "Type": "Автобус", "Id": "70030077055389471" }, "geometry": { "type": "MultiLineString", "coordinates": [ [ [ 71.460838199240811, 51.134557673380939 ], [ 71.460697163741202, 51.134705753730614 ] ] ] } },
{ "type": "Feature", "properties": { "Type": "Автобус", "Id": "70030077030257200" }, "geometry": { "type": "MultiLineString", "coordinates": [ [ [ 71.440375295720798, 51.130923834596118 ], [ 71.440464139102389, 51.130985619516899 ], [ 71.440570769126609, 51.13105151958306 ], [ 71.440739382905463, 51.131134049558987 ], [ 71.441604730018639, 51.131473131211365 ], [ 71.441934591390975, 51.131592471576319 ], [ 71.442050294399564, 51.131630015529105 ], [ 71.442213518286678, 51.131667841312535 ], [ 71.442397403425346, 51.131705554320597 ], [ 71.442563591752901, 51.131723198811557 ], [ 71.442714957878295, 51.131732669334276 ] ] ] } },
{ "type": "Feature", "properties": { "Type": "Автобус", "Id": "70030077031255247" }, "geometry": { "type": "MultiLineString", "coordinates": [ [ [ 71.436341299745607, 51.121930821695784 ], [ 71.437119172310446, 51.121812641827432 ] ] ] } },
{ "type": "Feature", "properties": { "Type": "Автобус", "Id": "70030077030128587" }, "geometry": { "type": "MultiLineString", "coordinates": [ [ [ 71.43729048103512, 51.123799975160118 ], [ 71.437410136630973, 51.124162621707654 ], [ 71.437514700530031, 51.124399535716243 ] ] ] } },
{ "type": "Feature", "properties": { "Type": "Автобус", "Id": "70030076993750856" }, "geometry": { "type": "MultiLineString", "coordinates": [ [ [ 71.43984214559967, 51.130962788419851 ], [ 71.439694648578609, 51.130656613201381 ] ] ] } },
{ "type": "Feature", "properties": { "Type": "Автобус", "Id": "70030076993751764" }, "geometry": { "type": "MultiLineString", "coordinates": [ [ [ 71.441767594579659, 51.132242778131662 ], [ 71.441764001318518, 51.132163350576803 ], [ 71.441739028153606, 51.132084824832909 ], [ 71.441677224062062, 51.131950265333174 ], [ 71.441620181041529, 51.131891187557152 ], [ 71.441532235975203, 51.131820158833243 ], [ 71.441376557936465, 51.131746875114715 ], [ 71.440419672495821, 51.131375099381863 ], [ 71.440271360642427, 51.131311680174832 ], [ 71.440181529114014, 51.131262748673826 ], [ 71.440116131761329, 51.131218608807579 ], [ 71.440021090004265, 51.131140137830052 ], [ 71.43984214559967, 51.130962788419851 ] ] ] } },
{ "type": "Feature", "properties": { "Type": "Автобус", "Id": "70030076993751792" }, "geometry": { "type": "MultiLineString", "coordinates": [ [ [ 71.439825920169341, 51.130998196671605 ], [ 71.43984214559967, 51.130962788419851 ] ] ] } },
{ "type": "Feature", "properties": { "Type": "Автобус", "Id": "70030076988223885" }, "geometry": { "type": "MultiLineString", "coordinates": [ [ [ 71.436657258591353, 51.122159460120912 ], [ 71.43729048103512, 51.123799975160118 ] ] ] } },
{ "type": "Feature", "properties": { "Type": "Автобус", "Id": "70030076988224524" }, "geometry": { "type": "MultiLineString", "coordinates": [ [ [ 71.43655061293957, 51.121885447597116 ], [ 71.436550628567133, 51.121885490236451 ] ] ] } },
{ "type": "Feature", "properties": { "Type": "Автобус", "Id": "70030076988225529" }, "geometry": { "type": "MultiLineString", "coordinates": [ [ [ 71.437976165091499, 51.121929695406976 ], [ 71.436433289085997, 51.122170188324475 ] ] ] } },
{ "type": "Feature", "properties": { "Type": "Автобус", "Id": "70030076987619375" }, "geometry": { "type": "MultiLineString", "coordinates": [ [ [ 71.449844077804585, 51.12008347330427 ], [ 71.446977463901433, 51.120547361661608 ], [ 71.443155671356678, 51.121129597828336 ], [ 71.440727345480653, 51.121501907114656 ] ] ] } },
{ "type": "Feature", "properties": { "Type": "Автобус", "Id": "70030076987619476" }, "geometry": { "type": "MultiLineString", "coordinates": [ [ [ 71.449735561318263, 51.119822347275367 ], [ 71.451209517036446, 51.119579094449207 ] ] ] } },
{ "type": "Feature", "properties": { "Type": "Автобус", "Id": "70030076987619603" }, "geometry": { "type": "MultiLineString", "coordinates": [ [ [ 71.451318482680406, 51.119844845559683 ], [ 71.449844077804585, 51.12008347330427 ] ] ] } },
{ "type": "Feature", "properties": { "Type": "Автобус", "Id": "70030076987023457" }, "geometry": { "type": "MultiLineString", "coordinates": [ [ [ 71.437119172310446, 51.121812641827432 ], [ 71.437211608953177, 51.121823298451716 ], [ 71.437942208773762, 51.121711319197566 ] ] ] } },
{ "type": "Feature", "properties": { "Type": "Автобус", "Id": "70030076941316595" }, "geometry": { "type": "MultiLineString", "coordinates": [ [ [ 71.441694354501649, 51.132396859615795 ], [ 71.441730673821482, 51.132329082864274 ], [ 71.441767594579659, 51.132242778131662 ] ] ] } },
{ "type": "Feature", "properties": { "Type": "Автобус", "Id": "70030076942284668" }, "geometry": { "type": "MultiLineString", "coordinates": [ [ [ 71.436550628567133, 51.121885490236451 ], [ 71.436657258591353, 51.122159460120912 ] ] ] } },
{ "type": "Feature", "properties": { "Type": "Автобус", "Id": "70030076942294802" }, "geometry": { "type": "MultiLineString", "coordinates": [ [ [ 71.437119172310446, 51.121812641827432 ], [ 71.437167534594607, 51.121785462713497 ] ] ] } },
{ "type": "Feature", "properties": { "Type": "Автобус", "Id": "70030076915767100" }, "geometry": { "type": "MultiLineString", "coordinates": [ [ [ 71.440727345480653, 51.121501907114656 ], [ 71.439863794998018, 51.121634298062574 ] ] ] } },
{ "type": "Feature", "properties": { "Type": "Автобус", "Id": "70030076915767101" }, "geometry": { "type": "MultiLineString", "coordinates": [ [ [ 71.439767675262615, 51.121389757927119 ], [ 71.440628530799401, 51.121251220319557 ] ] ] } },
{ "type": "Feature", "properties": { "Type": "Автобус", "Id": "70030076915767102" }, "geometry": { "type": "MultiLineString", "coordinates": [ [ [ 71.440628530799401, 51.121251220319557 ], [ 71.443762752825677, 51.12076782963814 ], [ 71.443897140792188, 51.120753169396139 ], [ 71.446875954274333, 51.120294188697663 ], [ 71.449735561318263, 51.119822347275367 ] ] ] } },
{ "type": "Feature", "properties": { "Type": "Автобус", "Id": "70030076915767104" }, "geometry": { "type": "MultiLineString", "coordinates": [ [ [ 71.451209517036446, 51.119579094449207 ], [ 71.451660471309083, 51.119504663564982 ], [ 71.452513601334417, 51.119372040965018 ] ] ] } },
{ "type": "Feature", "properties": { "Type": "Автобус", "Id": "70030076915764727" }, "geometry": { "type": "MultiLineString", "coordinates": [ [ [ 71.440296287197242, 51.132222144677321 ], [ 71.442913844882199, 51.131814465256205 ], [ 71.443449689949176, 51.131699804357233 ] ] ] } },
{ "type": "Feature", "properties": { "Type": "Автобус", "Id": "70030076915764721" }, "geometry": { "type": "MultiLineString", "coordinates": [ [ [ 71.455714388523248, 51.130001053438207 ], [ 71.453852091107734, 51.130312407465517 ] ] ] } },
{ "type": "Feature", "properties": { "Type": "Автобус", "Id": "70030076915764722" }, "geometry": { "type": "MultiLineString", "coordinates": [ [ [ 71.453852091107734, 51.130312407465517 ], [ 71.452784353561043, 51.130483389148203 ], [ 71.448431297357246, 51.131181571875757 ], [ 71.444468918470534, 51.131793494847585 ], [ 71.443384472259552, 51.131937525284819 ] ] ] } },
{ "type": "Feature", "properties": { "Type": "Автобус", "Id": "70030076915764723" }, "geometry": { "type": "MultiLineString", "coordinates": [ [ [ 71.442714957878295, 51.131732669334276 ], [ 71.442913575387593, 51.131738532037829 ], [ 71.443170224064275, 51.131731936496273 ], [ 71.443449689949176, 51.131699804357233 ] ] ] } },
{ "type": "Feature", "properties": { "Type": "Автобус", "Id": "70030076915764724" }, "geometry": { "type": "MultiLineString", "coordinates": [ [ [ 71.453756600193032, 51.130075974778322 ], [ 71.454891262228415, 51.129894731448161 ], [ 71.455628779076676, 51.129786605228475 ] ] ] } },
{ "type": "Feature", "properties": { "Type": "Автобус", "Id": "70030076915764725" }, "geometry": { "type": "MultiLineString", "coordinates": [ [ [ 71.455628779076676, 51.129786605228475 ], [ 71.455942111447769, 51.129740716339235 ], [ 71.458013177335303, 51.129414644589438 ] ] ] } },
{ "type": "Feature", "properties": { "Type": "Автобус", "Id": "70030076915764701" }, "geometry": { "type": "MultiLineString", "coordinates": [ [ [ 71.437942208773762, 51.121711319197566 ], [ 71.438742068702737, 51.121583382849394 ] ] ] } },
{ "type": "Feature", "properties": { "Type": "Автобус", "Id": "70030076827250917" }, "geometry": { "type": "MultiLineString", "coordinates": [ [ [ 71.469635041492083, 51.126287756691696 ], [ 71.469199448410819, 51.125314479218218 ] ] ] } },
{ "type": "Feature", "properties": { "Type": "Автобус", "Id": "70030076827247698" }, "geometry": { "type": "MultiLineString", "coordinates": [ [ [ 71.469963645223018, 51.127020224249563 ], [ 71.469635041492083, 51.126287756691696 ] ] ] } },
{ "type": "Feature", "properties": { "Type": "Автобус", "Id": "70030076827247769" }, "geometry": { "type": "MultiLineString", "coordinates": [ [ [ 71.469963645223018, 51.127020224249563 ], [ 71.469820363935185, 51.126958490401634 ], [ 71.469714811889318, 51.12687956116082 ], [ 71.46966342825506, 51.126811343636874 ], [ 71.469600725848238, 51.126671356451965 ], [ 71.469463822598925, 51.126346559742373 ] ] ] } },
{ "type": "Feature", "properties": { "Type": "Автобус", "Id": "70030076827248878" }, "geometry": { "type": "MultiLineString", "coordinates": [ [ [ 71.469199448410819, 51.125314479218218 ], [ 71.468986457856943, 51.124838798812647 ] ] ] } },
{ "type": "Feature", "properties": { "Type": "Автобус", "Id": "70030076794501535" }, "geometry": { "type": "MultiLineString", "coordinates": [ [ [ 71.443384472259552, 51.131937525284819 ], [ 71.443190975147346, 51.131963230865523 ], [ 71.442761760104588, 51.132021068369774 ], [ 71.441583709440991, 51.132205685649659 ] ] ] } },
{ "type": "Feature", "properties": { "Type": "Автобус", "Id": "70030076738603077" }, "geometry": { "type": "MultiLineString", "coordinates": [ [ [ 71.467446206470782, 51.120984236823055 ], [ 71.467171681319968, 51.120150629425083 ] ] ] } },
{ "type": "Feature", "properties": { "Type": "Автобус", "Id": "70030076724887547" }, "geometry": { "type": "MultiLineString", "coordinates": [ [ [ 71.437514700530031, 51.124399535716243 ], [ 71.437633098484497, 51.124653249989635 ] ] ] } },
{ "type": "Feature", "properties": { "Type": "Автобус", "Id": "70030076455085089" }, "geometry": { "type": "MultiLineString", "coordinates": [ [ [ 71.465185865552897, 51.128514947474585 ], [ 71.464567465311305, 51.128611745104394 ], [ 71.464425711159478, 51.128633675348759 ] ] ] } },
{ "type": "Feature", "properties": { "Type": "Автобус", "Id": "70030076354800686" }, "geometry": { "type": "MultiLineString", "coordinates": [ [ [ 71.438929547102518, 51.121553837340045 ], [ 71.439001142830691, 51.121545266883423 ], [ 71.439647840003715, 51.121441462739718 ], [ 71.439767675262615, 51.121389757927119 ] ] ] } },
{ "type": "Feature", "properties": { "Type": "Автобус", "Id": "70030076299266242" }, "geometry": { "type": "MultiLineString", "coordinates": [ [ [ 71.47080554630729, 51.130792823231516 ], [ 71.470859355392818, 51.13066474291508 ], [ 71.470931849436226, 51.130397362835069 ], [ 71.470974249917646, 51.130129417465859 ], [ 71.470985209364102, 51.129831197459232 ], [ 71.470968141373717, 51.129582923606705 ], [ 71.47093229859388, 51.129432684580436 ], [ 71.470912535657618, 51.129349869688703 ], [ 71.470844623022145, 51.12914212711825 ], [ 71.470625254429763, 51.128599229638915 ] ] ] } },
{ "type": "Feature", "properties": { "Type": "Автобус", "Id": "70030076214037841" }, "geometry": { "type": "MultiLineString", "coordinates": [ [ [ 71.441583709440991, 51.132205685649659 ], [ 71.440503754806429, 51.132374912810235 ] ] ] } },
{ "type": "Feature", "properties": { "Type": "Автобус", "Id": "70030076171524083" }, "geometry": { "type": "MultiLineString", "coordinates": [ [ [ 71.457498802003627, 51.120741328428061 ], [ 71.457373397189954, 51.12074832023815 ] ] ] } },
{ "type": "Feature", "properties": { "Type": "Автобус", "Id": "70030076160735395" }, "geometry": { "type": "MultiLineString", "coordinates": [ [ [ 71.464792223795385, 51.128361435150623 ], [ 71.467338049310598, 51.12796516465945 ], [ 71.470189391853907, 51.127523450693779 ] ] ] } },
{ "type": "Feature", "properties": { "Type": "Автобус", "Id": "70030076159542157" }, "geometry": { "type": "MultiLineString", "coordinates": [ [ [ 71.454028340566481, 51.119418278479323 ], [ 71.454021333707274, 51.119150043864678 ] ] ] } },
{ "type": "Feature", "properties": { "Type": "Автобус", "Id": "70030076159543101" }, "geometry": { "type": "MultiLineString", "coordinates": [ [ [ 71.454021333707274, 51.119150043864678 ], [ 71.453988413462241, 51.119059292214864 ] ] ] } },
{ "type": "Feature", "properties": { "Type": "Автобус", "Id": "70030076159543161" }, "geometry": { "type": "MultiLineString", "coordinates": [ [ [ 71.454021333707274, 51.119150043864678 ], [ 71.45417386764251, 51.11912630471614 ] ] ] } },
{ "type": "Feature", "properties": { "Type": "Автобус", "Id": "70030076151179682" }, "geometry": { "type": "MultiLineString", "coordinates": [ [ [ 71.466078521450726, 51.117509250912896 ], [ 71.466003242629924, 51.11729846642762 ] ] ] } },
{ "type": "Feature", "properties": { "Type": "Автобус", "Id": "70030076151620089" }, "geometry": { "type": "MultiLineString", "coordinates": [ [ [ 71.454140716337079, 51.119034608391416 ], [ 71.45417386764251, 51.11912630471614 ] ] ] } },
{ "type": "Feature", "properties": { "Type": "Автобус", "Id": "70030076151620096" }, "geometry": { "type": "MultiLineString", "coordinates": [ [ [ 71.456330507443127, 51.118679707559039 ], [ 71.456872945745189, 51.118707738105385 ] ] ] } },
{ "type": "Feature", "properties": { "Type": "Автобус", "Id": "70030076142056797" }, "geometry": { "type": "MultiLineString", "coordinates": [ [ [ 71.464425711159478, 51.128633675348759 ], [ 71.461906296113625, 51.129023118673857 ], [ 71.4583615440025, 51.129578357249507 ] ] ] } },
{ "type": "Feature", "properties": { "Type": "Автобус", "Id": "70030076139027840" }, "geometry": { "type": "MultiLineString", "coordinates": [ [ [ 71.45417386764251, 51.11912630471614 ], [ 71.454185545741211, 51.119158501990661 ], [ 71.454248158316517, 51.119360819902731 ] ] ] } },
{ "type": "Feature", "properties": { "Type": "Автобус", "Id": "70030076138971142" }, "geometry": { "type": "MultiLineString", "coordinates": [ [ [ 71.467448940864159, 51.12011174089259 ], [ 71.467371825965273, 51.120103546848512 ], [ 71.46727858083878, 51.12008465741809 ], [ 71.467193061223739, 51.120064922184007 ], [ 71.46709101260744, 51.120015189356742 ] ] ] } },
{ "type": "Feature", "properties": { "Type": "Автобус", "Id": "70030076138727798" }, "geometry": { "type": "MultiLineString", "coordinates": [ [ [ 71.458272161631726, 51.129375012959486 ], [ 71.460650541177955, 51.1290077281705 ], [ 71.46416906248281, 51.128465562001132 ], [ 71.464792223795385, 51.128361435150623 ] ] ] } },
{ "type": "Feature", "properties": { "Type": "Автобус", "Id": "70030076138727810" }, "geometry": { "type": "MultiLineString", "coordinates": [ [ [ 71.470189391853907, 51.127523450693779 ], [ 71.47057654540491, 51.127462811411654 ] ] ] } },
{ "type": "Feature", "properties": { "Type": "Автобус", "Id": "70030076138727842" }, "geometry": { "type": "MultiLineString", "coordinates": [ [ [ 71.470661576362446, 51.127662666782435 ], [ 71.47027167753393, 51.127723589644532 ] ] ] } },
{ "type": "Feature", "properties": { "Type": "Автобус", "Id": "70030076138727959" }, "geometry": { "type": "MultiLineString", "coordinates": [ [ [ 71.47027167753393, 51.127723589644532 ], [ 71.468273465015955, 51.128031801932472 ], [ 71.465185865552897, 51.128514947474585 ] ] ] } },
{ "type": "Feature", "properties": { "Type": "Автобус", "Id": "70030076134347408" }, "geometry": { "type": "MultiLineString", "coordinates": [ [ [ 71.466003242629924, 51.11729846642762 ], [ 71.465934195967705, 51.117123231673339 ] ] ] } },
{ "type": "Feature", "properties": { "Type": "Автобус", "Id": "70030076134347492" }, "geometry": { "type": "MultiLineString", "coordinates": [ [ [ 71.466003242629924, 51.11729846642762 ], [ 71.46623703602026, 51.117263299584287 ] ] ] } },
{ "type": "Feature", "properties": { "Type": "Автобус", "Id": "70030076133365003" }, "geometry": { "type": "MultiLineString", "coordinates": [ [ [ 71.456872945745189, 51.118707738105385 ], [ 71.458597711090704, 51.118439499365408 ], [ 71.460609488169467, 51.118128178076333 ] ] ] } },
{ "type": "Feature", "properties": { "Type": "Автобус", "Id": "70030076133277012" }, "geometry": { "type": "MultiLineString", "coordinates": [ [ [ 71.467458641429602, 51.120134540942843 ], [ 71.467433091067647, 51.120137604190134 ], [ 71.467171681319968, 51.120150629425083 ] ] ] } },
{ "type": "Feature", "properties": { "Type": "Автобус", "Id": "70030076133273964" }, "geometry": { "type": "MultiLineString", "coordinates": [ [ [ 71.469416800014258, 51.124736964828521 ], [ 71.46940992368188, 51.124738046627179 ] ] ] } },
{ "type": "Feature", "properties": { "Type": "Автобус", "Id": "9570900871377634" }, "geometry": { "type": "MultiLineString", "coordinates": [ [ [ 71.440503754806429, 51.132374912810235 ], [ 71.440363603624448, 51.132397309605871 ] ] ] } },
{ "type": "Feature", "properties": { "Type": "Автобус", "Id": "9570900827443205" }, "geometry": { "type": "MultiLineString", "coordinates": [ [ [ 71.471288570435561, 51.129161802099176 ], [ 71.471334833672699, 51.129302796487991 ], [ 71.471349925369466, 51.129366387578898 ], [ 71.471395290291326, 51.129556934826994 ], [ 71.471396817427291, 51.129580048492961 ] ] ] } },
{ "type": "Feature", "properties": { "Type": "Автобус", "Id": "9570900827442799" }, "geometry": { "type": "MultiLineString", "coordinates": [ [ [ 71.466511689080718, 51.118615430772763 ], [ 71.466078521450726, 51.117509250912896 ] ] ] } },
{ "type": "Feature", "properties": { "Type": "Автобус", "Id": "9570900827442802" }, "geometry": { "type": "MultiLineString", "coordinates": [ [ [ 71.465129092026942, 51.120137435031211 ], [ 71.46709101260744, 51.120015189356742 ] ] ] } },
{ "type": "Feature", "properties": { "Type": "Автобус", "Id": "9570900827442643" }, "geometry": { "type": "MultiLineString", "coordinates": [ [ [ 71.460589989105074, 51.134682806434427 ], [ 71.46061910014302, 51.134644706578911 ] ] ] } },
{ "type": "Feature", "properties": { "Type": "Автобус", "Id": "9570900827442611" }, "geometry": { "type": "MultiLineString", "coordinates": [ [ [ 71.439863794998018, 51.121634298062574 ], [ 71.438849776705311, 51.121793132868675 ] ] ] } },
{ "type": "Feature", "properties": { "Type": "Автобус", "Id": "9570900827442577" }, "geometry": { "type": "MultiLineString", "coordinates": [ [ [ 71.470802042877679, 51.131574037822553 ], [ 71.470788747811469, 51.13159715047901 ] ] ] } },
{ "type": "Feature", "properties": { "Type": "Автобус", "Id": "9570900827442590" }, "geometry": { "type": "MultiLineString", "coordinates": [ [ [ 71.452513601334417, 51.119372040965018 ], [ 71.453852630096904, 51.11916797508993 ], [ 71.454021333707274, 51.119150043864678 ] ] ] } },
{ "type": "Feature", "properties": { "Type": "Автобус", "Id": "9570900827442575" }, "geometry": { "type": "MultiLineString", "coordinates": [ [ [ 71.47039735184218, 51.131485251290847 ], [ 71.470469756054086, 51.131438349384233 ], [ 71.470554018027727, 51.13142549644958 ], [ 71.47065705479082, 51.131432430270053 ], [ 71.470731435296344, 51.131454922899948 ], [ 71.47078955629523, 51.131503459590306 ], [ 71.470802042877679, 51.131574037822553 ] ] ] } },
{ "type": "Feature", "properties": { "Type": "Автобус", "Id": "9570900827442576" }, "geometry": { "type": "MultiLineString", "coordinates": [ [ [ 71.47039735184218, 51.131485251290847 ], [ 71.47055383836468, 51.13126692025542 ], [ 71.470664959965319, 51.131083201189639 ], [ 71.47075739660805, 51.130907599128761 ], [ 71.47080554630729, 51.130792823231516 ] ] ] } },
{ "type": "Feature", "properties": { "Type": "Автобус", "Id": "9570900827442567" }, "geometry": { "type": "MultiLineString", "coordinates": [ [ [ 71.438849776705311, 51.121793132868675 ], [ 71.438747728089027, 51.121839086038712 ], [ 71.438670832300701, 51.121880866734038 ], [ 71.438536534165721, 51.121946836176001 ], [ 71.43846430961689, 51.122000852110475 ], [ 71.438402236030768, 51.122056897804534 ], [ 71.438044077726985, 51.122423110198106 ], [ 71.43785767730553, 51.122619380803336 ], [ 71.437720863887748, 51.122777986690096 ], [ 71.437538775379664, 51.122959990925764 ], [ 71.437366478508167, 51.123150000778452 ], [ 71.437320574597152, 51.123217716267014 ], [ 71.437281587713827, 51.123329917399253 ], [ 71.437263801071197, 51.123396335830542 ], [ 71.437263082418966, 51.123473072116525 ], [ 71.43729730823128, 51.123625191136917 ], [ 71.437346446077328, 51.123757575999754 ], [ 71.437444901432457, 51.12400390781184 ], [ 71.437507603839293, 51.12417034595795 ], [ 71.437514700530031, 51.124399535716243 ] ] ] } },
{ "type": "Feature", "properties": { "Type": "Автобус", "Id": "9570900827442374" }, "geometry": { "type": "MultiLineString", "coordinates": [ [ [ 71.466852689562586, 51.136890207831193 ], [ 71.466498214351461, 51.136801826082639 ] ] ] } },
{ "type": "Feature", "properties": { "Type": "Автобус", "Id": "9570900827442320" }, "geometry": { "type": "MultiLineString", "coordinates": [ [ [ 71.468986457856943, 51.124838798812647 ], [ 71.468918635052987, 51.124684372177882 ] ] ] } },
{ "type": "Feature", "properties": { "Type": "Автобус", "Id": "9570900827442217" }, "geometry": { "type": "MultiLineString", "coordinates": [ [ [ 71.469347850095744, 51.124584296226139 ], [ 71.46940992368188, 51.124738046627179 ] ] ] } },
{ "type": "Feature", "properties": { "Type": "Автобус", "Id": "9570900827442034" }, "geometry": { "type": "MultiLineString", "coordinates": [ [ [ 71.436550615146786, 51.121885447239393 ], [ 71.436550628567133, 51.121885490236451 ] ] ] } },
{ "type": "Feature", "properties": { "Type": "Автобус", "Id": "9570900827441908" }, "geometry": { "type": "MultiLineString", "coordinates": [ [ [ 71.467438031801706, 51.125067365071111 ], [ 71.468648062489422, 51.124750337616248 ], [ 71.468918635052987, 51.124684372177882 ] ] ] } },
{ "type": "Feature", "properties": { "Type": "Автобус", "Id": "9570900827441909" }, "geometry": { "type": "MultiLineString", "coordinates": [ [ [ 71.4583615440025, 51.129578357249507 ], [ 71.458076059405201, 51.129623175180264 ] ] ] } },
{ "type": "Feature", "properties": { "Type": "Автобус", "Id": "9570900827441910" }, "geometry": { "type": "MultiLineString", "coordinates": [ [ [ 71.439210989281051, 51.129327319658437 ], [ 71.439480034708637, 51.129290224834669 ] ] ] } },
{ "type": "Feature", "properties": { "Type": "Автобус", "Id": "9570900827441901" }, "geometry": { "type": "MultiLineString", "coordinates": [ [ [ 71.459755639491917, 51.127254812119155 ], [ 71.459567711934483, 51.127304029754548 ], [ 71.459249348997801, 51.127407820724436 ], [ 71.458914097733754, 51.12756691756497 ], [ 71.458609119694799, 51.127764519362564 ], [ 71.4584147242673, 51.127976327255034 ], [ 71.458232186601592, 51.128216829795591 ], [ 71.458131395626694, 51.128445322961937 ], [ 71.458093396890177, 51.128683455273567 ], [ 71.458102919032186, 51.128916738056816 ], [ 71.458213232149077, 51.129232609411034 ], [ 71.458272161631726, 51.129375012959486 ] ] ] } },
{ "type": "Feature", "properties": { "Type": "Автобус", "Id": "9570900827441903" }, "geometry": { "type": "MultiLineString", "coordinates": [ [ [ 71.458013177335303, 51.129414644589438 ], [ 71.457953619031969, 51.129249240093522 ], [ 71.457851480584182, 51.128925419896966 ], [ 71.457831268490281, 51.128676408288605 ], [ 71.457877621558936, 51.128407945548702 ], [ 71.457989282148759, 51.128155999571376 ], [ 71.458181791114129, 51.127897963521946 ], [ 71.458417149718571, 51.127663942690198 ], [ 71.45874350766131, 51.127445311701855 ], [ 71.459111727096257, 51.12727042871704 ], [ 71.459354451886028, 51.127169061680611 ], [ 71.461626650565705, 51.126589551420565 ] ] ] } },
{ "type": "Feature", "properties": { "Type": "Автобус", "Id": "9570900827441907" }, "geometry": { "type": "MultiLineString", "coordinates": [ [ [ 71.461626650565705, 51.126589551420565 ], [ 71.467438031801706, 51.125067365071111 ] ] ] } },
{ "type": "Feature", "properties": { "Type": "Автобус", "Id": "9570900827441895" }, "geometry": { "type": "MultiLineString", "coordinates": [ [ [ 71.46940992368188, 51.124738046627179 ], [ 71.468986457856943, 51.124838798812647 ] ] ] } },
{ "type": "Feature", "properties": { "Type": "Автобус", "Id": "9570900827441896" }, "geometry": { "type": "MultiLineString", "coordinates": [ [ [ 71.468918635052987, 51.124684372177882 ], [ 71.469347850095744, 51.124584296226139 ] ] ] } },
{ "type": "Feature", "properties": { "Type": "Автобус", "Id": "9570900827441899" }, "geometry": { "type": "MultiLineString", "coordinates": [ [ [ 71.468986457856943, 51.124838798812647 ], [ 71.468740409300622, 51.124901437581585 ], [ 71.465666464229898, 51.125706713127293 ] ] ] } },
{ "type": "Feature", "properties": { "Type": "Автобус", "Id": "9570900827441900" }, "geometry": { "type": "MultiLineString", "coordinates": [ [ [ 71.465666464229898, 51.125706713127293 ], [ 71.459755639491917, 51.127254812119155 ] ] ] } },
{ "type": "Feature", "properties": { "Type": "Автобус", "Id": "9570900827441856" }, "geometry": { "type": "MultiLineString", "coordinates": [ [ [ 71.45417386764251, 51.11912630471614 ], [ 71.455114134250394, 51.118980993795205 ] ] ] } },
{ "type": "Feature", "properties": { "Type": "Автобус", "Id": "9570900827441857" }, "geometry": { "type": "MultiLineString", "coordinates": [ [ [ 71.455114134250394, 51.118980993795205 ], [ 71.456872945745189, 51.118707738105385 ] ] ] } },
{ "type": "Feature", "properties": { "Type": "Автобус", "Id": "9570900827441859" }, "geometry": { "type": "MultiLineString", "coordinates": [ [ [ 71.460609488169467, 51.118128178076333 ], [ 71.46377272577945, 51.117638890224406 ], [ 71.464655949366787, 51.117503837519209 ], [ 71.466003242629924, 51.11729846642762 ] ] ] } },
{ "type": "Feature", "properties": { "Type": "Автобус", "Id": "9570900827441848" }, "geometry": { "type": "MultiLineString", "coordinates": [ [ [ 71.466852689562586, 51.136890207831193 ], [ 71.466738873016084, 51.136865970506271 ], [ 71.466667456950972, 51.136826852564326 ], [ 71.466608617299883, 51.136766879171091 ], [ 71.466582027167476, 51.136700649064565 ], [ 71.466585171270964, 51.136649524993956 ] ] ] } },
{ "type": "Feature", "properties": { "Type": "Автобус", "Id": "9570900827441849" }, "geometry": { "type": "MultiLineString", "coordinates": [ [ [ 71.467171681319968, 51.120150629425083 ], [ 71.463304883179475, 51.120400927490607 ] ] ] } },
{ "type": "Feature", "properties": { "Type": "Автобус", "Id": "9570900827441850" }, "geometry": { "type": "MultiLineString", "coordinates": [ [ [ 71.463304883179475, 51.120400927490607 ], [ 71.458055937142845, 51.120710429125602 ], [ 71.457498802003627, 51.120741328428061 ] ] ] } },
{ "type": "Feature", "properties": { "Type": "Автобус", "Id": "9570900827441852" }, "geometry": { "type": "MultiLineString", "coordinates": [ [ [ 71.457373397189954, 51.12074832023815 ], [ 71.45683341987268, 51.120778373732399 ], [ 71.456489634613447, 51.120785027223789 ], [ 71.456061228054452, 51.120758807951304 ], [ 71.45564342161579, 51.120681728842598 ], [ 71.455318590809071, 51.120588241353083 ], [ 71.455020978955432, 51.120451392919634 ], [ 71.45486260597086, 51.12034640221092 ], [ 71.454562927992072, 51.120143750297125 ], [ 71.454374641108515, 51.119988462168948 ], [ 71.454212674862788, 51.119785019270729 ], [ 71.454084125945627, 51.119597645764557 ], [ 71.454028340566481, 51.119418278479323 ] ] ] } },
{ "type": "Feature", "properties": { "Type": "Автобус", "Id": "9570900827441714" }, "geometry": { "type": "MultiLineString", "coordinates": [ [ [ 71.437401677403258, 51.12469004384014 ], [ 71.437633098484497, 51.124653249989635 ] ] ] } },
{ "type": "Feature", "properties": { "Type": "Автобус", "Id": "9570900827441276" }, "geometry": { "type": "MultiLineString", "coordinates": [ [ [ 71.470871770523445, 51.131661865741172 ], [ 71.470764942456441, 51.131629959156818 ] ] ] } },
{ "type": "Feature", "properties": { "Type": "Автобус", "Id": "9570900827441242" }, "geometry": { "type": "MultiLineString", "coordinates": [ [ [ 71.470788747811469, 51.13159715047901 ], [ 71.470895100382208, 51.131628929469983 ] ] ] } },
{ "type": "Feature", "properties": { "Type": "Автобус", "Id": "9570900827441234" }, "geometry": { "type": "MultiLineString", "coordinates": [ [ [ 71.47027167753393, 51.127723589644532 ], [ 71.47026943174572, 51.127678713493246 ], [ 71.470297189687997, 51.127638516602133 ], [ 71.470358544621902, 51.127610102509344 ], [ 71.470430409844639, 51.127591892674808 ], [ 71.470512695524661, 51.127579771573522 ], [ 71.470599562612648, 51.127592456446877 ], [ 71.47064043595806, 51.127614556306781 ], [ 71.470641548070986, 51.127615592614013 ] ] ] } },
{ "type": "Feature", "properties": { "Type": "Автобус", "Id": "9570900827441221" }, "geometry": { "type": "MultiLineString", "coordinates": [ [ [ 71.471396817427291, 51.129580048492961 ], [ 71.471414154912281, 51.129828435109907 ], [ 71.471402566645125, 51.130145935077245 ], [ 71.471356842397142, 51.130433554789725 ], [ 71.471278688967445, 51.130722074685146 ], [ 71.471168286019022, 51.130984492055582 ], [ 71.471069651000818, 51.131171988494344 ], [ 71.470974339749162, 51.131335751297442 ], [ 71.470802042877679, 51.131574037822553 ] ] ] } },
{ "type": "Feature", "properties": { "Type": "Автобус", "Id": "9570900827441220" }, "geometry": { "type": "MultiLineString", "coordinates": [ [ [ 71.470625254429763, 51.128599229638915 ], [ 71.47027167753393, 51.127723589644532 ] ] ] } },
{ "type": "Feature", "properties": { "Type": "Автобус", "Id": "9570900827441112" }, "geometry": { "type": "MultiLineString", "coordinates": [ [ [ 71.458272161631726, 51.129375012959486 ], [ 71.4583615440025, 51.129578357249507 ] ] ] } },
{ "type": "Feature", "properties": { "Type": "Автобус", "Id": "9570900827441114" }, "geometry": { "type": "MultiLineString", "coordinates": [ [ [ 71.4583615440025, 51.129578357249507 ], [ 71.459348073423925, 51.132114299002978 ] ] ] } },
{ "type": "Feature", "properties": { "Type": "Автобус", "Id": "9570900827441116" }, "geometry": { "type": "MultiLineString", "coordinates": [ [ [ 71.460259238497159, 51.133998754040796 ], [ 71.460364427759956, 51.134133722407036 ], [ 71.460658715847046, 51.134417484199673 ], [ 71.460838199240811, 51.134557673380939 ] ] ] } },
{ "type": "Feature", "properties": { "Type": "Автобус", "Id": "9570900827441108" }, "geometry": { "type": "MultiLineString", "coordinates": [ [ [ 71.443449689949176, 51.131699804357233 ], [ 71.443852404691029, 51.13163328512114 ], [ 71.448359881292163, 51.130947342189764 ], [ 71.452689581298557, 51.130246393596693 ], [ 71.453756600193032, 51.130075974778322 ] ] ] } },
{ "type": "Feature", "properties": { "Type": "Автобус", "Id": "9570900827441111" }, "geometry": { "type": "MultiLineString", "coordinates": [ [ [ 71.458013177335303, 51.129414644589438 ], [ 71.458272161631726, 51.129375012959486 ] ] ] } },
{ "type": "Feature", "properties": { "Type": "Автобус", "Id": "9570900827441105" }, "geometry": { "type": "MultiLineString", "coordinates": [ [ [ 71.440006447465123, 51.130638754744155 ], [ 71.440155837296885, 51.130747499075639 ], [ 71.440272258957719, 51.130838823821826 ], [ 71.440375295720798, 51.130923834596118 ] ] ] } },
{ "type": "Feature", "properties": { "Type": "Автобус", "Id": "9570900827440745" }, "geometry": { "type": "MultiLineString", "coordinates": [ [ [ 71.458076059405201, 51.129623175180264 ], [ 71.457835041414469, 51.129660495235328 ], [ 71.455714388523248, 51.130001053438207 ] ] ] } },
{ "type": "Feature", "properties": { "Type": "Автобус", "Id": "9570900827440746" }, "geometry": { "type": "MultiLineString", "coordinates": [ [ [ 71.440503754806429, 51.132374912810235 ], [ 71.440379181309794, 51.132437844498341 ] ] ] } },
{ "type": "Feature", "properties": { "Type": "Автобус", "Id": "9570900827440742" }, "geometry": { "type": "MultiLineString", "coordinates": [ [ [ 71.458209038430667, 51.129955674511585 ], [ 71.458076059405201, 51.129623175180264 ] ] ] } },
{ "type": "Feature", "properties": { "Type": "Автобус", "Id": "9570900827440737" }, "geometry": { "type": "MultiLineString", "coordinates": [ [ [ 71.460697163741202, 51.134705753730614 ], [ 71.46061910014302, 51.134644706578911 ] ] ] } },
{ "type": "Feature", "properties": { "Type": "Автобус", "Id": "9570900827440731" }, "geometry": { "type": "MultiLineString", "coordinates": [ [ [ 71.46061910014302, 51.134644706578911 ], [ 71.460542685149719, 51.134584973254043 ] ] ] } },
{ "type": "Feature", "properties": { "Type": "Автобус", "Id": "9570900827440708" }, "geometry": { "type": "MultiLineString", "coordinates": [ [ [ 71.465589568441573, 51.136553758804176 ], [ 71.463532156946357, 51.135964840281751 ], [ 71.462846472889993, 51.135756732897455 ], [ 71.462169682154936, 51.135525795734104 ], [ 71.46171073287627, 51.135326141536723 ], [ 71.461367217111629, 51.135146384379368 ], [ 71.46102450983075, 51.134946503068491 ], [ 71.460697163741202, 51.134705753730614 ] ] ] } },
{ "type": "Feature", "properties": { "Type": "Автобус", "Id": "9570900827440519" }, "geometry": { "type": "MultiLineString", "coordinates": [ [ [ 71.458516772883584, 51.120529543743388 ], [ 71.465129092026942, 51.120137435031211 ] ] ] } },
{ "type": "Feature", "properties": { "Type": "Автобус", "Id": "9570900827440521" }, "geometry": { "type": "MultiLineString", "coordinates": [ [ [ 71.46709101260744, 51.120015189356742 ], [ 71.467314333787087, 51.119995905184823 ], [ 71.467395090172019, 51.119985171107245 ] ] ] } },
{ "type": "Feature", "properties": { "Type": "Автобус", "Id": "9570900827440517" }, "geometry": { "type": "MultiLineString", "coordinates": [ [ [ 71.454248158316517, 51.119360819902731 ], [ 71.454332689784749, 51.119546671919679 ], [ 71.454450548750017, 51.119718990354812 ], [ 71.454600747065527, 51.119899709750911 ], [ 71.454748879255888, 51.120045243327922 ], [ 71.455030411265923, 51.120235547100542 ], [ 71.455184472337152, 51.120334053663974 ], [ 71.455444983769539, 51.120445416011364 ], [ 71.455739721014282, 51.120531573633151 ], [ 71.456133272940249, 51.120596191744063 ], [ 71.456497809282538, 51.120632165836426 ], [ 71.456818687502022, 51.120625625094448 ], [ 71.458033838586843, 51.12055813134937 ], [ 71.458516772883584, 51.120529543743388 ] ] ] } },
{ "type": "Feature", "properties": { "Type": "Автобус", "Id": "9570900827440224" }, "geometry": { "type": "MultiLineString", "coordinates": [ [ [ 71.470788747811469, 51.13159715047901 ], [ 71.470777608701937, 51.131613047470147 ], [ 71.470764942456441, 51.131629959156818 ] ] ] } },
{ "type": "Feature", "properties": { "Type": "Автобус", "Id": "9570900827440225" }, "geometry": { "type": "MultiLineString", "coordinates": [ [ [ 71.470764942456441, 51.131629959156818 ], [ 71.470408580783229, 51.132110304844844 ] ] ] } },
{ "type": "Feature", "properties": { "Type": "Автобус", "Id": "9570900827440227" }, "geometry": { "type": "MultiLineString", "coordinates": [ [ [ 71.470408580783229, 51.132110304844844 ], [ 71.467058044436527, 51.136615761657197 ], [ 71.466962373858763, 51.13674360000406 ] ] ] } },
{ "type": "Feature", "properties": { "Type": "Автобус", "Id": "9570900827440217" }, "geometry": { "type": "MultiLineString", "coordinates": [ [ [ 71.471207975798649, 51.128946915073662 ], [ 71.47126251929231, 51.129081974617414 ], [ 71.471288570435561, 51.129161802099176 ] ] ] } },
{ "type": "Feature", "properties": { "Type": "Автобус", "Id": "9570900827440209" }, "geometry": { "type": "MultiLineString", "coordinates": [ [ [ 71.469463822598925, 51.126346559742373 ], [ 71.469269876329093, 51.12590499943461 ], [ 71.469184266882507, 51.125712971252348 ], [ 71.469145908819868, 51.125572135043399 ], [ 71.469159203886079, 51.125458473482375 ], [ 71.469199448410819, 51.125314479218218 ] ] ] } },
{ "type": "Feature", "properties": { "Type": "Автобус", "Id": "9570900827440200" }, "geometry": { "type": "MultiLineString", "coordinates": [ [ [ 71.438849776705311, 51.121793132868675 ], [ 71.437976165091499, 51.121929695406976 ] ] ] } },
{ "type": "Feature", "properties": { "Type": "Автобус", "Id": "9570900827440203" }, "geometry": { "type": "MultiLineString", "coordinates": [ [ [ 71.46940992368188, 51.124738046627179 ], [ 71.4694633734413, 51.124877645007892 ], [ 71.469621387099764, 51.125231600561939 ], [ 71.469629785781663, 51.12523756309001 ] ] ] } },
{ "type": "Feature", "properties": { "Type": "Автобус", "Id": "9570900827440155" }, "geometry": { "type": "MultiLineString", "coordinates": [ [ [ 71.47027167753393, 51.127723589644532 ], [ 71.470203315740818, 51.127554627325395 ], [ 71.470189391853907, 51.127523450693779 ] ] ] } },
{ "type": "Feature", "properties": { "Type": "Автобус", "Id": "9570900827440157" }, "geometry": { "type": "MultiLineString", "coordinates": [ [ [ 71.470189391853907, 51.127523450693779 ], [ 71.469963645223018, 51.127020224249563 ] ] ] } },
{ "type": "Feature", "properties": { "Type": "Автобус", "Id": "9570900827440158" }, "geometry": { "type": "MultiLineString", "coordinates": [ [ [ 71.468986457856943, 51.124838798812647 ], [ 71.468994003705333, 51.124807902250872 ], [ 71.469020144680101, 51.124776780145872 ], [ 71.469069372357666, 51.124742218798147 ], [ 71.469145998651413, 51.124689728349473 ], [ 71.469347850095744, 51.124584296226139 ] ] ] } },
{ "type": "Feature", "properties": { "Type": "Автобус", "Id": "9570900827440152" }, "geometry": { "type": "MultiLineString", "coordinates": [ [ [ 71.470296201541203, 51.131624096439481 ], [ 71.47039735184218, 51.131485251290847 ] ] ] } },
{ "type": "Feature", "properties": { "Type": "Автобус", "Id": "9570900827440144" }, "geometry": { "type": "MultiLineString", "coordinates": [ [ [ 71.466585171270964, 51.136649524993956 ], [ 71.466670511222958, 51.136500436283981 ], [ 71.467042862908229, 51.135999505965636 ] ] ] } },
{ "type": "Feature", "properties": { "Type": "Автобус", "Id": "9570900827440145" }, "geometry": { "type": "MultiLineString", "coordinates": [ [ [ 71.467042862908229, 51.135999505965636 ], [ 71.470296201541203, 51.131624096439481 ] ] ] } },
{ "type": "Feature", "properties": { "Type": "Автобус", "Id": "9570900827440036" }, "geometry": { "type": "MultiLineString", "coordinates": [ [ [ 71.466498214351461, 51.136801826082639 ], [ 71.466585171270964, 51.136649524993956 ] ] ] } },
{ "type": "Feature", "properties": { "Type": "Автобус", "Id": "9570900827440038" }, "geometry": { "type": "MultiLineString", "coordinates": [ [ [ 71.466962373858763, 51.13674360000406 ], [ 71.467105475483521, 51.136790891084132 ], [ 71.467215028947223, 51.136824324437036 ] ] ] } },
{ "type": "Feature", "properties": { "Type": "Автобус", "Id": "9570900827440029" }, "geometry": { "type": "MultiLineString", "coordinates": [ [ [ 71.4394918924704, 51.129411994965167 ], [ 71.439229573130845, 51.12944643448342 ] ] ] } },
{ "type": "Feature", "properties": { "Type": "Автобус", "Id": "9570900827440014" }, "geometry": { "type": "MultiLineString", "coordinates": [ [ [ 71.452859812044892, 51.11960238226942 ], [ 71.451770065773744, 51.119771768385682 ], [ 71.451318482680406, 51.119844845559683 ] ] ] } },
{ "type": "Feature", "properties": { "Type": "Автобус", "Id": "9570900827439969" }, "geometry": { "type": "MultiLineString", "coordinates": [ [ [ 71.45668941993263, 51.11897873828643 ], [ 71.454248158316517, 51.119360819902731 ] ] ] } },
{ "type": "Feature", "properties": { "Type": "Автобус", "Id": "9570900827439960" }, "geometry": { "type": "MultiLineString", "coordinates": [ [ [ 71.454028340566481, 51.119418278479323 ], [ 71.452859812044892, 51.11960238226942 ] ] ] } },
{ "type": "Feature", "properties": { "Type": "Автобус", "Id": "9570900827439961" }, "geometry": { "type": "MultiLineString", "coordinates": [ [ [ 71.458974554352366, 51.118620956812542 ], [ 71.458685027336301, 51.118666462033204 ], [ 71.45668941993263, 51.11897873828643 ] ] ] } },
{ "type": "Feature", "properties": { "Type": "Автобус", "Id": "9570900827439954" }, "geometry": { "type": "MultiLineString", "coordinates": [ [ [ 71.46475674034167, 51.117714395510497 ], [ 71.463197085345371, 51.117957488987784 ], [ 71.4607233945475, 51.118346176503991 ], [ 71.459841159106958, 51.118484610046544 ], [ 71.458974554352366, 51.118620956812542 ] ] ] } },
{ "type": "Feature", "properties": { "Type": "Автобус", "Id": "9570900827439957" }, "geometry": { "type": "MultiLineString", "coordinates": [ [ [ 71.454248158316517, 51.119360819902731 ], [ 71.454028340566481, 51.119418278479323 ] ] ] } },
{ "type": "Feature", "properties": { "Type": "Автобус", "Id": "9570900827439946" }, "geometry": { "type": "MultiLineString", "coordinates": [ [ [ 71.46664553805806, 51.118951051907217 ], [ 71.466511689080718, 51.118615430772763 ] ] ] } },
{ "type": "Feature", "properties": { "Type": "Автобус", "Id": "9570900827439947" }, "geometry": { "type": "MultiLineString", "coordinates": [ [ [ 71.466078521450726, 51.117509250912896 ], [ 71.46475674034167, 51.117714395510497 ] ] ] } },
{ "type": "Feature", "properties": { "Type": "Автобус", "Id": "9570900827439943" }, "geometry": { "type": "MultiLineString", "coordinates": [ [ [ 71.4676157185649, 51.121420713159928 ], [ 71.467446206470782, 51.120984236823055 ] ] ] } },
{ "type": "Feature", "properties": { "Type": "Автобус", "Id": "9570900827439944" }, "geometry": { "type": "MultiLineString", "coordinates": [ [ [ 71.467171681319968, 51.120150629425083 ], [ 71.46709101260744, 51.120015189356742 ] ] ] } },
{ "type": "Feature", "properties": { "Type": "Автобус", "Id": "9570900827439945" }, "geometry": { "type": "MultiLineString", "coordinates": [ [ [ 71.46709101260744, 51.120015189356742 ], [ 71.467051576566476, 51.119970362102627 ], [ 71.46664553805806, 51.118951051907217 ] ] ] } },
{ "type": "Feature", "properties": { "Type": "Автобус", "Id": "9570900827439932" }, "geometry": { "type": "MultiLineString", "coordinates": [ [ [ 71.46940992368188, 51.124738046627179 ], [ 71.469192800877707, 51.12474932276406 ], [ 71.469105125305987, 51.124756201206203 ], [ 71.469032451599489, 51.12474768772438 ], [ 71.468970198350306, 51.124728856573576 ], [ 71.468918635052987, 51.124684372177882 ] ] ] } },
{ "type": "Feature", "properties": { "Type": "Автобус", "Id": "9570900827439936" }, "geometry": { "type": "MultiLineString", "coordinates": [ [ [ 71.468918635052987, 51.124684372177882 ], [ 71.46811796664025, 51.122714555677376 ], [ 71.4676157185649, 51.121420713159928 ] ] ] } },
{ "type": "Feature", "properties": { "Type": "Автобус", "Id": "9570900827439864" }, "geometry": { "type": "MultiLineString", "coordinates": [ [ [ 71.469266670381344, 51.124384102596679 ], [ 71.469347850095744, 51.124584296226139 ] ] ] } },
{ "type": "Feature", "properties": { "Type": "Автобус", "Id": "9570900827439867" }, "geometry": { "type": "MultiLineString", "coordinates": [ [ [ 71.469347850095744, 51.124584296226139 ], [ 71.469351595077086, 51.124583708211482 ] ] ] } },
{ "type": "Feature", "properties": { "Type": "Автобус", "Id": "9570900827439846" }, "geometry": { "type": "MultiLineString", "coordinates": [ [ [ 71.438742068702737, 51.121583382849394 ], [ 71.438839715574119, 51.12156827178972 ], [ 71.438929547102518, 51.121553837340045 ] ] ] } },
{ "type": "Feature", "properties": { "Type": "Автобус", "Id": "9570900827439847" }, "geometry": { "type": "MultiLineString", "coordinates": [ [ [ 71.452513601334417, 51.119372040965018 ], [ 71.45314397486365, 51.119196150913723 ] ] ] } },
{ "type": "Feature", "properties": { "Type": "Автобус", "Id": "9570900827439812" }, "geometry": { "type": "MultiLineString", "coordinates": [ [ [ 71.439185334600779, 51.129331320843555 ], [ 71.439210989281051, 51.129327319658437 ] ] ] } },
{ "type": "Feature", "properties": { "Type": "Автобус", "Id": "9570900827439693" }, "geometry": { "type": "MultiLineString", "coordinates": [ [ [ 71.467121484537131, 51.13695638713363 ], [ 71.467007289622984, 51.1369212090422 ], [ 71.466852689562586, 51.136890207831193 ] ] ] } },
{ "type": "Feature", "properties": { "Type": "Автобус", "Id": "9570900827439508" }, "geometry": { "type": "MultiLineString", "coordinates": [ [ [ 71.460838199240811, 51.134557673380939 ], [ 71.460932791840236, 51.134631798168066 ], [ 71.461209832273852, 51.134833991944369 ], [ 71.461536908868808, 51.135024629369141 ], [ 71.461866590578069, 51.135197115538865 ], [ 71.462304429447542, 51.135387638729043 ], [ 71.462963703034575, 51.135612658005023 ], [ 71.463641302253379, 51.135818398617801 ], [ 71.466274444014189, 51.136572021471359 ], [ 71.466585171270964, 51.136649524993956 ] ] ] } },
{ "type": "Feature", "properties": { "Type": "Автобус", "Id": "9570900827439510" }, "geometry": { "type": "MultiLineString", "coordinates": [ [ [ 71.466585171270964, 51.136649524993956 ], [ 71.466962373858763, 51.13674360000406 ] ] ] } },
{ "type": "Feature", "properties": { "Type": "Автобус", "Id": "9570900827439511" }, "geometry": { "type": "MultiLineString", "coordinates": [ [ [ 71.466962373858763, 51.13674360000406 ], [ 71.466852689562586, 51.136890207831193 ] ] ] } },
{ "type": "Feature", "properties": { "Type": "Автобус", "Id": "9570900827439513" }, "geometry": { "type": "MultiLineString", "coordinates": [ [ [ 71.466852689562586, 51.136890207831193 ], [ 71.466742196782633, 51.137037942506375 ], [ 71.466631859043176, 51.137181301501322 ] ] ] } },
{ "type": "Feature", "properties": { "Type": "Автобус", "Id": "9570900827439506" }, "geometry": { "type": "MultiLineString", "coordinates": [ [ [ 71.46061910014302, 51.134644706578911 ], [ 71.460665093885567, 51.134580220857302 ], [ 71.460710548638943, 51.134558406174101 ], [ 71.460751421984369, 51.134549556286764 ], [ 71.460796337748576, 51.134548598018604 ], [ 71.460838199240811, 51.134557673380939 ] ] ] } },
{ "type": "Feature", "properties": { "Type": "Автобус", "Id": "9570900827439491" }, "geometry": { "type": "MultiLineString", "coordinates": [ [ [ 71.439917783746594, 51.130411512652501 ], [ 71.440006447465123, 51.130638754744155 ] ] ] } },
{ "type": "Feature", "properties": { "Type": "Автобус", "Id": "9570900827439492" }, "geometry": { "type": "MultiLineString", "coordinates": [ [ [ 71.440006447465123, 51.130638754744155 ], [ 71.440082175443592, 51.130791695765488 ], [ 71.440196261484672, 51.130949653487299 ], [ 71.440270372495618, 51.131034607684548 ], [ 71.440348346262255, 51.131090811536723 ], [ 71.440435842170956, 51.131143463829652 ], [ 71.440536543314295, 51.131192508202702 ], [ 71.441217286636601, 51.131460560148824 ], [ 71.44148732021101, 51.131572966747967 ], [ 71.441629882846598, 51.131641177238912 ], [ 71.441743968887678, 51.131708147441095 ], [ 71.441844759862576, 51.131782333174584 ], [ 71.441934142233322, 51.131882844506357 ], [ 71.44199882093379, 51.131985723236888 ], [ 71.442057750416424, 51.132159235447801 ], [ 71.442061523340627, 51.132300389799937 ], [ 71.442041427367272, 51.132345555630003 ] ] ] } },
{ "type": "Feature", "properties": { "Type": "Автобус", "Id": "9570900827439482" }, "geometry": { "type": "MultiLineString", "coordinates": [ [ [ 71.437633098484497, 51.124653249989635 ], [ 71.437728499567669, 51.124790875304718 ] ] ] } },
{ "type": "Feature", "properties": { "Type": "Автобус", "Id": "9570900827439483" }, "geometry": { "type": "MultiLineString", "coordinates": [ [ [ 71.437728499567669, 51.124790875304718 ], [ 71.438150258593566, 51.125866999793075 ] ] ] } },
{ "type": "Feature", "properties": { "Type": "Автобус", "Id": "9570900827439484" }, "geometry": { "type": "MultiLineString", "coordinates": [ [ [ 71.438150258593566, 51.125866999793075 ], [ 71.439465482001026, 51.129191680994005 ], [ 71.439480034708637, 51.129290224834669 ] ] ] } },
{ "type": "Feature", "properties": { "Type": "Автобус", "Id": "9570900827439486" }, "geometry": { "type": "MultiLineString", "coordinates": [ [ [ 71.439480034708637, 51.129290224834669 ], [ 71.4394918924704, 51.129411994965167 ] ] ] } },
{ "type": "Feature", "properties": { "Type": "Автобус", "Id": "9570900827439487" }, "geometry": { "type": "MultiLineString", "coordinates": [ [ [ 71.4394918924704, 51.129411994965167 ], [ 71.439917783746594, 51.130411512652501 ] ] ] } },
{ "type": "Feature", "properties": { "Type": "Автобус", "Id": "9570900827439301" }, "geometry": { "type": "MultiLineString", "coordinates": [ [ [ 71.439210989281051, 51.129327319658437 ], [ 71.43883639180757, 51.128371357372799 ] ] ] } },
{ "type": "Feature", "properties": { "Type": "Автобус", "Id": "9570900827439302" }, "geometry": { "type": "MultiLineString", "coordinates": [ [ [ 71.439214764020221, 51.129407899508934 ], [ 71.439210989281051, 51.129327319658437 ] ] ] } },
{ "type": "Feature", "properties": { "Type": "Автобус", "Id": "9570900827439272" }, "geometry": { "type": "MultiLineString", "coordinates": [ [ [ 71.466498214351461, 51.136801826082639 ], [ 71.466173742870836, 51.13672094085198 ], [ 71.465589568441573, 51.136553758804176 ] ] ] } },
{ "type": "Feature", "properties": { "Type": "Автобус", "Id": "9570900827439275" }, "geometry": { "type": "MultiLineString", "coordinates": [ [ [ 71.460697163741202, 51.134705753730614 ], [ 71.460636151382218, 51.134778278416725 ] ] ] } },
{ "type": "Feature", "properties": { "Type": "Автобус", "Id": "9570900827439176" }, "geometry": { "type": "MultiLineString", "coordinates": [ [ [ 71.466317841014742, 51.137073638177284 ], [ 71.466416018502954, 51.136945953630246 ], [ 71.466498214351461, 51.136801826082639 ] ] ] } },
{ "type": "Feature", "properties": { "Type": "Автобус", "Id": "9570900827439178" }, "geometry": { "type": "MultiLineString", "coordinates": [ [ [ 71.43883639180757, 51.128371357372799 ], [ 71.438274251976893, 51.126960581199029 ] ] ] } },
{ "type": "Feature", "properties": { "Type": "Переходы", "Id": "9570900827442897" }, "geometry": { "type": "MultiLineString", "coordinates": [ [ [ 71.458516772883584, 51.120529543743388 ], [ 71.458512640633273, 51.12048607024952 ], [ 71.457891994603486, 51.120521085868418 ], [ 71.457909781246101, 51.120686972707027 ], [ 71.457916967768369, 51.120738847462924 ], [ 71.457500059645028, 51.120760781445469 ], [ 71.457498802003627, 51.120741328428061 ] ] ] } },
{ "type": "Feature", "properties": { "Type": "Переходы", "Id": "9570900827442471" }, "geometry": { "type": "MultiLineString", "coordinates": [ [ [ 71.464759435287519, 51.117735203144214 ], [ 71.464788001713558, 51.117808170761258 ], [ 71.466366476718278, 51.117567534882212 ] ] ] } },
{ "type": "Feature", "properties": { "Type": "Переходы", "Id": "9570900827442358" }, "geometry": { "type": "MultiLineString", "coordinates": [ [ [ 71.46964447380256, 51.126308616842891 ], [ 71.469513948591796, 51.126331788513284 ], [ 71.468917557074661, 51.1250017383677 ], [ 71.468824132285121, 51.124956408528433 ], [ 71.468528766219691, 51.124671630125086 ], [ 71.4672751672407, 51.124990856955122 ], [ 71.467438031801706, 51.125067365071111 ] ] ] } },
{ "type": "Feature", "properties": { "Type": "Лёгкое метро", "Id": "70030077134507435" }, "geometry": { "type": "MultiLineString", "coordinates": [ [ [ 71.437606238857498, 51.122126531947394 ], [ 71.438190323455217, 51.122040264532217 ], [ 71.442459477011482, 51.121410338366537 ], [ 71.443311529058477, 51.121333485884293 ], [ 71.448951062580633, 51.120474511142447 ], [ 71.449423396757027, 51.120376230422572 ], [ 71.45000523556655, 51.120230867046786 ], [ 71.451349384726186, 51.119895593529165 ], [ 71.452567679914509, 51.119504663564982 ], [ 71.453786064934349, 51.119314413168979 ], [ 71.454391439604322, 51.119228704376575 ], [ 71.466280836288306, 51.117366247017372 ] ] ] } },
{ "type": "Feature", "properties": { "Type": "Лёгкое метро", "Id": "70030077134456820" }, "geometry": { "type": "MultiLineString", "coordinates": [ [ [ 71.436480412781989, 51.122292809491142 ], [ 71.437022244091295, 51.122212855585261 ], [ 71.437606238857498, 51.122126531947394 ] ] ] } },
{ "type": "Feature", "properties": { "Type": "Автобус", "Id": "70030077032556499" }, "geometry": { "type": "MultiLineString", "coordinates": [ [ [ 71.408354488092243, 51.19391005927173 ], [ 71.408041425215742, 51.193524484854542 ] ] ] } },
{ "type": "Feature", "properties": { "Type": "Автобус", "Id": "70030076922494808" }, "geometry": { "type": "MultiLineString", "coordinates": [ [ [ 71.409413511980688, 51.194597543569351 ], [ 71.408731421185465, 51.194810001840018 ] ] ] } },
{ "type": "Feature", "properties": { "Type": "Автобус", "Id": "70030076922495014" }, "geometry": { "type": "MultiLineString", "coordinates": [ [ [ 71.408731421185465, 51.194810001840018 ], [ 71.40862766577014, 51.194844904800853 ] ] ] } },
{ "type": "Feature", "properties": { "Type": "Автобус", "Id": "70030076922491742" }, "geometry": { "type": "MultiLineString", "coordinates": [ [ [ 71.408128651629823, 51.195002024092361 ], [ 71.408085173170051, 51.195015703747345 ], [ 71.40800145018558, 51.195033718101612 ], [ 71.407908294890618, 51.195044695595307 ], [ 71.407798700425957, 51.195037264676792 ], [ 71.407705275636431, 51.194999772296903 ], [ 71.407652185203119, 51.194923999315883 ], [ 71.407639788452201, 51.194839894538752 ], [ 71.407662246334311, 51.194780728368606 ], [ 71.407680482134566, 51.194762319849161 ] ] ] } },
{ "type": "Feature", "properties": { "Type": "Автобус", "Id": "70030076834124026" }, "geometry": { "type": "MultiLineString", "coordinates": [ [ [ 71.40862766577014, 51.194844904800853 ], [ 71.408128651629823, 51.195002024092361 ] ] ] } },
{ "type": "Feature", "properties": { "Type": "Автобус", "Id": "70030076572501562" }, "geometry": { "type": "MultiLineString", "coordinates": [ [ [ 71.408174555540825, 51.193411215774866 ], [ 71.408253607285829, 51.193389428897092 ], [ 71.408719577214484, 51.193233103121564 ] ] ] } },
{ "type": "Feature", "properties": { "Type": "Автобус", "Id": "70030076572502353" }, "geometry": { "type": "MultiLineString", "coordinates": [ [ [ 71.408755298522209, 51.193284556611431 ], [ 71.408220100125732, 51.193467287381914 ] ] ] } },
{ "type": "Feature", "properties": { "Type": "Автобус", "Id": "70030076384960278" }, "geometry": { "type": "MultiLineString", "coordinates": [ [ [ 71.405688467992022, 51.194203474230932 ], [ 71.40650368911237, 51.193946876984242 ], [ 71.407995970462338, 51.193468469613855 ] ] ] } },
{ "type": "Feature", "properties": { "Type": "Автобус", "Id": "70030076365429230" }, "geometry": { "type": "MultiLineString", "coordinates": [ [ [ 71.404463974428253, 51.194607113782787 ], [ 71.404522454753248, 51.194576883160622 ], [ 71.40471181961513, 51.194510848604068 ], [ 71.405688467992022, 51.194203474230932 ] ] ] } },
{ "type": "Feature", "properties": { "Type": "Автобус", "Id": "70030076329386845" }, "geometry": { "type": "MultiLineString", "coordinates": [ [ [ 71.404147767448237, 51.194813661022636 ], [ 71.40420436131113, 51.194779827646109 ], [ 71.404386090493119, 51.194647364952871 ], [ 71.404463974428253, 51.194607113782787 ] ] ] } },
{ "type": "Feature", "properties": { "Type": "Автобус", "Id": "9570900827442421" }, "geometry": { "type": "MultiLineString", "coordinates": [ [ [ 71.407995970462338, 51.193468469613855 ], [ 71.408174555540825, 51.193411215774866 ] ] ] } },
{ "type": "Feature", "properties": { "Type": "Автобус", "Id": "9570900827442422" }, "geometry": { "type": "MultiLineString", "coordinates": [ [ [ 71.408174555540825, 51.193411215774866 ], [ 71.408220100125732, 51.193467287381914 ] ] ] } },
{ "type": "Feature", "properties": { "Type": "Автобус", "Id": "9570900827442318" }, "geometry": { "type": "MultiLineString", "coordinates": [ [ [ 71.408722887190251, 51.194363691971397 ], [ 71.408902190920969, 51.194307227385032 ] ] ] } },
{ "type": "Feature", "properties": { "Type": "Автобус", "Id": "9570900827442310" }, "geometry": { "type": "MultiLineString", "coordinates": [ [ [ 71.402195159480783, 51.195530984518058 ], [ 71.40220480132021, 51.195527927905218 ] ] ] } },
{ "type": "Feature", "properties": { "Type": "Автобус", "Id": "9570900827442311" }, "geometry": { "type": "MultiLineString", "coordinates": [ [ [ 71.40220480132021, 51.195527927905218 ], [ 71.403061614438201, 51.195253943013334 ], [ 71.40362117502869, 51.195068452008591 ], [ 71.403830662152941, 51.194989470331329 ], [ 71.404010325209768, 51.194895795522186 ], [ 71.404147767448237, 51.194813661022636 ] ] ] } },
{ "type": "Feature", "properties": { "Type": "Автобус", "Id": "9570900827440677" }, "geometry": { "type": "MultiLineString", "coordinates": [ [ [ 71.408220100125732, 51.193467287381914 ], [ 71.408041425215742, 51.193524484854542 ] ] ] } },
{ "type": "Feature", "properties": { "Type": "Автобус", "Id": "9570900827440678" }, "geometry": { "type": "MultiLineString", "coordinates": [ [ [ 71.408041425215742, 51.193524484854542 ], [ 71.406548874371154, 51.194003060531664 ], [ 71.404758621841438, 51.194566468509642 ], [ 71.404579138447687, 51.194629068970826 ], [ 71.404456428579877, 51.194692570071176 ], [ 71.404276945186098, 51.194823231191187 ], [ 71.404186574668515, 51.194877274458655 ] ] ] } },
{ "type": "Feature", "properties": { "Type": "Автобус", "Id": "9570900827440679" }, "geometry": { "type": "MultiLineString", "coordinates": [ [ [ 71.404186574668515, 51.194877274458655 ], [ 71.404076710709262, 51.194942970720319 ], [ 71.403888693320297, 51.195040867546531 ], [ 71.403670582369315, 51.195123339409484 ], [ 71.403226545124383, 51.195271563212586 ], [ 71.403182348012393, 51.19528636867831 ], [ 71.402977981285275, 51.195353190245783 ], [ 71.402229585873627, 51.195590448287511 ] ] ] } },
{ "type": "Feature", "properties": { "Type": "Автобус", "Id": "9570900827440439" }, "geometry": { "type": "MultiLineString", "coordinates": [ [ [ 71.408112779416214, 51.193335154528356 ], [ 71.408174555540825, 51.193411215774866 ] ] ] } },
{ "type": "Feature", "properties": { "Type": "Автобус", "Id": "9570900827440105" }, "geometry": { "type": "MultiLineString", "coordinates": [ [ [ 71.408902190920969, 51.194307227385032 ], [ 71.409364307536464, 51.194161782030932 ] ] ] } },
{ "type": "Feature", "properties": { "Type": "Автобус", "Id": "9570900827440102" }, "geometry": { "type": "MultiLineString", "coordinates": [ [ [ 71.408220100125732, 51.193467287381914 ], [ 71.408902190920969, 51.194307227385032 ] ] ] } },
{ "type": "Feature", "properties": { "Type": "Автобус", "Id": "9570900827439698" }, "geometry": { "type": "MultiLineString", "coordinates": [ [ [ 71.407862301148086, 51.194634642209195 ], [ 71.40808283755031, 51.194565173715034 ] ] ] } },
{ "type": "Feature", "properties": { "Type": "Автобус", "Id": "9570900827439703" }, "geometry": { "type": "MultiLineString", "coordinates": [ [ [ 71.408041425215742, 51.193524484854542 ], [ 71.407995970462338, 51.193468469613855 ] ] ] } },
{ "type": "Feature", "properties": { "Type": "Автобус", "Id": "9570900827439704" }, "geometry": { "type": "MultiLineString", "coordinates": [ [ [ 71.407995970462338, 51.193468469613855 ], [ 71.407935886225303, 51.193394464251227 ] ] ] } },
{ "type": "Feature", "properties": { "Type": "Автобус", "Id": "9570900827439692" }, "geometry": { "type": "MultiLineString", "coordinates": [ [ [ 71.409621402130668, 51.194532104814293 ], [ 71.409413511980688, 51.194597543569351 ] ] ] } },
{ "type": "Feature", "properties": { "Type": "Автобус", "Id": "9570900827439694" }, "geometry": { "type": "MultiLineString", "coordinates": [ [ [ 71.407680482134566, 51.194762319849161 ], [ 71.407715785925234, 51.19472657239745 ], [ 71.407862301148086, 51.194634642209195 ] ] ] } },
{ "type": "Feature", "properties": { "Type": "Автобус", "Id": "9570900827439695" }, "geometry": { "type": "MultiLineString", "coordinates": [ [ [ 71.40808283755031, 51.194565173715034 ], [ 71.408722887190251, 51.194363691971397 ] ] ] } },
{ "type": "Feature", "properties": { "Type": "Автобус", "Id": "9570900827439696" }, "geometry": { "type": "MultiLineString", "coordinates": [ [ [ 71.408722887190251, 51.194363691971397 ], [ 71.408354488092243, 51.19391005927173 ] ] ] } }
]
}
