{
"type": "FeatureCollection",
"name": "Zven",
"crs": { "type": "name", "properties": { "name": "urn:ogc:def:crs:OGC:1.3:CRS84" } },
"xy_coordinate_resolution": 1e-15,
"features": [
{ "type": "Feature", "properties": { "Id": "9570900827439107" }, "geometry": { "type": "MultiLineString", "coordinates": [ [ [ 71.410391992247568, 51.195642073998222 ], [ 71.409783438214703, 51.195834674210339 ] ] ] } },
{ "type": "Feature", "properties": { "Id": "9570900827439108" }, "geometry": { "type": "MultiLineString", "coordinates": [ [ [ 71.409783438214703, 51.195834674210339 ], [ 71.407454286346024, 51.196571667629165 ], [ 71.405701403732138, 51.197158518072875 ], [ 71.40355366237587, 51.19787748951866 ] ] ] } }
]
}
